Name,Type,Ownership,State,City,Website,Accreditation Status,Email,Phone,Address,Source URL,License
"Abdulrasaq Abubakar Toyin University, Oke-Ogba, Ganmo, Ilorin, Kwara State",university,private,Kwara,University,,accredited,,,,https://myschoolgist.com/ng/private-universities-in-nigeria/,CC-BY-NC-SA
"Abubakar Tafawa Balewa University, Bauchi",university,federal,Bauchi,Unknown,https://myschoolgist.com/ng/atbu-courses/,accredited,,,,https://myschoolgist.com/ng/federal-universities-in-nigeria/,CC-BY-NC-SA
"Achievers University, Owo",university,private,Unknown,Owo,https://myschoolgist.com/ng/achievers-university-degree-programmes/,accredited,,,,https://myschoolgist.com/ng/private-universities-in-nigeria/,CC-BY-NC-SA
"Adekunle Ajasin University, Akungba",university,state,Unknown,University,https://myschoolgist.com/ng/aaua-courses/,accredited,,,,https://myschoolgist.com/ng/state-universities-in-nigeria/,CC-BY-NC-SA
"Adeleke University, Ede",university,private,Unknown,Ede,https://myschoolgist.com/ng/list-of-available-courses-in-adeleke-university/,accredited,,,,https://myschoolgist.com/ng/private-universities-in-nigeria/,CC-BY-NC-SA
"Adeyemi University of Education, Ondo",university,federal,Ondo,Unknown,https://www.aueo.com,accredited,,,,https://myschoolgist.com/ng/federal-universities-in-nigeria/,CC-BY-NC-SA
"Admiralty University Ibusa, Delta State",university,federal,Delta,Delta State,https://myschoolgist.com/ng/adun-courses/,accredited,,,,https://myschoolgist.com/ng/federal-universities-in-nigeria/,CC-BY-NC-SA
"Afe Babalola University, Ado-Ekiti – Ekiti State",university,private,Ekiti,Ado,https://myschoolgist.com/ng/list-of-available-courses-in-abuad/,accredited,,,,https://myschoolgist.com/ng/private-universities-in-nigeria/,CC-BY-NC-SA
African Aviation and Aerospace University,university,federal,Unknown,Unknown,https://www.aaaau.com,accredited,,,,https://myschoolgist.com/ng/federal-universities-in-nigeria/,CC-BY-NC-SA
"African University of Economics, FCT, Abuja",university,private,FCT,Unknown,,accredited,,,,https://myschoolgist.com/ng/private-universities-in-nigeria/,CC-BY-NC-SA
Ahmadu Bello University,university,federal,Kaduna,Zaria,https://abu.edu.ng,Accredited,info@abu.edu.ng,,,https://nuc.edu.ng,
"Ahmadu Bello University, Zaria",university,federal,Unknown,Zaria,https://myschoolgist.com/ng/abu-courses/,accredited,,,,https://myschoolgist.com/ng/federal-universities-in-nigeria/,CC-BY-NC-SA
"Ahman Pategi University, Kwara State",university,private,Kwara,Kwara State,,accredited,,,,https://myschoolgist.com/ng/private-universities-in-nigeria/,CC-BY-NC-SA
"Air Force Institute of Technology, Kaduna",university,federal,Kaduna,Unknown,https://myschoolgist.com/ng/afit-courses/,accredited,,,,https://myschoolgist.com/ng/federal-universities-in-nigeria/,CC-BY-NC-SA
"Ajayi Crowther University, Ibadan",university,private,Unknown,Ibadan,https://myschoolgist.com/ng/ajayi-crowther-university-undergraduate-courses/,accredited,,,,https://myschoolgist.com/ng/private-universities-in-nigeria/,CC-BY-NC-SA
"Akwa Ibom State University of Technology, Uyo",university,state,Akwa Ibom,Uyo,https://myschoolgist.com/ng/aksu-courses/,accredited,,,,https://myschoolgist.com/ng/state-universities-in-nigeria/,CC-BY-NC-SA
"Al-Ansar University, Maiduguri, Borno",university,private,Borno,Maiduguri,https://www.aumb.com,accredited,,,,https://myschoolgist.com/ng/private-universities-in-nigeria/,CC-BY-NC-SA
"Al-Bayan University, Ankpa, Kogi State",university,private,Kogi,Ankpa,,accredited,,,,https://myschoolgist.com/ng/private-universities-in-nigeria/,CC-BY-NC-SA
"Aletheia University, Ago-Iwoye Ogun State",university,private,Ogun,Ago,https://www.auaos.com,accredited,,,,https://myschoolgist.com/ng/private-universities-in-nigeria/,CC-BY-NC-SA
"Al-Hikmah University, Ilorin",university,private,Unknown,Ilorin,https://myschoolgist.com/ng/list-of-available-courses-in-al-hikmah-university/,accredited,,,,https://myschoolgist.com/ng/private-universities-in-nigeria/,CC-BY-NC-SA
"Al-Istiqama University, Sumaila, Kano State",university,private,Kano,Sumaila,https://myschoolgist.com/ng/ausu-courses/,accredited,,,,https://myschoolgist.com/ng/private-universities-in-nigeria/,CC-BY-NC-SA
"Al-Muhibbah Open University, Abuja",university,private,Abuja,Unknown,https://www.aoua.com,accredited,,,,https://myschoolgist.com/ng/private-universities-in-nigeria/,CC-BY-NC-SA
"Al-Qalam University, Katsina",university,private,Katsina,Unknown,https://myschoolgist.com/ng/auk-courses/,accredited,,,,https://myschoolgist.com/ng/private-universities-in-nigeria/,CC-BY-NC-SA
"Alvan Ikoku Federal University of Education, Owerri, Imo State",university,federal,Imo,Owerri,,accredited,,,,https://myschoolgist.com/ng/federal-universities-in-nigeria/,CC-BY-NC-SA
"Amadeus University, Amizi, Abia State",university,private,Abia,Amizi,,accredited,,,,https://myschoolgist.com/ng/private-universities-in-nigeria/,CC-BY-NC-SA
"Amaj University, Kwali, Abuja",university,private,Abuja,Kwali,,accredited,,,,https://myschoolgist.com/ng/private-universities-in-nigeria/,CC-BY-NC-SA
"Ambrose Alli University, Ekpoma",university,state,Unknown,Ekpoma,https://myschoolgist.com/ng/aau-courses/,accredited,,,,https://myschoolgist.com/ng/state-universities-in-nigeria/,CC-BY-NC-SA
"American University of Nigeria, Yola",university,private,Niger,Yola,https://myschoolgist.com/ng/aun-courses/,accredited,,,,https://myschoolgist.com/ng/private-universities-in-nigeria/,CC-BY-NC-SA
"Anan University, Kwall, Plateau State",university,private,Plateau,Kwall,,accredited,,,,https://myschoolgist.com/ng/private-universities-in-nigeria/,CC-BY-NC-SA
Anchor University Ayobo Lagos State,university,private,Lagos,Unknown,https://myschoolgist.com/ng/anchor-university-courses/,accredited,,,,https://myschoolgist.com/ng/private-universities-in-nigeria/,CC-BY-NC-SA
Arthur Javis University Akpoyubo Cross river State,university,private,Cross River,Unknown,https://myschoolgist.com/ng/list-of-available-courses-in-arthur-jarvis-university/,accredited,,,,https://myschoolgist.com/ng/private-universities-in-nigeria/,CC-BY-NC-SA
Atiba University Oyo,university,private,Oyo,Unknown,https://myschoolgist.com/ng/atiba-university-courses/,accredited,,,,https://myschoolgist.com/ng/private-universities-in-nigeria/,CC-BY-NC-SA
Augustine University,university,private,Unknown,Unknown,https://myschoolgist.com/ng/list-of-available-courses-in-augustine-university/,accredited,,,,https://myschoolgist.com/ng/private-universities-in-nigeria/,CC-BY-NC-SA
"Ave Maria University, Piyanko, Nasarawa State",university,private,Nasarawa,Piyanko,https://myschoolgist.com/ng/ave-maria-university-courses/,accredited,,,,https://myschoolgist.com/ng/private-universities-in-nigeria/,CC-BY-NC-SA
"Azman University, Kano State",university,private,Kano,Kano State,,accredited,,,,https://myschoolgist.com/ng/private-universities-in-nigeria/,CC-BY-NC-SA
"Baba Ahmed University, Kano State",university,private,Kano,Kano State,,accredited,,,,https://myschoolgist.com/ng/private-universities-in-nigeria/,CC-BY-NC-SA
"Babcock University,Ilishan-Remo",university,private,Unknown,Ilishan,https://myschoolgist.com/ng/courses-in-babcock-university/,accredited,,,,https://myschoolgist.com/ng/private-universities-in-nigeria/,CC-BY-NC-SA
Bayero University Kano,university,federal,Kano,Kano,https://buk.edu.ng,Accredited,info@buk.edu.ng,,,https://nuc.edu.ng,
"Bayero University, Kano",university,federal,Kano,Unknown,https://myschoolgist.com/ng/buk-courses/,accredited,,,,https://myschoolgist.com/ng/federal-universities-in-nigeria/,CC-BY-NC-SA
Baze University,university,private,Unknown,Unknown,https://myschoolgist.com/ng/baze-university-courses/,accredited,,,,https://myschoolgist.com/ng/private-universities-in-nigeria/,CC-BY-NC-SA
"Bells University of Technology, Otta",university,private,Unknown,Otta,https://myschoolgist.com/ng/list-of-available-courses-in-bells-university/,accredited,,,,https://myschoolgist.com/ng/private-universities-in-nigeria/,CC-BY-NC-SA
"Benson Idahosa University, Benin City",university,private,Unknown,City,https://myschoolgist.com/ng/biu-courses/,accredited,,,,https://myschoolgist.com/ng/private-universities-in-nigeria/,CC-BY-NC-SA
"Bingham University, New Karu",university,private,Unknown,New Karu,https://myschoolgist.com/ng/list-of-available-courses-in-bingham-ecwa-university/,accredited,,,,https://myschoolgist.com/ng/private-universities-in-nigeria/,CC-BY-NC-SA
"Bornu State University, Maiduguri",university,state,Unknown,Maiduguri,https://myschoolgist.com/ng/borno-state-university-courses/,accredited,,,,https://myschoolgist.com/ng/state-universities-in-nigeria/,CC-BY-NC-SA
"Bowen University, Iwo",university,private,Unknown,Iwo,https://myschoolgist.com/ng/list-of-available-courses-in-bowen-university/,accredited,,,,https://myschoolgist.com/ng/private-universities-in-nigeria/,CC-BY-NC-SA
"British Canadian University, Obufu Cross River State",university,private,Cross River,Obufu Cross River State,,accredited,,,,https://myschoolgist.com/ng/private-universities-in-nigeria/,CC-BY-NC-SA
"Caleb University, Lagos",university,private,Lagos,Unknown,https://myschoolgist.com/ng/caleb-university-courses/,accredited,,,,https://myschoolgist.com/ng/private-universities-in-nigeria/,CC-BY-NC-SA
"Canadian University of Nigeria, Abuja",university,private,Niger,Unknown,,accredited,,,,https://myschoolgist.com/ng/private-universities-in-nigeria/,CC-BY-NC-SA
"Capital City University, Kano State",university,private,Kano,Kano State,https://myschoolgist.com/ng/ccuk-courses/,accredited,,,,https://myschoolgist.com/ng/private-universities-in-nigeria/,CC-BY-NC-SA
"Caritas University, Enugu",university,private,Enugu,Unknown,,accredited,,,,https://myschoolgist.com/ng/private-universities-in-nigeria/,CC-BY-NC-SA
Chrisland University,university,private,Unknown,Unknown,https://myschoolgist.com/ng/chrisland-university-courses/,accredited,,,,https://myschoolgist.com/ng/private-universities-in-nigeria/,CC-BY-NC-SA
Christopher University Mowe,university,private,Unknown,Unknown,https://myschoolgist.com/ng/list-of-available-courses-in-christopher-university/,accredited,,,,https://myschoolgist.com/ng/private-universities-in-nigeria/,CC-BY-NC-SA
"Chukwuemeka Odumegwu Ojukwu University, Uli",university,state,Unknown,Uli,https://myschoolgist.com/ng/coou-ansu-courses/,accredited,,,,https://myschoolgist.com/ng/state-universities-in-nigeria/,CC-BY-NC-SA
"Claretian University of Nigeria, Nekede, Imo State",university,private,Imo,Nekede,https://myschoolgist.com/ng/claretian-university-courses/,accredited,,,,https://myschoolgist.com/ng/private-universities-in-nigeria/,CC-BY-NC-SA
Clifford University Owerrinta Abia State,university,private,Abia,Unknown,https://myschoolgist.com/ng/clifford-university-courses/,accredited,,,,https://myschoolgist.com/ng/private-universities-in-nigeria/,CC-BY-NC-SA
"Cn Hill University Eiyenkorin, Kwara State",university,private,Kwara,Kwara State,https://myschoolgist.com/ng/crown-hill-university-courses/,accredited,,,,https://myschoolgist.com/ng/private-universities-in-nigeria/,CC-BY-NC-SA
Coal City University Enugu State,university,private,Enugu,Unknown,https://myschoolgist.com/ng/coal-city-university-courses/,accredited,,,,https://myschoolgist.com/ng/private-universities-in-nigeria/,CC-BY-NC-SA
"College of Petroleum and Energy Studies, Kaduna State",university,private,Kaduna,Kaduna State,,accredited,,,,https://myschoolgist.com/ng/private-universities-in-nigeria/,CC-BY-NC-SA
"Confluence University of Science and Technology, Osara,",university,state,Unknown,Osara,https://myschoolgist.com/ng/custech-courses/,accredited,,,,https://myschoolgist.com/ng/state-universities-in-nigeria/,CC-BY-NC-SA
Cosmopolitan University Abuja,university,private,Abuja,Unknown,,accredited,,,,https://myschoolgist.com/ng/private-universities-in-nigeria/,CC-BY-NC-SA
Covenant University,university,private,Ogun,Ota,https://covenantuniversity.edu.ng,Accredited,info@covenantuniversity.edu.ng,,,https://nuc.edu.ng,
Covenant University Ota,university,private,Unknown,Unknown,https://myschoolgist.com/ng/list-of-available-courses-in-covenant-university/,accredited,,,,https://myschoolgist.com/ng/private-universities-in-nigeria/,CC-BY-NC-SA
Crawford University Igbesa,university,private,Unknown,Unknown,https://myschoolgist.com/ng/list-of-available-courses-in-crawford-university/,accredited,,,,https://myschoolgist.com/ng/private-universities-in-nigeria/,CC-BY-NC-SA
Crescent University,university,private,Unknown,Unknown,https://myschoolgist.com/ng/list-of-available-courses-in-crescent-university/,accredited,,,,https://myschoolgist.com/ng/private-universities-in-nigeria/,CC-BY-NC-SA
"Cross River State University of Science &Technology, Calabar",university,state,Cross River,Calabar,https://myschoolgist.com/ng/crutech-courses/,accredited,,,,https://myschoolgist.com/ng/state-universities-in-nigeria/,CC-BY-NC-SA
"David Nweze Umahi Federal University of Medical Sciences, Uburu, Ebonyi State",university,federal,Ebonyi,Uburu,https://myschoolgist.com/ng/kdums-courses/,accredited,,,,https://myschoolgist.com/ng/federal-universities-in-nigeria/,CC-BY-NC-SA
"Dennis Osadebe University, Asaba",university,state,Unknown,Asaba,https://myschoolgist.com/ng/dou-courses/,accredited,,,,https://myschoolgist.com/ng/state-universities-in-nigeria/,CC-BY-NC-SA
Dominican University Ibadan Oyo State,university,private,Oyo,Unknown,https://myschoolgist.com/ng/dominican-university-courses/,accredited,,,,https://myschoolgist.com/ng/private-universities-in-nigeria/,CC-BY-NC-SA
"Dominion University Ibadan, Oyo State",university,private,Oyo,Oyo State,https://myschoolgist.com/ng/dominion-university-courses/,accredited,,,,https://myschoolgist.com/ng/private-universities-in-nigeria/,CC-BY-NC-SA
Edo State University,university,state,Edo,Unknown,https://myschoolgist.com/ng/list-of-available-courses-in-edo-university/,accredited,,,,https://myschoolgist.com/ng/state-universities-in-nigeria/,CC-BY-NC-SA
"Edusoko University, Bida, Niger State",university,private,Niger,Bida,,accredited,,,,https://myschoolgist.com/ng/private-universities-in-nigeria/,CC-BY-NC-SA
"Edwin Clark University, Kaigbodo",university,private,Unknown,Clark University,https://myschoolgist.com/ng/edwin-clark-university-courses/,accredited,,,,https://myschoolgist.com/ng/private-universities-in-nigeria/,CC-BY-NC-SA
"Eko University of Medical and Health Sciences Ijanikin, Lagos",university,private,Lagos,Unknown,https://myschoolgist.com/ng/ekounimed-courses/,accredited,,,,https://myschoolgist.com/ng/private-universities-in-nigeria/,CC-BY-NC-SA
"El-Amin University, Minna, Niger State",university,private,Niger,University,,accredited,,,,https://myschoolgist.com/ng/private-universities-in-nigeria/,CC-BY-NC-SA
"Elizade University, Ilara-Mokin",university,private,Unknown,Ilara,https://myschoolgist.com/ng/list-of-available-courses-in-elizade-university/,accredited,,,,https://myschoolgist.com/ng/private-universities-in-nigeria/,CC-BY-NC-SA
"Elrazi Medical University Yargaya University, Kano State",university,private,Kano,Kano State,,accredited,,,,https://myschoolgist.com/ng/private-universities-in-nigeria/,CC-BY-NC-SA
"Emmanuel Alayande University of Education. Oyo, Oyo State",university,state,Oyo,Oyo State,,accredited,,,,https://myschoolgist.com/ng/state-universities-in-nigeria/,CC-BY-NC-SA
"Enugu State University of Medical and Applied Sciences, Igbo-Eno",university,state,Enugu,Igbo,,accredited,,,,https://myschoolgist.com/ng/state-universities-in-nigeria/,CC-BY-NC-SA
"Eranova University, Abuja",university,private,Abuja,Unknown,,accredited,,,,https://myschoolgist.com/ng/private-universities-in-nigeria/,CC-BY-NC-SA
"European University of Nigeria, Duboyi, FCT",university,private,FCT,Duboyi,,accredited,,,,https://myschoolgist.com/ng/private-universities-in-nigeria/,CC-BY-NC-SA
"Evangel University, Akaeze",university,private,Unknown,Akaeze,https://myschoolgist.com/ng/evangel-university-courses/,accredited,,,,https://myschoolgist.com/ng/private-universities-in-nigeria/,CC-BY-NC-SA
"Federal University, Birnin Kebbi",university,federal,Kebbi,Birnin Kebbi,https://myschoolgist.com/ng/fubk-courses/,accredited,,,,https://myschoolgist.com/ng/federal-universities-in-nigeria/,CC-BY-NC-SA
"Federal University, Dutse, Jigawa State",university,federal,Jigawa,Dutse,https://myschoolgist.com/ng/fud-courses/,accredited,,,,https://myschoolgist.com/ng/federal-universities-in-nigeria/,CC-BY-NC-SA
"Federal University, Dutsin-Ma, Katsina",university,federal,Katsina,Dutsin,https://myschoolgist.com/ng/fudma-courses/,accredited,,,,https://myschoolgist.com/ng/federal-universities-in-nigeria/,CC-BY-NC-SA
"Federal University Gashua, Yobe",university,federal,Yobe,Unknown,https://myschoolgist.com/ng/fugashua-courses/,accredited,,,,https://myschoolgist.com/ng/federal-universities-in-nigeria/,CC-BY-NC-SA
"Federal University, Gusau Zamfara",university,federal,Zamfara,Gusau Zamfara,https://myschoolgist.com/ng/fugus-courses/,accredited,,,,https://myschoolgist.com/ng/federal-universities-in-nigeria/,CC-BY-NC-SA
"Federal University, Kashere, Gombe State",university,federal,Gombe,Kashere,https://myschoolgist.com/ng/fukashere-courses/,accredited,,,,https://myschoolgist.com/ng/federal-universities-in-nigeria/,CC-BY-NC-SA
"Federal University, Lafia, Nasarawa State",university,federal,Nasarawa,Lafia,https://myschoolgist.com/ng/fulafia-courses/,accredited,,,,https://myschoolgist.com/ng/federal-universities-in-nigeria/,CC-BY-NC-SA
"Federal University, Lokoja, Kogi State",university,federal,Kogi,Lokoja,https://myschoolgist.com/ng/fulokoja-courses/,accredited,,,,https://myschoolgist.com/ng/federal-universities-in-nigeria/,CC-BY-NC-SA
"Federal University, Ndifu-Alike, Ebonyi State",university,federal,Ebonyi,Ndifu,https://myschoolgist.com/ng/funai-courses/,accredited,,,,https://myschoolgist.com/ng/federal-universities-in-nigeria/,CC-BY-NC-SA
"Federal University of Agriculture, Abeokuta",university,federal,Unknown,Abeokuta,https://myschoolgist.com/ng/funaab-courses/,accredited,,,,https://myschoolgist.com/ng/federal-universities-in-nigeria/,CC-BY-NC-SA
"Federal University of Agriculture and Developmental Studies, Iragbuji, Osun State",university,federal,Osun,Iragbuji,,accredited,,,,https://myschoolgist.com/ng/federal-universities-in-nigeria/,CC-BY-NC-SA
"Federal University of Agriculture Bassam-Biri, Bayelsa",university,federal,Bayelsa,Unknown,,accredited,,,,https://myschoolgist.com/ng/federal-universities-in-nigeria/,CC-BY-NC-SA
"Federal University of Agriculture, Mubi",university,federal,Unknown,Mubi,,accredited,,,,https://myschoolgist.com/ng/federal-universities-in-nigeria/,CC-BY-NC-SA
"Federal University of Agriculture, Zuru, Kebbi State",university,federal,Kebbi,Zuru,https://myschoolgist.com/ng/fuaz-courses/,accredited,,,,https://myschoolgist.com/ng/federal-universities-in-nigeria/,CC-BY-NC-SA
"Federal University of Allied Health Sciences, Enugu",university,federal,Enugu,Unknown,,accredited,,,,https://myschoolgist.com/ng/federal-universities-in-nigeria/,CC-BY-NC-SA
"Federal University of Applied Sciences, Kachia, Kaduna State",university,federal,Kaduna,Kachia,,accredited,,,,https://myschoolgist.com/ng/federal-universities-in-nigeria/,CC-BY-NC-SA
"Federal University of Education, Kano",university,federal,Kano,Unknown,,accredited,,,,https://myschoolgist.com/ng/federal-universities-in-nigeria/,CC-BY-NC-SA
"Federal University of Education Kontagora, Niger State",university,federal,Niger,Niger State,,accredited,,,,https://myschoolgist.com/ng/federal-universities-in-nigeria/,CC-BY-NC-SA
"Federal University of Education Pankshin, Plateau State",university,federal,Plateau,Plateau State,,accredited,,,,https://myschoolgist.com/ng/federal-universities-in-nigeria/,CC-BY-NC-SA
"Federal University of Education, Zaria, Kaduna State",university,federal,Kaduna,Zaria,,accredited,,,,https://myschoolgist.com/ng/federal-universities-in-nigeria/,CC-BY-NC-SA
"Federal University of Environment and Technology, Tai Town, Ogoniland, Rivers State",university,federal,Rivers,Tai Town,,accredited,,,,https://myschoolgist.com/ng/federal-universities-in-nigeria/,CC-BY-NC-SA
"Federal University of Health Sciences, Azare, Bauchi State",university,federal,Bauchi,Azare,,accredited,,,,https://myschoolgist.com/ng/federal-universities-in-nigeria/,CC-BY-NC-SA
"Federal University of Health Sciences, Ila Orangun, Osun State",university,federal,Osun,Ila Orangun,,accredited,,,,https://myschoolgist.com/ng/federal-universities-in-nigeria/,CC-BY-NC-SA
"Federal University of Health Sciences, Katsina",university,federal,Katsina,Unknown,,accredited,,,,https://myschoolgist.com/ng/federal-universities-in-nigeria/,CC-BY-NC-SA
"Federal University of Health Sciences Kwale, Delta State",university,federal,Delta,Delta State,,accredited,,,,https://myschoolgist.com/ng/federal-universities-in-nigeria/,CC-BY-NC-SA
"Federal University of Medicine and Medical Sciences, Abeokuta",university,federal,Unknown,Abeokuta,,accredited,,,,https://myschoolgist.com/ng/federal-universities-in-nigeria/,CC-BY-NC-SA
"Federal University of Petroleum Resources, Effurun",university,federal,Unknown,Effurun,https://myschoolgist.com/ng/fupre-courses/,accredited,,,,https://myschoolgist.com/ng/federal-universities-in-nigeria/,CC-BY-NC-SA
"Federal University of Technology, Akure",university,federal,Unknown,Akure,https://myschoolgist.com/ng/futa-courses/,accredited,,,,https://myschoolgist.com/ng/federal-universities-in-nigeria/,CC-BY-NC-SA
"Federal University of Technology, Akure",university,federal,Ondo,Akure,https://futa.edu.ng,Accredited,info@futa.edu.ng,,,https://nuc.edu.ng,
"Federal University of Technology and Environmental Studies, Iyin-Ekiti, Ekiti State.",university,federal,Ekiti,Iyin,,accredited,,,,https://myschoolgist.com/ng/federal-universities-in-nigeria/,CC-BY-NC-SA
"Federal University of Technology, Babura, Jigawa State",university,federal,Jigawa,Babura,,accredited,,,,https://myschoolgist.com/ng/federal-universities-in-nigeria/,CC-BY-NC-SA
"Federal University of Technology, Ikot Abasi, Akwa Ibom State",university,federal,Akwa Ibom,Ikot Abasi,,accredited,,,,https://myschoolgist.com/ng/federal-universities-in-nigeria/,CC-BY-NC-SA
"Federal University of Technology, Minna",university,federal,Unknown,Minna,https://myschoolgist.com/ng/futminna-courses/,accredited,,,,https://myschoolgist.com/ng/federal-universities-in-nigeria/,CC-BY-NC-SA
"Federal University of Technology, Owerri",university,federal,Unknown,Owerri,https://myschoolgist.com/ng/futo-courses/,accredited,,,,https://myschoolgist.com/ng/federal-universities-in-nigeria/,CC-BY-NC-SA
"Federal University of Transportation Daura, Katsina",university,federal,Katsina,Unknown,,accredited,,,,https://myschoolgist.com/ng/federal-universities-in-nigeria/,CC-BY-NC-SA
"Federal University, Otuoke, Bayelsa",university,federal,Bayelsa,Otuoke,https://myschoolgist.com/ng/fuotuoke-courses/,accredited,,,,https://myschoolgist.com/ng/federal-universities-in-nigeria/,CC-BY-NC-SA
"Federal University, Oye-Ekiti, Ekiti State",university,federal,Ekiti,Oye,https://myschoolgist.com/ng/fuoye-courses/,accredited,,,,https://myschoolgist.com/ng/federal-universities-in-nigeria/,CC-BY-NC-SA
"Federal University, Wukari, Taraba State",university,federal,Taraba,Wukari,https://myschoolgist.com/ng/fuwukari-courses/,accredited,,,,https://myschoolgist.com/ng/federal-universities-in-nigeria/,CC-BY-NC-SA
"Fountain Unveristy, Oshogbo",university,private,Unknown,Unveristy,https://myschoolgist.com/ng/list-of-available-courses-in-fountain-university/,accredited,,,,https://myschoolgist.com/ng/private-universities-in-nigeria/,CC-BY-NC-SA
"Franco British International University, Kaduna State",university,private,Kaduna,Kaduna State,,accredited,,,,https://myschoolgist.com/ng/private-universities-in-nigeria/,CC-BY-NC-SA
"Gerar University of Medical Science Imope Ijebu, Ogun State.",university,private,Imo,Ogun State,,accredited,,,,https://myschoolgist.com/ng/private-universities-in-nigeria/,CC-BY-NC-SA
"Godfrey Okoye University, Ugwuomu-Nike – Enugu State",university,private,Enugu,Ugwuomu,https://myschoolgist.com/ng/godfrey-okoye-university-courses/,accredited,,,,https://myschoolgist.com/ng/private-universities-in-nigeria/,CC-BY-NC-SA
"Greenfield University, Kaduna",university,private,Kaduna,Unknown,,accredited,,,,https://myschoolgist.com/ng/private-universities-in-nigeria/,CC-BY-NC-SA
"Gregory University, Uturu",university,private,Unknown,Uturu,https://myschoolgist.com/ng/gregory-university-degree-programmes/,accredited,,,,https://myschoolgist.com/ng/private-universities-in-nigeria/,CC-BY-NC-SA
Hallmark University,university,private,Unknown,Unknown,https://myschoolgist.com/ng/hallmark-university-courses/,accredited,,,,https://myschoolgist.com/ng/private-universities-in-nigeria/,CC-BY-NC-SA
"Havilla University, Nde-Ikom, Cross River State",university,private,Cross River,Nde,https://myschoolgist.com/ng/havilla-university-huni-courses/,accredited,,,,https://myschoolgist.com/ng/private-universities-in-nigeria/,CC-BY-NC-SA
"Hensard University, Toru-Orua, Sagbama, Bayelsa State",university,private,Bayelsa,Toru,,accredited,,,,https://myschoolgist.com/ng/private-universities-in-nigeria/,CC-BY-NC-SA
"Hezekiah University, Umudi",university,private,Unknown,Umudi,https://myschoolgist.com/ng/hezekiah-university-courses/,accredited,,,,https://myschoolgist.com/ng/private-universities-in-nigeria/,CC-BY-NC-SA
"Hillside University of Science and Technology, Okemisi, Ekiti State",university,private,Ekiti,Okemisi,,accredited,,,,https://myschoolgist.com/ng/private-universities-in-nigeria/,CC-BY-NC-SA
"Huda University, Gusau, Zamafara State",university,private,Unknown,Gusau,,accredited,,,,https://myschoolgist.com/ng/private-universities-in-nigeria/,CC-BY-NC-SA
"Ibrahim Badamasi Babangida University, Lapai",university,state,Unknown,Lapai,https://myschoolgist.com/ng/ibbu-courses/,accredited,,,,https://myschoolgist.com/ng/state-universities-in-nigeria/,CC-BY-NC-SA
"Iconic Open University, Sokoto State.",university,private,Sokoto,Sokoto State,,accredited,,,,https://myschoolgist.com/ng/private-universities-in-nigeria/,CC-BY-NC-SA
Igbinedion University Okada,university,private,Unknown,Unknown,https://myschoolgist.com/ng/list-of-available-courses-in-igbinedion-university/,accredited,,,,https://myschoolgist.com/ng/private-universities-in-nigeria/,CC-BY-NC-SA
"Ignatius Ajuru University of Education,Rumuolumeni",university,state,Unknown,Rumuolumeni,https://myschoolgist.com/ng/iaue-courses/,accredited,,,,https://myschoolgist.com/ng/state-universities-in-nigeria/,CC-BY-NC-SA
Imo State University of Agriculture and Environmental Sciences (UAES),university,state,Imo,Unknown,https://myschoolgist.com/ng/uaes-post-utme-form/,accredited,,,,https://myschoolgist.com/ng/state-universities-in-nigeria/,CC-BY-NC-SA
"Isaac Balami University of Aeronautics and Management, Lagos State",university,private,Lagos,Lagos State,,accredited,,,,https://myschoolgist.com/ng/private-universities-in-nigeria/,CC-BY-NC-SA
"James Hope University, Lagos, Lagos State",university,private,Lagos,Unknown,,accredited,,,,https://myschoolgist.com/ng/private-universities-in-nigeria/,CC-BY-NC-SA
"Jewel University, Gombe state",university,private,Gombe,Gombe state,,accredited,,,,https://myschoolgist.com/ng/private-universities-in-nigeria/,CC-BY-NC-SA
"Joseph Ayo Babalola University, Ikeji-Arakeji",university,private,Unknown,Ikeji,https://myschoolgist.com/ng/list-of-available-courses-in-jabu/,accredited,,,,https://myschoolgist.com/ng/private-universities-in-nigeria/,CC-BY-NC-SA
"Kano University of Science & Technology, Wudil",university,state,Kano,Wudil,https://myschoolgist.com/ng/kust-courses/,accredited,,,,https://myschoolgist.com/ng/state-universities-in-nigeria/,CC-BY-NC-SA
"Karl-Kumm University, Vom, Plateau State",university,private,Plateau,Vom,,accredited,,,,https://myschoolgist.com/ng/private-universities-in-nigeria/,CC-BY-NC-SA
"Kebbi State University, Kebbi",university,state,Kebbi,Unknown,https://myschoolgist.com/ng/ksusta-courses/,accredited,,,,https://myschoolgist.com/ng/state-universities-in-nigeria/,CC-BY-NC-SA
"Kevin Eze University, Mgbowo, Enugu State",university,private,Enugu,Eze University,,accredited,,,,https://myschoolgist.com/ng/private-universities-in-nigeria/,CC-BY-NC-SA
"Khadija University, Majia, Jigawa State",university,private,Jigawa,Majia,,accredited,,,,https://myschoolgist.com/ng/private-universities-in-nigeria/,CC-BY-NC-SA
"Khalifa Isiyaku Rabiu University, Kano",university,private,Kano,Unknown,,accredited,,,,https://myschoolgist.com/ng/private-universities-in-nigeria/,CC-BY-NC-SA
Kings University,university,private,Unknown,Unknown,https://myschoolgist.com/ng/kings-university-courses/,accredited,,,,https://myschoolgist.com/ng/private-universities-in-nigeria/,CC-BY-NC-SA
Kogi State University Anyigba,university,state,Kogi,Unknown,https://myschoolgist.com/ng/ksu-courses/,accredited,,,,https://myschoolgist.com/ng/state-universities-in-nigeria/,CC-BY-NC-SA
"Kola Daisi University Ibadan, Oyo State",university,private,Oyo,Oyo State,https://myschoolgist.com/ng/koladaisi-university-courses/,accredited,,,,https://myschoolgist.com/ng/private-universities-in-nigeria/,CC-BY-NC-SA
"Kwararafa University, Wukari",university,private,Kwara,Wukari,https://myschoolgist.com/ng/kwararafa-university-courses/,accredited,,,,https://myschoolgist.com/ng/private-universities-in-nigeria/,CC-BY-NC-SA
"Ladoke Akintola University of Technology, Ogbomoso",university,state,Unknown,Ogbomoso,https://myschoolgist.com/ng/lautech-courses/,accredited,,,,https://myschoolgist.com/ng/state-universities-in-nigeria/,CC-BY-NC-SA
Lagos State University,university,state,Lagos,Lagos,https://lasu.edu.ng,Accredited,info@lasu.edu.ng,,,https://nuc.edu.ng,
Lagos State University of Education,university,state,Lagos,Unknown,https://myschoolgist.com/ng/lasued-courses/,accredited,,,,https://myschoolgist.com/ng/state-universities-in-nigeria/,CC-BY-NC-SA
Lagos State University of Science and Technology,university,state,Lagos,Unknown,https://myschoolgist.com/ng/lasustech-courses/,accredited,,,,https://myschoolgist.com/ng/state-universities-in-nigeria/,CC-BY-NC-SA
"Landmark University, Omu-Aran.",university,private,Unknown,Omu,https://myschoolgist.com/ng/list-of-available-courses-in-landmark-university/,accredited,,,,https://myschoolgist.com/ng/private-universities-in-nigeria/,CC-BY-NC-SA
"Lead City University, Ibadan",university,private,Unknown,Ibadan,https://myschoolgist.com/ng/lead-city-university-courses/,accredited,,,,https://myschoolgist.com/ng/private-universities-in-nigeria/,CC-BY-NC-SA
"Legacy University, Okija Anambra State",university,private,Anambra,Okija Anambra State,https://myschoolgist.com/ng/legacy-university-courses/,accredited,,,,https://myschoolgist.com/ng/private-universities-in-nigeria/,CC-BY-NC-SA
"Lens University, Ilemona, Kwara State",university,private,Kwara,Ilemona,,accredited,,,,https://myschoolgist.com/ng/private-universities-in-nigeria/,CC-BY-NC-SA
"Lighthouse University, Evbobanosa, Edo State",university,private,Edo,Evbobanosa,,accredited,,,,https://myschoolgist.com/ng/private-universities-in-nigeria/,CC-BY-NC-SA
"Lux Mundi University Umuahia, Abia State",university,private,Abia,Abia State,,accredited,,,,https://myschoolgist.com/ng/private-universities-in-nigeria/,CC-BY-NC-SA
"Madonna University, Okija",university,private,Unknown,Okija,https://myschoolgist.com/ng/list-of-available-courses-in-madonna-university/,accredited,,,,https://myschoolgist.com/ng/private-universities-in-nigeria/,CC-BY-NC-SA
"Maduka University, Ekwegbe, Enugu State",university,private,Enugu,Ekwegbe,https://myschoolgist.com/ng/maduka-university-courses/,accredited,,,,https://myschoolgist.com/ng/private-universities-in-nigeria/,CC-BY-NC-SA
"Maranatha University, Mgbidi, Imo State",university,private,Imo,Mgbidi,https://myschoolgist.com/ng/maranatha-university-courses/,accredited,,,,https://myschoolgist.com/ng/private-universities-in-nigeria/,CC-BY-NC-SA
"Margaret Lawrence University, Umunede, Delta State",university,private,Delta,Umunede,,accredited,,,,https://myschoolgist.com/ng/private-universities-in-nigeria/,CC-BY-NC-SA
"Maryam Abacha American University of Nigeria, Kano State",university,private,Kano,Kano State,https://myschoolgist.com/ng/maaun-courses/,accredited,,,,https://myschoolgist.com/ng/private-universities-in-nigeria/,CC-BY-NC-SA
"Mcpherson University, Seriki Sotayo, Ajebo",university,private,Unknown,Seriki Sotayo,https://myschoolgist.com/ng/mcpherson-university-courses/,accredited,,,,https://myschoolgist.com/ng/private-universities-in-nigeria/,CC-BY-NC-SA
"Mercy Medical University, Iwo, Ogun State",university,private,Ogun,Iwo,,accredited,,,,https://myschoolgist.com/ng/private-universities-in-nigeria/,CC-BY-NC-SA
"Mewar University, Masaka, Nasarawa State",university,private,Nasarawa,Masaka,,accredited,,,,https://myschoolgist.com/ng/private-universities-in-nigeria/,CC-BY-NC-SA
Michael Okpara University of Agricultural Umudike,university,federal,Unknown,Unknown,https://myschoolgist.com/ng/mouau-courses/,accredited,,,,https://myschoolgist.com/ng/federal-universities-in-nigeria/,CC-BY-NC-SA
Micheal & Cecilia University,university,private,Unknown,Unknown,https://myschoolgist.com/ng/micheal-cecilia-university-courses/,accredited,,,,https://myschoolgist.com/ng/private-universities-in-nigeria/,CC-BY-NC-SA
"Minaret University, Ikirun, Osun State",university,private,Osun,Ikirun,,accredited,,,,https://myschoolgist.com/ng/private-universities-in-nigeria/,CC-BY-NC-SA
"Miva Open University, Abuja FCT",university,private,FCT,Abuja FCT,,accredited,,,,https://myschoolgist.com/ng/private-universities-in-nigeria/,CC-BY-NC-SA
"Modibbo Adama University of Technology, Yola",university,federal,Unknown,Yola,https://myschoolgist.com/ng/mautech-courses/,accredited,,,,https://myschoolgist.com/ng/federal-universities-in-nigeria/,CC-BY-NC-SA
"Monarch University, Iyesi-Ota, Ogun State",university,private,Ogun,Iyesi,,accredited,,,,https://myschoolgist.com/ng/private-universities-in-nigeria/,CC-BY-NC-SA
Moshood Abiola University of Science and Technology Abeokuta,university,state,Unknown,Unknown,,accredited,,,,https://myschoolgist.com/ng/state-universities-in-nigeria/,CC-BY-NC-SA
Mountain Top University,university,private,Unknown,Top University,https://myschoolgist.com/ng/list-of-available-courses-in-mountain-top-university/,accredited,,,,https://myschoolgist.com/ng/private-universities-in-nigeria/,CC-BY-NC-SA
"Mudiame University, Irrua, Edo State",university,private,Edo,Irrua,https://myschoolgist.com/ng/mudiame-university-courses/,accredited,,,,https://myschoolgist.com/ng/private-universities-in-nigeria/,CC-BY-NC-SA
Muhammad Kamalud University Kwara,university,private,Kwara,Unknown,,accredited,,,,https://myschoolgist.com/ng/private-universities-in-nigeria/,CC-BY-NC-SA
"National Open University of Nigeria, Lagos",university,federal,Lagos,Unknown,https://myschoolgist.com/ng/noun-courses/,accredited,,,,https://myschoolgist.com/ng/federal-universities-in-nigeria/,CC-BY-NC-SA
"National University of Science and Technology, Abuja",university,federal,Abuja,Unknown,,accredited,,,,https://myschoolgist.com/ng/federal-universities-in-nigeria/,CC-BY-NC-SA
"New City University, Ayetoro, Ogun State",university,private,Ogun,Ayetoro,,accredited,,,,https://myschoolgist.com/ng/private-universities-in-nigeria/,CC-BY-NC-SA
"Newgate University, MInna, Niger State.",university,private,Niger,MInna,,accredited,,,,https://myschoolgist.com/ng/private-universities-in-nigeria/,CC-BY-NC-SA
"Nigerian Army University, Biu, Borno State",university,federal,Borno,Biu,https://myschoolgist.com/ng/naub-courses/,accredited,,,,https://myschoolgist.com/ng/federal-universities-in-nigeria/,CC-BY-NC-SA
"Nigerian British University, Asa, Abia State",university,private,Abia,Asa,,accredited,,,,https://myschoolgist.com/ng/private-universities-in-nigeria/,CC-BY-NC-SA
Nigerian Defence Academy Kaduna,university,federal,Kaduna,Unknown,https://myschoolgist.com/ng/courses-at-nda/,accredited,,,,https://myschoolgist.com/ng/federal-universities-in-nigeria/,CC-BY-NC-SA
"Nigerian Maritime University Okerenkoko, Delta State",university,federal,Delta,Delta State,https://myschoolgist.com/ng/nmu-courses/,accredited,,,,https://myschoolgist.com/ng/federal-universities-in-nigeria/,CC-BY-NC-SA
"Nigerian University of Technology and Management, Apapa, Lagos State",university,private,Lagos,Apapa,,accredited,,,,https://myschoolgist.com/ng/private-universities-in-nigeria/,CC-BY-NC-SA
Nigeria Police Academy Wudil,university,federal,Niger,Unknown,https://myschoolgist.com/ng/nigeria-police-academy-courses/,accredited,,,,https://myschoolgist.com/ng/federal-universities-in-nigeria/,CC-BY-NC-SA
"Nile University of Nigeria, Abuja",university,private,Niger,Unknown,https://myschoolgist.com/ng/list-of-available-courses-in-nile-university-of-nigeria/,accredited,,,,https://myschoolgist.com/ng/private-universities-in-nigeria/,CC-BY-NC-SA
Nnamdi Azikiwe University,university,federal,Anambra,Awka,https://unizik.edu.ng,Accredited,info@unizik.edu.ng,,,https://nuc.edu.ng,
"Nnamdi Azikiwe University, Awka",university,federal,Unknown,Awka,https://myschoolgist.com/ng/unizik-courses/,accredited,,,,https://myschoolgist.com/ng/federal-universities-in-nigeria/,CC-BY-NC-SA
"NOK University, Kachia, Kaduna State",university,private,Kaduna,Kachia,,accredited,,,,https://myschoolgist.com/ng/private-universities-in-nigeria/,CC-BY-NC-SA
Northwest University Kano,university,state,Kano,Unknown,https://myschoolgist.com/ng/nwu-courses/,accredited,,,,https://myschoolgist.com/ng/state-universities-in-nigeria/,CC-BY-NC-SA
NorthWest University Sokoto State,university,private,Sokoto,Unknown,,accredited,,,,https://myschoolgist.com/ng/private-universities-in-nigeria/,CC-BY-NC-SA
"Novena University, Ogume",university,private,Unknown,Ogume,https://myschoolgist.com/ng/novena-university-courses/,accredited,,,,https://myschoolgist.com/ng/private-universities-in-nigeria/,CC-BY-NC-SA
Obafemi Awolowo University,university,federal,Osun,Ile-Ife,https://oauife.edu.ng,Accredited,info@oauife.edu.ng,,,https://nuc.edu.ng,
"Obafemi Awolowo University, Ile-Ife",university,federal,Unknown,Ile,https://myschoolgist.com/ng/oau-courses/,accredited,,,,https://myschoolgist.com/ng/federal-universities-in-nigeria/,CC-BY-NC-SA
"Obong University, Obong Ntak",university,private,Unknown,Obong Ntak,https://myschoolgist.com/ng/obong-university-courses/,accredited,,,,https://myschoolgist.com/ng/private-universities-in-nigeria/,CC-BY-NC-SA
"Oduduwa University, Ipetumodu – Osun State",university,private,Osun,Ipetumodu,https://myschoolgist.com/ng/list-of-available-courses-in-oduduwa-university/,accredited,,,,https://myschoolgist.com/ng/private-universities-in-nigeria/,CC-BY-NC-SA
"Olabisi Onabanjo University, Ago Iwoye",university,state,Unknown,Ago Iwoye,https://myschoolgist.com/ng/oou-courses/,accredited,,,,https://myschoolgist.com/ng/state-universities-in-nigeria/,CC-BY-NC-SA
Ondo State University of Medical Sciences,university,state,Ondo,Unknown,https://myschoolgist.com/ng/unimed-courses/,accredited,,,,https://myschoolgist.com/ng/state-universities-in-nigeria/,CC-BY-NC-SA
Ondo State University of Science and Technology Okitipupa,university,state,Ondo,Unknown,https://myschoolgist.com/ng/osustech-courses/,accredited,,,,https://myschoolgist.com/ng/state-universities-in-nigeria/,CC-BY-NC-SA
Oyo State Technical University Ibadan,university,state,Oyo,Unknown,https://myschoolgist.com/ng/tech-u-courses/,accredited,,,,https://myschoolgist.com/ng/state-universities-in-nigeria/,CC-BY-NC-SA
"PAMO University of Medical Sciences, Portharcourt",university,private,Unknown,Portharcourt,https://myschoolgist.com/ng/pums-courses/,accredited,,,,https://myschoolgist.com/ng/private-universities-in-nigeria/,CC-BY-NC-SA
"Pan-Atlantic University, Lagos",university,private,Lagos,Unknown,https://myschoolgist.com/ng/pan-atlantic-university-courses/,accredited,,,,https://myschoolgist.com/ng/private-universities-in-nigeria/,CC-BY-NC-SA
"Paul University, Awka – Anambra State",university,private,Anambra,Awka,https://myschoolgist.com/ng/list-of-available-courses-in-paul-university/,accredited,,,,https://myschoolgist.com/ng/private-universities-in-nigeria/,CC-BY-NC-SA
"PeaceLand University, Enugu State",university,private,Enugu,Enugu State,,accredited,,,,https://myschoolgist.com/ng/private-universities-in-nigeria/,CC-BY-NC-SA
"PEN Resource University, Gombe",university,private,Gombe,Unknown,,accredited,,,,https://myschoolgist.com/ng/private-universities-in-nigeria/,CC-BY-NC-SA
"Peter University, Achina-Onneh Anambra State",university,private,Anambra,Achina,,accredited,,,,https://myschoolgist.com/ng/private-universities-in-nigeria/,CC-BY-NC-SA
"Philomath University, Kuje, Abuja",university,private,Abuja,Kuje,,accredited,,,,https://myschoolgist.com/ng/private-universities-in-nigeria/,CC-BY-NC-SA
"Phoenix University, Agwada, Nasarawa State",university,private,Nasarawa,Agwada,,accredited,,,,https://myschoolgist.com/ng/private-universities-in-nigeria/,CC-BY-NC-SA
"Precious Cornerstone University, Oyo",university,private,Oyo,Unknown,https://myschoolgist.com/ng/pcu-courses/,accredited,,,,https://myschoolgist.com/ng/private-universities-in-nigeria/,CC-BY-NC-SA
"Prime University, Kuje, FCT Abuja",university,private,FCT,Kuje,,accredited,,,,https://myschoolgist.com/ng/private-universities-in-nigeria/,CC-BY-NC-SA
"Rayhaan University, Kebbi",university,private,Kebbi,Unknown,,accredited,,,,https://myschoolgist.com/ng/private-universities-in-nigeria/,CC-BY-NC-SA
"Redeemer’s University, Mowe",university,private,Unknown,Mowe,https://myschoolgist.com/ng/redeemers-university-courses/,accredited,,,,https://myschoolgist.com/ng/private-universities-in-nigeria/,CC-BY-NC-SA
"Renaissance University, Enugu",university,private,Enugu,Unknown,https://myschoolgist.com/ng/renaissance-university-courses/,accredited,,,,https://myschoolgist.com/ng/private-universities-in-nigeria/,CC-BY-NC-SA
"Rhema University, Obeama-Asa – Rivers State",university,private,Rivers,Obeama,https://myschoolgist.com/ng/rhema-university-courses/,accredited,,,,https://myschoolgist.com/ng/private-universities-in-nigeria/,CC-BY-NC-SA
Ritman University,university,private,Unknown,Unknown,https://myschoolgist.com/ng/ritman-university-courses/,accredited,,,,https://myschoolgist.com/ng/private-universities-in-nigeria/,CC-BY-NC-SA
River State University of Science and Technology,university,state,Unknown,Unknown,https://myschoolgist.com/ng/rsust-courses/,accredited,,,,https://myschoolgist.com/ng/state-universities-in-nigeria/,CC-BY-NC-SA
"Saisa University of Medical Sciences and Technology, Sokoto State",university,private,Sokoto,Sokoto State,,accredited,,,,https://myschoolgist.com/ng/private-universities-in-nigeria/,CC-BY-NC-SA
"Salem University, Lokoja",university,private,Unknown,Lokoja,https://myschoolgist.com/ng/salem-university-courses/,accredited,,,,https://myschoolgist.com/ng/private-universities-in-nigeria/,CC-BY-NC-SA
"Sam Maris University, Ondo",university,private,Ondo,Unknown,,accredited,,,,https://myschoolgist.com/ng/private-universities-in-nigeria/,CC-BY-NC-SA
"Samuel Adegboyega University, Ogwa.",university,private,Unknown,Ogwa,https://myschoolgist.com/ng/list-of-available-courses-in-samuel-adegboyega-university/,accredited,,,,https://myschoolgist.com/ng/private-universities-in-nigeria/,CC-BY-NC-SA
"Shanahan University Onitsha, Anambra State",university,private,Anambra,Anambra State,,accredited,,,,https://myschoolgist.com/ng/private-universities-in-nigeria/,CC-BY-NC-SA
"Skyline University, Kano",university,private,Kano,Unknown,https://myschoolgist.com/ng/skyline-university-courses/,accredited,,,,https://myschoolgist.com/ng/private-universities-in-nigeria/,CC-BY-NC-SA
"Southern Atlantic University, Uyo, Akwa Ibom State",university,private,Akwa Ibom,Uyo,,accredited,,,,https://myschoolgist.com/ng/private-universities-in-nigeria/,CC-BY-NC-SA
"Southwestern University, Oku Owa",university,private,Unknown,Oku Owa,https://myschoolgist.com/ng/southwestern-university-courses/,accredited,,,,https://myschoolgist.com/ng/private-universities-in-nigeria/,CC-BY-NC-SA
"Spiritan University, Nneochi Abia State",university,private,Abia,Nneochi Abia State,https://myschoolgist.com/ng/spiritan-university-courses/,accredited,,,,https://myschoolgist.com/ng/private-universities-in-nigeria/,CC-BY-NC-SA
"Sports University, Idumuje, Ugboko, Delta State",university,private,Delta,Idumuje,,accredited,,,,https://myschoolgist.com/ng/private-universities-in-nigeria/,CC-BY-NC-SA
Summit University,university,private,Unknown,Unknown,https://myschoolgist.com/ng/summit-university-courses/,accredited,,,,https://myschoolgist.com/ng/private-universities-in-nigeria/,CC-BY-NC-SA
"Tai Solarin Federal University of Education, Ijagun, Ijebu Ode",university,federal,Unknown,Federal University of Education,,accredited,,,,https://myschoolgist.com/ng/federal-universities-in-nigeria/,CC-BY-NC-SA
Tai Solarin University of Education Ijebu Ode,university,state,Unknown,University of Education Ijebu Ode,https://myschoolgist.com/ng/tasued-courses/,accredited,,,,https://myschoolgist.com/ng/state-universities-in-nigeria/,CC-BY-NC-SA
"Tansian University, Umunya",university,private,Unknown,Umunya,https://myschoolgist.com/ng/tansian-university-nuc-certified-courses/,accredited,,,,https://myschoolgist.com/ng/private-universities-in-nigeria/,CC-BY-NC-SA
"The Duke Medical University, Calabar, Cross River State",university,private,Cross River,Calabar,,accredited,,,,https://myschoolgist.com/ng/private-universities-in-nigeria/,CC-BY-NC-SA
"Thomas Adewumi University, Oko-Irese, Kwara State",university,private,Kwara,Oko,https://myschoolgist.com/ng/thomas-adewumi-university-courses/,accredited,,,,https://myschoolgist.com/ng/private-universities-in-nigeria/,CC-BY-NC-SA
"Tonine Iredia University of Communication, Benin City, Edo State",university,private,Edo,City,,accredited,,,,https://myschoolgist.com/ng/private-universities-in-nigeria/,CC-BY-NC-SA
"Topfaith University, Mkpatak, Akwa Ibom State",university,private,Akwa Ibom,Mkpatak,https://myschoolgist.com/ng/topfaith-university-courses/,accredited,,,,https://myschoolgist.com/ng/private-universities-in-nigeria/,CC-BY-NC-SA
Trinity University Ogun State,university,private,Ogun,Unknown,https://myschoolgist.com/ng/trinity-university-courses/,accredited,,,,https://myschoolgist.com/ng/private-universities-in-nigeria/,CC-BY-NC-SA
University of Abuja,university,federal,FCT,Abuja,https://uniabuja.edu.ng,Accredited,info@uniabuja.edu.ng,,,https://nuc.edu.ng,
"University of Abuja, Gwagwalada",university,federal,Abuja,Gwagwalada,https://myschoolgist.com/ng/uniabuja-courses/,accredited,,,,https://myschoolgist.com/ng/federal-universities-in-nigeria/,CC-BY-NC-SA
"University of Agriculture, Makurdi",university,federal,Unknown,Makurdi,https://myschoolgist.com/ng/uam-courses/,accredited,,,,https://myschoolgist.com/ng/federal-universities-in-nigeria/,CC-BY-NC-SA
University of Benin,university,federal,Edo,Benin City,https://uniben.edu.ng,Accredited,info@uniben.edu.ng,,,https://nuc.edu.ng,
University of Benin,university,federal,Unknown,Unknown,https://myschoolgist.com/ng/uniben-courses/,accredited,,,,https://myschoolgist.com/ng/federal-universities-in-nigeria/,CC-BY-NC-SA
University of Calabar,university,federal,Unknown,Unknown,https://myschoolgist.com/ng/unical-courses/,accredited,,,,https://myschoolgist.com/ng/federal-universities-in-nigeria/,CC-BY-NC-SA
University of Calabar,university,federal,Cross River,Calabar,https://unical.edu.ng,Accredited,info@unical.edu.ng,,,https://nuc.edu.ng,
"University of Fortune, Igbotako, Ondo State",university,private,Ondo,Igbotako,,accredited,,,,https://myschoolgist.com/ng/private-universities-in-nigeria/,CC-BY-NC-SA
"University of Health Technology, Otukpo Benue State",university,federal,Benue,Otukpo Benue State,,accredited,,,,https://myschoolgist.com/ng/federal-universities-in-nigeria/,CC-BY-NC-SA
University of Ibadan,university,federal,Unknown,Unknown,https://myschoolgist.com/ng/ui-courses/,accredited,,,,https://myschoolgist.com/ng/federal-universities-in-nigeria/,CC-BY-NC-SA
University of Ibadan,university,federal,Oyo,Ibadan,https://ui.edu.ng,Accredited,info@ui.edu.ng,,,https://nuc.edu.ng,
University of Ilorin,university,federal,Unknown,Unknown,https://myschoolgist.com/ng/unilorin-courses/,accredited,,,,https://myschoolgist.com/ng/federal-universities-in-nigeria/,CC-BY-NC-SA
University of Ilorin,university,federal,Kwara,Ilorin,https://unilorin.edu.ng,Accredited,info@unilorin.edu.ng,,,https://nuc.edu.ng,
University of Jos,university,federal,Plateau,Jos,https://unijos.edu.ng,Accredited,info@unijos.edu.ng,,,https://nuc.edu.ng,
University of Jos,university,federal,Unknown,Unknown,https://myschoolgist.com/ng/unijos-courses/,accredited,,,,https://myschoolgist.com/ng/federal-universities-in-nigeria/,CC-BY-NC-SA
University of Lagos,university,federal,Lagos,Unknown,https://myschoolgist.com/ng/unilag-courses/,accredited,info@unilag.edu.ng,+234-123-456-7890,,https://myschoolgist.com/ng/federal-universities-in-nigeria/,CC-BY-NC-SA
University of Maiduguri,university,federal,Unknown,Unknown,https://myschoolgist.com/ng/unimaid-courses/,accredited,,,,https://myschoolgist.com/ng/federal-universities-in-nigeria/,CC-BY-NC-SA
University of Maiduguri,university,federal,Borno,Maiduguri,https://unimaid.edu.ng,Accredited,info@unimaid.edu.ng,,,https://nuc.edu.ng,
"University of Maritime Studies, Oron, Akwa Ibom State",university,federal,Akwa Ibom,Oron,,accredited,,,,https://myschoolgist.com/ng/federal-universities-in-nigeria/,CC-BY-NC-SA
"University of Mkar, Mkar",university,private,Unknown,Mkar,https://myschoolgist.com/ng/list-of-available-courses-in-university-of-mkar/,accredited,,,,https://myschoolgist.com/ng/private-universities-in-nigeria/,CC-BY-NC-SA
"University of Nigeria, Nsukka",university,federal,Enugu,Nsukka,https://unn.edu.ng,Accredited,info@unn.edu.ng,,,https://nuc.edu.ng,
"University of Nigeria, Nsukka",university,federal,Niger,Nsukka,https://myschoolgist.com/ng/unn-courses/,accredited,,,,https://myschoolgist.com/ng/federal-universities-in-nigeria/,CC-BY-NC-SA
"University of Offa, Kwara State",university,private,Kwara,Kwara State,,accredited,,,,https://myschoolgist.com/ng/private-universities-in-nigeria/,CC-BY-NC-SA
University of Port Harcourt,university,federal,Rivers,Port Harcourt,https://uniport.edu.ng,Accredited,info@uniport.edu.ng,,,https://nuc.edu.ng,
University of Port-Harcourt,university,federal,Unknown,Unknown,https://myschoolgist.com/ng/uniport-courses/,accredited,,,,https://myschoolgist.com/ng/federal-universities-in-nigeria/,CC-BY-NC-SA
University of Uyo,university,federal,Unknown,Unknown,https://myschoolgist.com/ng/uniuyo-courses/,accredited,,,,https://myschoolgist.com/ng/federal-universities-in-nigeria/,CC-BY-NC-SA
"University on the Niger, Umunya, Anambra state",university,private,Anambra,Umunya,,accredited,,,,https://myschoolgist.com/ng/private-universities-in-nigeria/,CC-BY-NC-SA
Usumanu Danfodiyo University,university,federal,Unknown,Unknown,https://myschoolgist.com/ng/udusok-courses/,accredited,,,,https://myschoolgist.com/ng/federal-universities-in-nigeria/,CC-BY-NC-SA
"Venite University, Iloro-Ekiti, Ekiti State",university,private,Ekiti,Iloro,,accredited,,,,https://myschoolgist.com/ng/private-universities-in-nigeria/,CC-BY-NC-SA
Veritas University,university,private,Unknown,Unknown,https://myschoolgist.com/ng/list-of-available-courses-in-veritas-university/,accredited,,,,https://myschoolgist.com/ng/private-universities-in-nigeria/,CC-BY-NC-SA
"Vision University, Ikogbo, Ogun State",university,private,Ogun,Ikogbo,,accredited,,,,https://myschoolgist.com/ng/private-universities-in-nigeria/,CC-BY-NC-SA
"Wellspring University, Evbuobanosa – Edo State",university,private,Edo,Evbuobanosa,https://myschoolgist.com/ng/wellspring-university-courses/,accredited,,,,https://myschoolgist.com/ng/private-universities-in-nigeria/,CC-BY-NC-SA
"Wesley University. of Science & Technology, Ondo",university,private,Ondo,Unknown,https://myschoolgist.com/ng/list-of-available-courses-in-wesley-university-ondo/,accredited,,,,https://myschoolgist.com/ng/private-universities-in-nigeria/,CC-BY-NC-SA
"Western Delta University, Oghara Delta State",university,private,Delta,Oghara Delta State,https://myschoolgist.com/ng/western-delta-university-courses/,accredited,,,,https://myschoolgist.com/ng/private-universities-in-nigeria/,CC-BY-NC-SA
"Westland University Iwo, Osun State",university,private,Osun,Osun State,https://myschoolgist.com/ng/westland-university-courses/,accredited,,,,https://myschoolgist.com/ng/private-universities-in-nigeria/,CC-BY-NC-SA
"West Midlands Open University, Ibadan, Oyo State",university,private,Oyo,Ibadan,,accredited,,,,https://myschoolgist.com/ng/private-universities-in-nigeria/,CC-BY-NC-SA
"Wigwe University, Isiokpo Rivers State",university,private,Rivers,Isiokpo Rivers State,,accredited,,,,https://myschoolgist.com/ng/private-universities-in-nigeria/,CC-BY-NC-SA
"Abdu Gusau Polytechnic, Talata Mafara",polytechnic,federal,Unknown,Talata Mafara,,accredited,,,,https://myschoolgist.com/ng/list-of-accredited-polytechnics-in-nigeria/,CC-BY-NC-SA
"Abdu Gusau Polytechnic, Talata Mafara",polytechnic,federal,Unknown,Talata Mafara,,accredited,,,,https://myschoolgist.com/ng/list-of-accredited-polytechnics-in-nigeria/,CC-BY-NC-SA
"Abdu Gusau Polytechnic, Talata Mafara",polytechnic,federal,Unknown,Talata Mafara,,accredited,,,,https://myschoolgist.com/ng/list-of-accredited-polytechnics-in-nigeria/,CC-BY-NC-SA
"Abia State Polytechnic, Aba",polytechnic,federal,Abia,Aba,,accredited,,,,https://myschoolgist.com/ng/list-of-accredited-polytechnics-in-nigeria/,CC-BY-NC-SA
"Abraham Adesanya Polytechnic, Ijebu-Igbo",polytechnic,federal,Unknown,Ijebu,,accredited,,,,https://myschoolgist.com/ng/list-of-accredited-polytechnics-in-nigeria/,CC-BY-NC-SA
"Abraham Adesanya Polytechnic, Ijebu-Igbo",polytechnic,federal,Unknown,Ijebu,,accredited,,,,https://myschoolgist.com/ng/list-of-accredited-polytechnics-in-nigeria/,CC-BY-NC-SA
"Abraham Adesanya Polytechnic, Ijebu-Igbo",polytechnic,federal,Unknown,Ijebu,,accredited,,,,https://myschoolgist.com/ng/list-of-accredited-polytechnics-in-nigeria/,CC-BY-NC-SA
"Abubakar Tatari Ali Polytechnic, Bauchi",polytechnic,federal,Bauchi,Unknown,https://www.atapb.com,accredited,,,,https://myschoolgist.com/ng/list-of-accredited-polytechnics-in-nigeria/,CC-BY-NC-SA
"Adamawa State Polytechnic, Yola",polytechnic,federal,Adamawa,Yola,https://www.aspy.com,accredited,,,,https://myschoolgist.com/ng/list-of-accredited-polytechnics-in-nigeria/,CC-BY-NC-SA
"Adeseun Ogundoyin Polytechnic, Eruwa",polytechnic,federal,Ogun,Polytechnic,https://aope.edu.ng,accredited,,,,https://myschoolgist.com/ng/list-of-accredited-polytechnics-in-nigeria/,CC-BY-NC-SA
"Air Force Institute of Technology (AFIT), Airforce Base, Kaduna",polytechnic,federal,Kaduna,Airforce Base,,accredited,,,,https://myschoolgist.com/ng/list-of-accredited-polytechnics-in-nigeria/,CC-BY-NC-SA
"Ajayi Polytechnic, Ara-Ekiti",polytechnic,federal,Ekiti,Ara,,accredited,,,,https://myschoolgist.com/ng/list-of-accredited-polytechnics-in-nigeria/,CC-BY-NC-SA
"Akanu Ibiam Federal Polytechnic, Unwana-Afikpo",polytechnic,federal,Unknown,Unwana,,accredited,,,,https://myschoolgist.com/ng/list-of-accredited-polytechnics-in-nigeria/,CC-BY-NC-SA
"Akanu Ibiam Federal Polytechnic, Unwana-Afikpo",polytechnic,federal,Unknown,Unwana,,accredited,,,,https://myschoolgist.com/ng/list-of-accredited-polytechnics-in-nigeria/,CC-BY-NC-SA
"Akanu Ibiam Federal Polytechnic, Unwana-Afikpo",polytechnic,federal,Unknown,Unwana,,accredited,,,,https://myschoolgist.com/ng/list-of-accredited-polytechnics-in-nigeria/,CC-BY-NC-SA
"Akwa Ibom State College of Arts & Science, Nung Ukim",polytechnic,federal,Akwa Ibom,Nung Ukim,,accredited,,,,https://myschoolgist.com/ng/list-of-accredited-polytechnics-in-nigeria/,CC-BY-NC-SA
"Akwa Ibom State Polytechnic, Ikot Osurua",polytechnic,federal,Akwa Ibom,Ikot Osurua,,accredited,,,,https://myschoolgist.com/ng/list-of-accredited-polytechnics-in-nigeria/,CC-BY-NC-SA
"Al-Hikma Polytechnic, Karu",polytechnic,federal,Unknown,Karu,https://www.apk.com,accredited,,,,https://myschoolgist.com/ng/list-of-accredited-polytechnics-in-nigeria/,CC-BY-NC-SA
"Al-Hikma Polytechnic, Karu",polytechnic,federal,Unknown,Karu,https://www.apk.com,accredited,,,,https://myschoolgist.com/ng/list-of-accredited-polytechnics-in-nigeria/,CC-BY-NC-SA
"Al-Hikma Polytechnic, Karu",polytechnic,federal,Unknown,Karu,https://www.apk.com,accredited,,,,https://myschoolgist.com/ng/list-of-accredited-polytechnics-in-nigeria/,CC-BY-NC-SA
"Allover Central Polytechnic, Sango-Ota",polytechnic,federal,Unknown,Sango,,accredited,,,,https://myschoolgist.com/ng/list-of-accredited-polytechnics-in-nigeria/,CC-BY-NC-SA
"Allover Central Polytechnic, Sango-Ota",polytechnic,federal,Unknown,Sango,,accredited,,,,https://myschoolgist.com/ng/list-of-accredited-polytechnics-in-nigeria/,CC-BY-NC-SA
"Allover Central Polytechnic, Sango-Ota",polytechnic,federal,Unknown,Sango,,accredited,,,,https://myschoolgist.com/ng/list-of-accredited-polytechnics-in-nigeria/,CC-BY-NC-SA
"Anambra State Polytechnic, Mgbakwu",polytechnic,federal,Anambra,Mgbakwu,https://www.aspm.com,accredited,,,,https://myschoolgist.com/ng/list-of-accredited-polytechnics-in-nigeria/,CC-BY-NC-SA
"Ashi Polytechnic, Anyin",polytechnic,federal,Unknown,Anyin,,accredited,,,,https://myschoolgist.com/ng/list-of-accredited-polytechnics-in-nigeria/,CC-BY-NC-SA
"Ashi Polytechnic, Anyin",polytechnic,federal,Unknown,Anyin,,accredited,,,,https://myschoolgist.com/ng/list-of-accredited-polytechnics-in-nigeria/,CC-BY-NC-SA
"Ashi Polytechnic, Anyin",polytechnic,federal,Unknown,Anyin,,accredited,,,,https://myschoolgist.com/ng/list-of-accredited-polytechnics-in-nigeria/,CC-BY-NC-SA
"Auchi Polytechnic, Auchi",polytechnic,federal,Unknown,Auchi,,accredited,,,,https://myschoolgist.com/ng/list-of-accredited-polytechnics-in-nigeria/,CC-BY-NC-SA
"Auchi Polytechnic, Auchi",polytechnic,federal,Unknown,Auchi,,accredited,,,,https://myschoolgist.com/ng/list-of-accredited-polytechnics-in-nigeria/,CC-BY-NC-SA
"Auchi Polytechnic, Auchi",polytechnic,federal,Unknown,Auchi,,accredited,,,,https://myschoolgist.com/ng/list-of-accredited-polytechnics-in-nigeria/,CC-BY-NC-SA
"Audu Bako College of Agriculture, Dambatta (ABCOAD) Gets NBTE Accreditation for 12 programmes",polytechnic,federal,Unknown,Dambatta,,accredited,,,,https://myschoolgist.com/ng/list-of-accredited-polytechnics-in-nigeria/,CC-BY-NC-SA
"Audu Bako College of Agriculture, Dambatta (ABCOAD) Gets NBTE Accreditation for 12 programmes",polytechnic,federal,Unknown,Dambatta,,accredited,,,,https://myschoolgist.com/ng/list-of-accredited-polytechnics-in-nigeria/,CC-BY-NC-SA
"Audu Bako College of Agriculture, Dambatta (ABCOAD) Gets NBTE Accreditation for 12 programmes",polytechnic,federal,Unknown,Dambatta,,accredited,,,,https://myschoolgist.com/ng/list-of-accredited-polytechnics-in-nigeria/,CC-BY-NC-SA
"Bayelsa State Polytechnic, Aleibiri, Bayelsa",polytechnic,federal,Bayelsa,Aleibiri,,accredited,,,,https://myschoolgist.com/ng/list-of-accredited-polytechnics-in-nigeria/,CC-BY-NC-SA
"Bellarks Polytechnic, Kwale",polytechnic,federal,Unknown,Kwale,,accredited,,,,https://myschoolgist.com/ng/list-of-accredited-polytechnics-in-nigeria/,CC-BY-NC-SA
"Bellarks Polytechnic, Kwale",polytechnic,federal,Unknown,Kwale,,accredited,,,,https://myschoolgist.com/ng/list-of-accredited-polytechnics-in-nigeria/,CC-BY-NC-SA
"Bellarks Polytechnic, Kwale",polytechnic,federal,Unknown,Kwale,,accredited,,,,https://myschoolgist.com/ng/list-of-accredited-polytechnics-in-nigeria/,CC-BY-NC-SA
"Benue State Polytechnic, Ugbokolo",polytechnic,federal,Benue,Ugbokolo,,accredited,,,,https://myschoolgist.com/ng/list-of-accredited-polytechnics-in-nigeria/,CC-BY-NC-SA
"Best Solution Polytechnic, Akure",polytechnic,federal,Unknown,Akure,,accredited,,,,https://myschoolgist.com/ng/list-of-accredited-polytechnics-in-nigeria/,CC-BY-NC-SA
"Best Solution Polytechnic, Akure",polytechnic,federal,Unknown,Akure,,accredited,,,,https://myschoolgist.com/ng/list-of-accredited-polytechnics-in-nigeria/,CC-BY-NC-SA
"Best Solution Polytechnic, Akure",polytechnic,federal,Unknown,Akure,,accredited,,,,https://myschoolgist.com/ng/list-of-accredited-polytechnics-in-nigeria/,CC-BY-NC-SA
"Binyaminu Usman Polytechnic, Hadejia",polytechnic,federal,Unknown,Hadejia,,accredited,,,,https://myschoolgist.com/ng/list-of-accredited-polytechnics-in-nigeria/,CC-BY-NC-SA
"Binyaminu Usman Polytechnic, Hadejia",polytechnic,federal,Unknown,Hadejia,,accredited,,,,https://myschoolgist.com/ng/list-of-accredited-polytechnics-in-nigeria/,CC-BY-NC-SA
"Binyaminu Usman Polytechnic, Hadejia",polytechnic,federal,Unknown,Hadejia,,accredited,,,,https://myschoolgist.com/ng/list-of-accredited-polytechnics-in-nigeria/,CC-BY-NC-SA
"Bolmor Polytechnic, Ibadan",polytechnic,federal,Unknown,Ibadan,,accredited,,,,https://myschoolgist.com/ng/list-of-accredited-polytechnics-in-nigeria/,CC-BY-NC-SA
"Bolmor Polytechnic, Ibadan",polytechnic,federal,Unknown,Ibadan,,accredited,,,,https://myschoolgist.com/ng/list-of-accredited-polytechnics-in-nigeria/,CC-BY-NC-SA
"Bolmor Polytechnic, Ibadan",polytechnic,federal,Unknown,Ibadan,,accredited,,,,https://myschoolgist.com/ng/list-of-accredited-polytechnics-in-nigeria/,CC-BY-NC-SA
"Brainfill Polytechnic, Ikot-Ekpene",polytechnic,federal,Unknown,Ikot,,accredited,,,,https://myschoolgist.com/ng/list-of-accredited-polytechnics-in-nigeria/,CC-BY-NC-SA
"Brainfill Polytechnic, Ikot-Ekpene",polytechnic,federal,Unknown,Ikot,,accredited,,,,https://myschoolgist.com/ng/list-of-accredited-polytechnics-in-nigeria/,CC-BY-NC-SA
"Brainfill Polytechnic, Ikot-Ekpene",polytechnic,federal,Unknown,Ikot,,accredited,,,,https://myschoolgist.com/ng/list-of-accredited-polytechnics-in-nigeria/,CC-BY-NC-SA
"British Transatlantic Polytechnic, Akure",polytechnic,federal,Unknown,Akure,,accredited,,,,https://myschoolgist.com/ng/list-of-accredited-polytechnics-in-nigeria/,CC-BY-NC-SA
"British Transatlantic Polytechnic, Akure",polytechnic,federal,Unknown,Akure,,accredited,,,,https://myschoolgist.com/ng/list-of-accredited-polytechnics-in-nigeria/,CC-BY-NC-SA
"British Transatlantic Polytechnic, Akure",polytechnic,federal,Unknown,Akure,,accredited,,,,https://myschoolgist.com/ng/list-of-accredited-polytechnics-in-nigeria/,CC-BY-NC-SA
Broadcast Arts Institute (BAI) Admission Form for 2025/2026 Academic Session,polytechnic,federal,Unknown,Unknown,,accredited,,,,https://myschoolgist.com/ng/list-of-accredited-polytechnics-in-nigeria/,CC-BY-NC-SA
Broadcast Arts Institute (BAI) Admission Form for 2025/2026 Academic Session,polytechnic,federal,Unknown,Unknown,,accredited,,,,https://myschoolgist.com/ng/list-of-accredited-polytechnics-in-nigeria/,CC-BY-NC-SA
Broadcast Arts Institute (BAI) Admission Form for 2025/2026 Academic Session,polytechnic,federal,Unknown,Unknown,,accredited,,,,https://myschoolgist.com/ng/list-of-accredited-polytechnics-in-nigeria/,CC-BY-NC-SA
"Calvary Polytechnic, Owo-Oyibu, Delta State",polytechnic,federal,Delta,Owo,,accredited,,,,https://myschoolgist.com/ng/list-of-accredited-polytechnics-in-nigeria/,CC-BY-NC-SA
"Citi Polytechnic, Abuja",polytechnic,federal,Abuja,Unknown,,accredited,,,,https://myschoolgist.com/ng/list-of-accredited-polytechnics-in-nigeria/,CC-BY-NC-SA
"Coastal Polytechnic, Badagry",polytechnic,federal,Unknown,Badagry,,accredited,,,,https://myschoolgist.com/ng/list-of-accredited-polytechnics-in-nigeria/,CC-BY-NC-SA
"Coastal Polytechnic, Badagry",polytechnic,federal,Unknown,Badagry,,accredited,,,,https://myschoolgist.com/ng/list-of-accredited-polytechnics-in-nigeria/,CC-BY-NC-SA
"Coastal Polytechnic, Badagry",polytechnic,federal,Unknown,Badagry,,accredited,,,,https://myschoolgist.com/ng/list-of-accredited-polytechnics-in-nigeria/,CC-BY-NC-SA
"College of Administration, Management And Technology, Potiskum",polytechnic,federal,Unknown,Management And Technology,,accredited,,,,https://myschoolgist.com/ng/list-of-accredited-polytechnics-in-nigeria/,CC-BY-NC-SA
"College of Administration, Management And Technology, Potiskum",polytechnic,federal,Unknown,Management And Technology,,accredited,,,,https://myschoolgist.com/ng/list-of-accredited-polytechnics-in-nigeria/,CC-BY-NC-SA
"College of Administration, Management And Technology, Potiskum",polytechnic,federal,Unknown,Management And Technology,,accredited,,,,https://myschoolgist.com/ng/list-of-accredited-polytechnics-in-nigeria/,CC-BY-NC-SA
"College of Agriculture, Science And Technology, Gujba",polytechnic,federal,Unknown,Science And Technology,,accredited,,,,https://myschoolgist.com/ng/list-of-accredited-polytechnics-in-nigeria/,CC-BY-NC-SA
"College of Agriculture, Science And Technology, Gujba",polytechnic,federal,Unknown,Science And Technology,,accredited,,,,https://myschoolgist.com/ng/list-of-accredited-polytechnics-in-nigeria/,CC-BY-NC-SA
"College of Agriculture, Science And Technology, Gujba",polytechnic,federal,Unknown,Science And Technology,,accredited,,,,https://myschoolgist.com/ng/list-of-accredited-polytechnics-in-nigeria/,CC-BY-NC-SA
"College of Agriculture, Science and Technology, Lafia",polytechnic,federal,Unknown,Science and Technology,,accredited,,,,https://myschoolgist.com/ng/list-of-accredited-polytechnics-in-nigeria/,CC-BY-NC-SA
"College of Agriculture, Science and Technology, Lafia",polytechnic,federal,Unknown,Science and Technology,,accredited,,,,https://myschoolgist.com/ng/list-of-accredited-polytechnics-in-nigeria/,CC-BY-NC-SA
"College of Agriculture, Science and Technology, Lafia",polytechnic,federal,Unknown,Science and Technology,,accredited,,,,https://myschoolgist.com/ng/list-of-accredited-polytechnics-in-nigeria/,CC-BY-NC-SA
Colleges of Education,polytechnic,federal,Unknown,Unknown,,accredited,,,,https://myschoolgist.com/ng/list-of-accredited-polytechnics-in-nigeria/,CC-BY-NC-SA
"Covenant Polytechnic, Aba",polytechnic,federal,Unknown,Aba,,accredited,,,,https://myschoolgist.com/ng/list-of-accredited-polytechnics-in-nigeria/,CC-BY-NC-SA
"Covenant Polytechnic, Aba",polytechnic,federal,Unknown,Aba,,accredited,,,,https://myschoolgist.com/ng/list-of-accredited-polytechnics-in-nigeria/,CC-BY-NC-SA
"Covenant Polytechnic, Aba",polytechnic,federal,Unknown,Aba,,accredited,,,,https://myschoolgist.com/ng/list-of-accredited-polytechnics-in-nigeria/,CC-BY-NC-SA
"Cross River Institute of Technology And Management, Ugep",polytechnic,federal,Cross River,Ugep,,accredited,,,,https://myschoolgist.com/ng/list-of-accredited-polytechnics-in-nigeria/,CC-BY-NC-SA
"Crown Polytechnic, Ado-Ekiti",polytechnic,federal,Ekiti,Ado,,accredited,,,,https://myschoolgist.com/ng/list-of-accredited-polytechnics-in-nigeria/,CC-BY-NC-SA
"Delta State Polytechnic, Ogwashi-Uku",polytechnic,federal,Delta,Ogwashi,,accredited,,,,https://myschoolgist.com/ng/list-of-accredited-polytechnics-in-nigeria/,CC-BY-NC-SA
"Delta State Polytechnic, Otefe-Oghara",polytechnic,federal,Delta,Otefe,,accredited,,,,https://myschoolgist.com/ng/list-of-accredited-polytechnics-in-nigeria/,CC-BY-NC-SA
"Delta State Polytechnic, Ozoro, Delta State (Now Delta State University of Science And Technology)",polytechnic,federal,Delta,Ozoro,,accredited,,,,https://myschoolgist.com/ng/list-of-accredited-polytechnics-in-nigeria/,CC-BY-NC-SA
"Delta State School of Marine Technology, Burutu",polytechnic,federal,Delta,Burutu,,accredited,,,,https://myschoolgist.com/ng/list-of-accredited-polytechnics-in-nigeria/,CC-BY-NC-SA
"Distinct Polytechnic, Ekosin",polytechnic,federal,Unknown,Ekosin,,accredited,,,,https://myschoolgist.com/ng/list-of-accredited-polytechnics-in-nigeria/,CC-BY-NC-SA
"Distinct Polytechnic, Ekosin",polytechnic,federal,Unknown,Ekosin,,accredited,,,,https://myschoolgist.com/ng/list-of-accredited-polytechnics-in-nigeria/,CC-BY-NC-SA
"Distinct Polytechnic, Ekosin",polytechnic,federal,Unknown,Ekosin,,accredited,,,,https://myschoolgist.com/ng/list-of-accredited-polytechnics-in-nigeria/,CC-BY-NC-SA
Dorben Polytechnic Bwari,polytechnic,federal,Unknown,Unknown,,accredited,,,,https://myschoolgist.com/ng/list-of-accredited-polytechnics-in-nigeria/,CC-BY-NC-SA
Dorben Polytechnic Bwari,polytechnic,federal,Unknown,Unknown,,accredited,,,,https://myschoolgist.com/ng/list-of-accredited-polytechnics-in-nigeria/,CC-BY-NC-SA
Dorben Polytechnic Bwari,polytechnic,federal,Unknown,Unknown,,accredited,,,,https://myschoolgist.com/ng/list-of-accredited-polytechnics-in-nigeria/,CC-BY-NC-SA
"D.S. Adegbenro ICT Polytechnic, Itori-Ewekoro",polytechnic,federal,Unknown,Itori,,accredited,,,,https://myschoolgist.com/ng/list-of-accredited-polytechnics-in-nigeria/,CC-BY-NC-SA
"D.S. Adegbenro ICT Polytechnic, Itori-Ewekoro",polytechnic,federal,Unknown,Itori,,accredited,,,,https://myschoolgist.com/ng/list-of-accredited-polytechnics-in-nigeria/,CC-BY-NC-SA
"D.S. Adegbenro ICT Polytechnic, Itori-Ewekoro",polytechnic,federal,Unknown,Itori,,accredited,,,,https://myschoolgist.com/ng/list-of-accredited-polytechnics-in-nigeria/,CC-BY-NC-SA
"Eastern Polytechnic, Port Harcourt",polytechnic,federal,Unknown,Port Harcourt,,accredited,,,,https://myschoolgist.com/ng/list-of-accredited-polytechnics-in-nigeria/,CC-BY-NC-SA
"Eastern Polytechnic, Port Harcourt",polytechnic,federal,Unknown,Port Harcourt,,accredited,,,,https://myschoolgist.com/ng/list-of-accredited-polytechnics-in-nigeria/,CC-BY-NC-SA
"Eastern Polytechnic, Port Harcourt",polytechnic,federal,Unknown,Port Harcourt,,accredited,,,,https://myschoolgist.com/ng/list-of-accredited-polytechnics-in-nigeria/,CC-BY-NC-SA
"Edo State Polytechnic, Usen",polytechnic,federal,Edo,Usen,,accredited,,,,https://myschoolgist.com/ng/list-of-accredited-polytechnics-in-nigeria/,CC-BY-NC-SA
Ekiti City Polytechnic Omuo-Ekiti,polytechnic,federal,Ekiti,Unknown,,accredited,,,,https://myschoolgist.com/ng/list-of-accredited-polytechnics-in-nigeria/,CC-BY-NC-SA
"Ekiti State College of Agriculture And Technology, Isan-Ekiti",polytechnic,federal,Ekiti,Isan,,accredited,,,,https://myschoolgist.com/ng/list-of-accredited-polytechnics-in-nigeria/,CC-BY-NC-SA
"Enugu State Polytechnic, Iwollo",polytechnic,federal,Enugu,Iwollo,,accredited,,,,https://myschoolgist.com/ng/list-of-accredited-polytechnics-in-nigeria/,CC-BY-NC-SA
"Enville Institute of Management and Technology, Ikeja",polytechnic,federal,Unknown,Ikeja,,accredited,,,,https://myschoolgist.com/ng/list-of-accredited-polytechnics-in-nigeria/,CC-BY-NC-SA
"Enville Institute of Management and Technology, Ikeja",polytechnic,federal,Unknown,Ikeja,,accredited,,,,https://myschoolgist.com/ng/list-of-accredited-polytechnics-in-nigeria/,CC-BY-NC-SA
"Enville Institute of Management and Technology, Ikeja",polytechnic,federal,Unknown,Ikeja,,accredited,,,,https://myschoolgist.com/ng/list-of-accredited-polytechnics-in-nigeria/,CC-BY-NC-SA
"Federal Polytechnic, Ado-Ekiti",polytechnic,federal,Ekiti,Ado,,accredited,,,,https://myschoolgist.com/ng/list-of-accredited-polytechnics-in-nigeria/,CC-BY-NC-SA
"Federal Polytechnic, Ayede",polytechnic,federal,Unknown,Ayede,,accredited,,,,https://myschoolgist.com/ng/list-of-accredited-polytechnics-in-nigeria/,CC-BY-NC-SA
"Federal Polytechnic, Ayede",polytechnic,federal,Unknown,Ayede,,accredited,,,,https://myschoolgist.com/ng/list-of-accredited-polytechnics-in-nigeria/,CC-BY-NC-SA
"Federal Polytechnic, Ayede",polytechnic,federal,Unknown,Ayede,,accredited,,,,https://myschoolgist.com/ng/list-of-accredited-polytechnics-in-nigeria/,CC-BY-NC-SA
"Federal Polytechnic, Bali",polytechnic,federal,Unknown,Bali,,accredited,,,,https://myschoolgist.com/ng/list-of-accredited-polytechnics-in-nigeria/,CC-BY-NC-SA
"Federal Polytechnic, Bali",polytechnic,federal,Unknown,Bali,,accredited,,,,https://myschoolgist.com/ng/list-of-accredited-polytechnics-in-nigeria/,CC-BY-NC-SA
"Federal Polytechnic, Bali",polytechnic,federal,Unknown,Bali,,accredited,,,,https://myschoolgist.com/ng/list-of-accredited-polytechnics-in-nigeria/,CC-BY-NC-SA
"Federal Polytechnic, Bauchi",polytechnic,federal,Bauchi,Unknown,,accredited,,,,https://myschoolgist.com/ng/list-of-accredited-polytechnics-in-nigeria/,CC-BY-NC-SA
"Federal Polytechnic, Bida",polytechnic,federal,Unknown,Bida,,accredited,,,,https://myschoolgist.com/ng/list-of-accredited-polytechnics-in-nigeria/,CC-BY-NC-SA
"Federal Polytechnic, Bida",polytechnic,federal,Unknown,Bida,,accredited,,,,https://myschoolgist.com/ng/list-of-accredited-polytechnics-in-nigeria/,CC-BY-NC-SA
"Federal Polytechnic, Bida",polytechnic,federal,Unknown,Bida,,accredited,,,,https://myschoolgist.com/ng/list-of-accredited-polytechnics-in-nigeria/,CC-BY-NC-SA
"Federal Polytechnic, Damaturu",polytechnic,federal,Unknown,Damaturu,,accredited,,,,https://myschoolgist.com/ng/list-of-accredited-polytechnics-in-nigeria/,CC-BY-NC-SA
"Federal Polytechnic, Damaturu",polytechnic,federal,Unknown,Damaturu,,accredited,,,,https://myschoolgist.com/ng/list-of-accredited-polytechnics-in-nigeria/,CC-BY-NC-SA
"Federal Polytechnic, Damaturu",polytechnic,federal,Unknown,Damaturu,,accredited,,,,https://myschoolgist.com/ng/list-of-accredited-polytechnics-in-nigeria/,CC-BY-NC-SA
"Federal Polytechnic, Daura",polytechnic,federal,Unknown,Daura,,accredited,,,,https://myschoolgist.com/ng/list-of-accredited-polytechnics-in-nigeria/,CC-BY-NC-SA
"Federal Polytechnic, Daura",polytechnic,federal,Unknown,Daura,,accredited,,,,https://myschoolgist.com/ng/list-of-accredited-polytechnics-in-nigeria/,CC-BY-NC-SA
"Federal Polytechnic, Daura",polytechnic,federal,Unknown,Daura,,accredited,,,,https://myschoolgist.com/ng/list-of-accredited-polytechnics-in-nigeria/,CC-BY-NC-SA
"Federal Polytechnic, Ede",polytechnic,federal,Unknown,Ede,,accredited,,,,https://myschoolgist.com/ng/list-of-accredited-polytechnics-in-nigeria/,CC-BY-NC-SA
"Federal Polytechnic, Ede",polytechnic,federal,Unknown,Ede,,accredited,,,,https://myschoolgist.com/ng/list-of-accredited-polytechnics-in-nigeria/,CC-BY-NC-SA
"Federal Polytechnic, Ede",polytechnic,federal,Unknown,Ede,,accredited,,,,https://myschoolgist.com/ng/list-of-accredited-polytechnics-in-nigeria/,CC-BY-NC-SA
"Federal Polytechnic, Ekowe",polytechnic,federal,Unknown,Ekowe,,accredited,,,,https://myschoolgist.com/ng/list-of-accredited-polytechnics-in-nigeria/,CC-BY-NC-SA
"Federal Polytechnic, Ekowe",polytechnic,federal,Unknown,Ekowe,,accredited,,,,https://myschoolgist.com/ng/list-of-accredited-polytechnics-in-nigeria/,CC-BY-NC-SA
"Federal Polytechnic, Ekowe",polytechnic,federal,Unknown,Ekowe,,accredited,,,,https://myschoolgist.com/ng/list-of-accredited-polytechnics-in-nigeria/,CC-BY-NC-SA
Federal Polytechnic Idah,polytechnic,federal,Unknown,Unknown,,accredited,,,,https://myschoolgist.com/ng/list-of-accredited-polytechnics-in-nigeria/,CC-BY-NC-SA
Federal Polytechnic Idah,polytechnic,federal,Unknown,Unknown,,accredited,,,,https://myschoolgist.com/ng/list-of-accredited-polytechnics-in-nigeria/,CC-BY-NC-SA
Federal Polytechnic Idah,polytechnic,federal,Unknown,Unknown,,accredited,,,,https://myschoolgist.com/ng/list-of-accredited-polytechnics-in-nigeria/,CC-BY-NC-SA
"Federal Polytechnic, Ilaro",polytechnic,federal,Unknown,Ilaro,,accredited,,,,https://myschoolgist.com/ng/list-of-accredited-polytechnics-in-nigeria/,CC-BY-NC-SA
"Federal Polytechnic, Ilaro",polytechnic,federal,Unknown,Ilaro,,accredited,,,,https://myschoolgist.com/ng/list-of-accredited-polytechnics-in-nigeria/,CC-BY-NC-SA
"Federal Polytechnic, Ilaro",polytechnic,federal,Unknown,Ilaro,,accredited,,,,https://myschoolgist.com/ng/list-of-accredited-polytechnics-in-nigeria/,CC-BY-NC-SA
"Federal Polytechnic, Ilaro",polytechnic,federal,Ogun,Ilaro,https://federalpolyilaro.edu.ng,Accredited,info@federalpolyilaro.edu.ng,,,https://nuc.edu.ng,
Federal Polytechnic Ile-Oluji,polytechnic,federal,Unknown,Unknown,,accredited,,,,https://myschoolgist.com/ng/list-of-accredited-polytechnics-in-nigeria/,CC-BY-NC-SA
Federal Polytechnic Ile-Oluji,polytechnic,federal,Unknown,Unknown,,accredited,,,,https://myschoolgist.com/ng/list-of-accredited-polytechnics-in-nigeria/,CC-BY-NC-SA
Federal Polytechnic Ile-Oluji,polytechnic,federal,Unknown,Unknown,,accredited,,,,https://myschoolgist.com/ng/list-of-accredited-polytechnics-in-nigeria/,CC-BY-NC-SA
Federal Polytechnic Isuochi,polytechnic,federal,Unknown,Unknown,,accredited,,,,https://myschoolgist.com/ng/list-of-accredited-polytechnics-in-nigeria/,CC-BY-NC-SA
Federal Polytechnic Isuochi,polytechnic,federal,Unknown,Unknown,,accredited,,,,https://myschoolgist.com/ng/list-of-accredited-polytechnics-in-nigeria/,CC-BY-NC-SA
Federal Polytechnic Isuochi,polytechnic,federal,Unknown,Unknown,,accredited,,,,https://myschoolgist.com/ng/list-of-accredited-polytechnics-in-nigeria/,CC-BY-NC-SA
Federal Polytechnic Kabo,polytechnic,federal,Unknown,Unknown,,accredited,,,,https://myschoolgist.com/ng/list-of-accredited-polytechnics-in-nigeria/,CC-BY-NC-SA
Federal Polytechnic Kabo,polytechnic,federal,Unknown,Unknown,,accredited,,,,https://myschoolgist.com/ng/list-of-accredited-polytechnics-in-nigeria/,CC-BY-NC-SA
Federal Polytechnic Kabo,polytechnic,federal,Unknown,Unknown,,accredited,,,,https://myschoolgist.com/ng/list-of-accredited-polytechnics-in-nigeria/,CC-BY-NC-SA
Federal Polytechnic Kaltungo,polytechnic,federal,Unknown,Unknown,,accredited,,,,https://myschoolgist.com/ng/list-of-accredited-polytechnics-in-nigeria/,CC-BY-NC-SA
Federal Polytechnic Kaltungo,polytechnic,federal,Unknown,Unknown,,accredited,,,,https://myschoolgist.com/ng/list-of-accredited-polytechnics-in-nigeria/,CC-BY-NC-SA
Federal Polytechnic Kaltungo,polytechnic,federal,Unknown,Unknown,,accredited,,,,https://myschoolgist.com/ng/list-of-accredited-polytechnics-in-nigeria/,CC-BY-NC-SA
Federal Polytechnic Kaura-Namoda,polytechnic,federal,Unknown,Unknown,,accredited,,,,https://myschoolgist.com/ng/list-of-accredited-polytechnics-in-nigeria/,CC-BY-NC-SA
Federal Polytechnic Kaura-Namoda,polytechnic,federal,Unknown,Unknown,,accredited,,,,https://myschoolgist.com/ng/list-of-accredited-polytechnics-in-nigeria/,CC-BY-NC-SA
Federal Polytechnic Kaura-Namoda,polytechnic,federal,Unknown,Unknown,,accredited,,,,https://myschoolgist.com/ng/list-of-accredited-polytechnics-in-nigeria/,CC-BY-NC-SA
"Federal Polytechnic, Monguno",polytechnic,federal,Unknown,Monguno,,accredited,,,,https://myschoolgist.com/ng/list-of-accredited-polytechnics-in-nigeria/,CC-BY-NC-SA
"Federal Polytechnic, Monguno",polytechnic,federal,Unknown,Monguno,,accredited,,,,https://myschoolgist.com/ng/list-of-accredited-polytechnics-in-nigeria/,CC-BY-NC-SA
"Federal Polytechnic, Monguno",polytechnic,federal,Unknown,Monguno,,accredited,,,,https://myschoolgist.com/ng/list-of-accredited-polytechnics-in-nigeria/,CC-BY-NC-SA
"Federal Polytechnic, Mubi",polytechnic,federal,Unknown,Mubi,,accredited,,,,https://myschoolgist.com/ng/list-of-accredited-polytechnics-in-nigeria/,CC-BY-NC-SA
"Federal Polytechnic, Mubi",polytechnic,federal,Unknown,Mubi,,accredited,,,,https://myschoolgist.com/ng/list-of-accredited-polytechnics-in-nigeria/,CC-BY-NC-SA
"Federal Polytechnic, Mubi",polytechnic,federal,Unknown,Mubi,,accredited,,,,https://myschoolgist.com/ng/list-of-accredited-polytechnics-in-nigeria/,CC-BY-NC-SA
"Federal Polytechnic, Nasarawa",polytechnic,federal,Nasarawa,Unknown,,accredited,,,,https://myschoolgist.com/ng/list-of-accredited-polytechnics-in-nigeria/,CC-BY-NC-SA
"Federal Polytechnic, Neede",polytechnic,federal,Unknown,Neede,,accredited,,,,https://myschoolgist.com/ng/list-of-accredited-polytechnics-in-nigeria/,CC-BY-NC-SA
"Federal Polytechnic, Neede",polytechnic,federal,Unknown,Neede,,accredited,,,,https://myschoolgist.com/ng/list-of-accredited-polytechnics-in-nigeria/,CC-BY-NC-SA
"Federal Polytechnic, Neede",polytechnic,federal,Unknown,Neede,,accredited,,,,https://myschoolgist.com/ng/list-of-accredited-polytechnics-in-nigeria/,CC-BY-NC-SA
"Federal Polytechnic, Nyak, Shendam",polytechnic,federal,Unknown,Nyak,,accredited,,,,https://myschoolgist.com/ng/list-of-accredited-polytechnics-in-nigeria/,CC-BY-NC-SA
"Federal Polytechnic, Nyak, Shendam",polytechnic,federal,Unknown,Nyak,,accredited,,,,https://myschoolgist.com/ng/list-of-accredited-polytechnics-in-nigeria/,CC-BY-NC-SA
"Federal Polytechnic, Nyak, Shendam",polytechnic,federal,Unknown,Nyak,,accredited,,,,https://myschoolgist.com/ng/list-of-accredited-polytechnics-in-nigeria/,CC-BY-NC-SA
"Federal Polytechnic, Offa",polytechnic,federal,Unknown,Offa,,accredited,,,,https://myschoolgist.com/ng/list-of-accredited-polytechnics-in-nigeria/,CC-BY-NC-SA
"Federal Polytechnic, Offa",polytechnic,federal,Unknown,Offa,,accredited,,,,https://myschoolgist.com/ng/list-of-accredited-polytechnics-in-nigeria/,CC-BY-NC-SA
"Federal Polytechnic, Offa",polytechnic,federal,Unknown,Offa,,accredited,,,,https://myschoolgist.com/ng/list-of-accredited-polytechnics-in-nigeria/,CC-BY-NC-SA
Federal Polytechnic Offa Admission Form into Newly Introduced HND Programmes 2025/2026,polytechnic,federal,Unknown,Unknown,,accredited,,,,https://myschoolgist.com/ng/list-of-accredited-polytechnics-in-nigeria/,CC-BY-NC-SA
Federal Polytechnic Offa Admission Form into Newly Introduced HND Programmes 2025/2026,polytechnic,federal,Unknown,Unknown,,accredited,,,,https://myschoolgist.com/ng/list-of-accredited-polytechnics-in-nigeria/,CC-BY-NC-SA
Federal Polytechnic Offa Admission Form into Newly Introduced HND Programmes 2025/2026,polytechnic,federal,Unknown,Unknown,,accredited,,,,https://myschoolgist.com/ng/list-of-accredited-polytechnics-in-nigeria/,CC-BY-NC-SA
"Federal Polytechnic of Oil And Gas, Bonny",polytechnic,federal,Unknown,Bonny,,accredited,,,,https://myschoolgist.com/ng/list-of-accredited-polytechnics-in-nigeria/,CC-BY-NC-SA
"Federal Polytechnic of Oil And Gas, Bonny",polytechnic,federal,Unknown,Bonny,,accredited,,,,https://myschoolgist.com/ng/list-of-accredited-polytechnics-in-nigeria/,CC-BY-NC-SA
"Federal Polytechnic of Oil And Gas, Bonny",polytechnic,federal,Unknown,Bonny,,accredited,,,,https://myschoolgist.com/ng/list-of-accredited-polytechnics-in-nigeria/,CC-BY-NC-SA
"Federal Polytechnic, Ohodo",polytechnic,federal,Unknown,Ohodo,,accredited,,,,https://myschoolgist.com/ng/list-of-accredited-polytechnics-in-nigeria/,CC-BY-NC-SA
"Federal Polytechnic, Ohodo",polytechnic,federal,Unknown,Ohodo,,accredited,,,,https://myschoolgist.com/ng/list-of-accredited-polytechnics-in-nigeria/,CC-BY-NC-SA
"Federal Polytechnic, Ohodo",polytechnic,federal,Unknown,Ohodo,,accredited,,,,https://myschoolgist.com/ng/list-of-accredited-polytechnics-in-nigeria/,CC-BY-NC-SA
"Federal Polytechnic, Oko",polytechnic,federal,Unknown,Oko,,accredited,,,,https://myschoolgist.com/ng/list-of-accredited-polytechnics-in-nigeria/,CC-BY-NC-SA
"Federal Polytechnic, Oko",polytechnic,federal,Unknown,Oko,,accredited,,,,https://myschoolgist.com/ng/list-of-accredited-polytechnics-in-nigeria/,CC-BY-NC-SA
"Federal Polytechnic, Oko",polytechnic,federal,Unknown,Oko,,accredited,,,,https://myschoolgist.com/ng/list-of-accredited-polytechnics-in-nigeria/,CC-BY-NC-SA
"Federal Polytechnic, Orogun",polytechnic,federal,Ogun,Orogun,,accredited,,,,https://myschoolgist.com/ng/list-of-accredited-polytechnics-in-nigeria/,CC-BY-NC-SA
"Federal Polytechnic, Ugep",polytechnic,federal,Unknown,Ugep,,accredited,,,,https://myschoolgist.com/ng/list-of-accredited-polytechnics-in-nigeria/,CC-BY-NC-SA
"Federal Polytechnic, Ugep",polytechnic,federal,Unknown,Ugep,,accredited,,,,https://myschoolgist.com/ng/list-of-accredited-polytechnics-in-nigeria/,CC-BY-NC-SA
"Federal Polytechnic, Ugep",polytechnic,federal,Unknown,Ugep,,accredited,,,,https://myschoolgist.com/ng/list-of-accredited-polytechnics-in-nigeria/,CC-BY-NC-SA
"Federal Polytechnic, Ukana",polytechnic,federal,Unknown,Ukana,,accredited,,,,https://myschoolgist.com/ng/list-of-accredited-polytechnics-in-nigeria/,CC-BY-NC-SA
"Federal Polytechnic, Ukana",polytechnic,federal,Unknown,Ukana,,accredited,,,,https://myschoolgist.com/ng/list-of-accredited-polytechnics-in-nigeria/,CC-BY-NC-SA
"Federal Polytechnic, Ukana",polytechnic,federal,Unknown,Ukana,,accredited,,,,https://myschoolgist.com/ng/list-of-accredited-polytechnics-in-nigeria/,CC-BY-NC-SA
"Federal Polytechnic, Wannune",polytechnic,federal,Unknown,Wannune,,accredited,,,,https://myschoolgist.com/ng/list-of-accredited-polytechnics-in-nigeria/,CC-BY-NC-SA
"Federal Polytechnic, Wannune",polytechnic,federal,Unknown,Wannune,,accredited,,,,https://myschoolgist.com/ng/list-of-accredited-polytechnics-in-nigeria/,CC-BY-NC-SA
"Federal Polytechnic, Wannune",polytechnic,federal,Unknown,Wannune,,accredited,,,,https://myschoolgist.com/ng/list-of-accredited-polytechnics-in-nigeria/,CC-BY-NC-SA
"Fidei Polytechnic, Gboko",polytechnic,federal,Unknown,Gboko,,accredited,,,,https://myschoolgist.com/ng/list-of-accredited-polytechnics-in-nigeria/,CC-BY-NC-SA
"Fidei Polytechnic, Gboko",polytechnic,federal,Unknown,Gboko,,accredited,,,,https://myschoolgist.com/ng/list-of-accredited-polytechnics-in-nigeria/,CC-BY-NC-SA
"Fidei Polytechnic, Gboko",polytechnic,federal,Unknown,Gboko,,accredited,,,,https://myschoolgist.com/ng/list-of-accredited-polytechnics-in-nigeria/,CC-BY-NC-SA
"Foundation Polytechnic, Ikot Ekpene",polytechnic,federal,Unknown,Ikot Ekpene,,accredited,,,,https://myschoolgist.com/ng/list-of-accredited-polytechnics-in-nigeria/,CC-BY-NC-SA
"Foundation Polytechnic, Ikot Ekpene",polytechnic,federal,Unknown,Ikot Ekpene,,accredited,,,,https://myschoolgist.com/ng/list-of-accredited-polytechnics-in-nigeria/,CC-BY-NC-SA
"Foundation Polytechnic, Ikot Ekpene",polytechnic,federal,Unknown,Ikot Ekpene,,accredited,,,,https://myschoolgist.com/ng/list-of-accredited-polytechnics-in-nigeria/,CC-BY-NC-SA
"Gateway Polytechnic, Saapade",polytechnic,federal,Unknown,Saapade,,accredited,,,,https://myschoolgist.com/ng/list-of-accredited-polytechnics-in-nigeria/,CC-BY-NC-SA
"Gateway Polytechnic, Saapade",polytechnic,federal,Unknown,Saapade,,accredited,,,,https://myschoolgist.com/ng/list-of-accredited-polytechnics-in-nigeria/,CC-BY-NC-SA
"Gateway Polytechnic, Saapade",polytechnic,federal,Unknown,Saapade,,accredited,,,,https://myschoolgist.com/ng/list-of-accredited-polytechnics-in-nigeria/,CC-BY-NC-SA
"Gboko Polytechnic, Gboko",polytechnic,federal,Unknown,Gboko,,accredited,,,,https://myschoolgist.com/ng/list-of-accredited-polytechnics-in-nigeria/,CC-BY-NC-SA
"Gboko Polytechnic, Gboko",polytechnic,federal,Unknown,Gboko,,accredited,,,,https://myschoolgist.com/ng/list-of-accredited-polytechnics-in-nigeria/,CC-BY-NC-SA
"Gboko Polytechnic, Gboko",polytechnic,federal,Unknown,Gboko,,accredited,,,,https://myschoolgist.com/ng/list-of-accredited-polytechnics-in-nigeria/,CC-BY-NC-SA
"Global Polytechnic, Benin",polytechnic,federal,Unknown,Benin,,accredited,,,,https://myschoolgist.com/ng/list-of-accredited-polytechnics-in-nigeria/,CC-BY-NC-SA
"Global Polytechnic, Benin",polytechnic,federal,Unknown,Benin,,accredited,,,,https://myschoolgist.com/ng/list-of-accredited-polytechnics-in-nigeria/,CC-BY-NC-SA
"Global Polytechnic, Benin",polytechnic,federal,Unknown,Benin,,accredited,,,,https://myschoolgist.com/ng/list-of-accredited-polytechnics-in-nigeria/,CC-BY-NC-SA
"Gloryland Polytechnic, Anka",polytechnic,federal,Unknown,Anka,,accredited,,,,https://myschoolgist.com/ng/list-of-accredited-polytechnics-in-nigeria/,CC-BY-NC-SA
"Gloryland Polytechnic, Anka",polytechnic,federal,Unknown,Anka,,accredited,,,,https://myschoolgist.com/ng/list-of-accredited-polytechnics-in-nigeria/,CC-BY-NC-SA
"Gloryland Polytechnic, Anka",polytechnic,federal,Unknown,Anka,,accredited,,,,https://myschoolgist.com/ng/list-of-accredited-polytechnics-in-nigeria/,CC-BY-NC-SA
"Gombe State Polytechnic, Bajoga",polytechnic,federal,Gombe,Bajoga,,accredited,,,,https://myschoolgist.com/ng/list-of-accredited-polytechnics-in-nigeria/,CC-BY-NC-SA
"Graceland Polytechnic, Offa",polytechnic,federal,Unknown,Offa,,accredited,,,,https://myschoolgist.com/ng/list-of-accredited-polytechnics-in-nigeria/,CC-BY-NC-SA
"Graceland Polytechnic, Offa",polytechnic,federal,Unknown,Offa,,accredited,,,,https://myschoolgist.com/ng/list-of-accredited-polytechnics-in-nigeria/,CC-BY-NC-SA
"Graceland Polytechnic, Offa",polytechnic,federal,Unknown,Offa,,accredited,,,,https://myschoolgist.com/ng/list-of-accredited-polytechnics-in-nigeria/,CC-BY-NC-SA
"Grace Polytechnic, Surulere",polytechnic,federal,Unknown,Surulere,,accredited,,,,https://myschoolgist.com/ng/list-of-accredited-polytechnics-in-nigeria/,CC-BY-NC-SA
"Grace Polytechnic, Surulere",polytechnic,federal,Unknown,Surulere,,accredited,,,,https://myschoolgist.com/ng/list-of-accredited-polytechnics-in-nigeria/,CC-BY-NC-SA
"Grace Polytechnic, Surulere",polytechnic,federal,Unknown,Surulere,,accredited,,,,https://myschoolgist.com/ng/list-of-accredited-polytechnics-in-nigeria/,CC-BY-NC-SA
"Grundtvig Polytechnic, Oba",polytechnic,federal,Unknown,Oba,,accredited,,,,https://myschoolgist.com/ng/list-of-accredited-polytechnics-in-nigeria/,CC-BY-NC-SA
"Grundtvig Polytechnic, Oba",polytechnic,federal,Unknown,Oba,,accredited,,,,https://myschoolgist.com/ng/list-of-accredited-polytechnics-in-nigeria/,CC-BY-NC-SA
"Grundtvig Polytechnic, Oba",polytechnic,federal,Unknown,Oba,,accredited,,,,https://myschoolgist.com/ng/list-of-accredited-polytechnics-in-nigeria/,CC-BY-NC-SA
"Harry Pass Polytechnic, Gboko",polytechnic,federal,Unknown,Gboko,,accredited,,,,https://myschoolgist.com/ng/list-of-accredited-polytechnics-in-nigeria/,CC-BY-NC-SA
"Harry Pass Polytechnic, Gboko",polytechnic,federal,Unknown,Gboko,,accredited,,,,https://myschoolgist.com/ng/list-of-accredited-polytechnics-in-nigeria/,CC-BY-NC-SA
"Harry Pass Polytechnic, Gboko",polytechnic,federal,Unknown,Gboko,,accredited,,,,https://myschoolgist.com/ng/list-of-accredited-polytechnics-in-nigeria/,CC-BY-NC-SA
"Harvard Polytechnic, Ilorin",polytechnic,federal,Unknown,Ilorin,,accredited,,,,https://myschoolgist.com/ng/list-of-accredited-polytechnics-in-nigeria/,CC-BY-NC-SA
"Harvard Polytechnic, Ilorin",polytechnic,federal,Unknown,Ilorin,,accredited,,,,https://myschoolgist.com/ng/list-of-accredited-polytechnics-in-nigeria/,CC-BY-NC-SA
"Harvard Polytechnic, Ilorin",polytechnic,federal,Unknown,Ilorin,,accredited,,,,https://myschoolgist.com/ng/list-of-accredited-polytechnics-in-nigeria/,CC-BY-NC-SA
"Hassan Usman Katsina Polytechnic, Katsina",polytechnic,federal,Katsina,Unknown,,accredited,,,,https://myschoolgist.com/ng/list-of-accredited-polytechnics-in-nigeria/,CC-BY-NC-SA
"Heritage Polytechnic, Eket",polytechnic,federal,Unknown,Eket,,accredited,,,,https://myschoolgist.com/ng/list-of-accredited-polytechnics-in-nigeria/,CC-BY-NC-SA
"Heritage Polytechnic, Eket",polytechnic,federal,Unknown,Eket,,accredited,,,,https://myschoolgist.com/ng/list-of-accredited-polytechnics-in-nigeria/,CC-BY-NC-SA
"Heritage Polytechnic, Eket",polytechnic,federal,Unknown,Eket,,accredited,,,,https://myschoolgist.com/ng/list-of-accredited-polytechnics-in-nigeria/,CC-BY-NC-SA
"Hope Polytechnic, Ikono",polytechnic,federal,Unknown,Ikono,,accredited,,,,https://myschoolgist.com/ng/list-of-accredited-polytechnics-in-nigeria/,CC-BY-NC-SA
"Hope Polytechnic, Ikono",polytechnic,federal,Unknown,Ikono,,accredited,,,,https://myschoolgist.com/ng/list-of-accredited-polytechnics-in-nigeria/,CC-BY-NC-SA
"Hope Polytechnic, Ikono",polytechnic,federal,Unknown,Ikono,,accredited,,,,https://myschoolgist.com/ng/list-of-accredited-polytechnics-in-nigeria/,CC-BY-NC-SA
"Hussaini Adamu Federal Polytechnic, Kazaure",polytechnic,federal,Unknown,Kazaure,,accredited,,,,https://myschoolgist.com/ng/list-of-accredited-polytechnics-in-nigeria/,CC-BY-NC-SA
"Hussaini Adamu Federal Polytechnic, Kazaure",polytechnic,federal,Unknown,Kazaure,,accredited,,,,https://myschoolgist.com/ng/list-of-accredited-polytechnics-in-nigeria/,CC-BY-NC-SA
"Hussaini Adamu Federal Polytechnic, Kazaure",polytechnic,federal,Unknown,Kazaure,,accredited,,,,https://myschoolgist.com/ng/list-of-accredited-polytechnics-in-nigeria/,CC-BY-NC-SA
"Ibadan City Polytechnic, Ibadan",polytechnic,federal,Unknown,Ibadan,,accredited,,,,https://myschoolgist.com/ng/list-of-accredited-polytechnics-in-nigeria/,CC-BY-NC-SA
"Ibadan City Polytechnic, Ibadan",polytechnic,federal,Unknown,Ibadan,,accredited,,,,https://myschoolgist.com/ng/list-of-accredited-polytechnics-in-nigeria/,CC-BY-NC-SA
"Ibadan City Polytechnic, Ibadan",polytechnic,federal,Unknown,Ibadan,,accredited,,,,https://myschoolgist.com/ng/list-of-accredited-polytechnics-in-nigeria/,CC-BY-NC-SA
"Ibom Metropolitan Polytechnic, Uyo",polytechnic,federal,Unknown,Uyo,,accredited,,,,https://myschoolgist.com/ng/list-of-accredited-polytechnics-in-nigeria/,CC-BY-NC-SA
"Ibom Metropolitan Polytechnic, Uyo",polytechnic,federal,Unknown,Uyo,,accredited,,,,https://myschoolgist.com/ng/list-of-accredited-polytechnics-in-nigeria/,CC-BY-NC-SA
"Ibom Metropolitan Polytechnic, Uyo",polytechnic,federal,Unknown,Uyo,,accredited,,,,https://myschoolgist.com/ng/list-of-accredited-polytechnics-in-nigeria/,CC-BY-NC-SA
"Igbajo Polytechnic, Igbajo",polytechnic,federal,Unknown,Igbajo,,accredited,,,,https://myschoolgist.com/ng/list-of-accredited-polytechnics-in-nigeria/,CC-BY-NC-SA
"Igbajo Polytechnic, Igbajo",polytechnic,federal,Unknown,Igbajo,,accredited,,,,https://myschoolgist.com/ng/list-of-accredited-polytechnics-in-nigeria/,CC-BY-NC-SA
"Igbajo Polytechnic, Igbajo",polytechnic,federal,Unknown,Igbajo,,accredited,,,,https://myschoolgist.com/ng/list-of-accredited-polytechnics-in-nigeria/,CC-BY-NC-SA
"Iheachukwu Madubuike Institute of Technology, Isuochi",polytechnic,federal,Unknown,Isuochi,,accredited,,,,https://myschoolgist.com/ng/list-of-accredited-polytechnics-in-nigeria/,CC-BY-NC-SA
"Iheachukwu Madubuike Institute of Technology, Isuochi",polytechnic,federal,Unknown,Isuochi,,accredited,,,,https://myschoolgist.com/ng/list-of-accredited-polytechnics-in-nigeria/,CC-BY-NC-SA
"Iheachukwu Madubuike Institute of Technology, Isuochi",polytechnic,federal,Unknown,Isuochi,,accredited,,,,https://myschoolgist.com/ng/list-of-accredited-polytechnics-in-nigeria/,CC-BY-NC-SA
"Imo State Polytechnic, Umuagwo",polytechnic,federal,Imo,Umuagwo,,accredited,,,,https://myschoolgist.com/ng/list-of-accredited-polytechnics-in-nigeria/,CC-BY-NC-SA
"Inspire Polytechnic, Lagos",polytechnic,federal,Lagos,Unknown,,accredited,,,,https://myschoolgist.com/ng/list-of-accredited-polytechnics-in-nigeria/,CC-BY-NC-SA
"Institute of Management And Technology, Enugu",polytechnic,federal,Enugu,Unknown,,accredited,,,,https://myschoolgist.com/ng/list-of-accredited-polytechnics-in-nigeria/,CC-BY-NC-SA
"Interlink Polytechnic, Ijebu-Jesa",polytechnic,federal,Unknown,Ijebu,,accredited,,,,https://myschoolgist.com/ng/list-of-accredited-polytechnics-in-nigeria/,CC-BY-NC-SA
"Interlink Polytechnic, Ijebu-Jesa",polytechnic,federal,Unknown,Ijebu,,accredited,,,,https://myschoolgist.com/ng/list-of-accredited-polytechnics-in-nigeria/,CC-BY-NC-SA
"Interlink Polytechnic, Ijebu-Jesa",polytechnic,federal,Unknown,Ijebu,,accredited,,,,https://myschoolgist.com/ng/list-of-accredited-polytechnics-in-nigeria/,CC-BY-NC-SA
"Isa Mustapha Agwai Polytechnic, Lafia",polytechnic,federal,Unknown,Lafia,,accredited,,,,https://myschoolgist.com/ng/list-of-accredited-polytechnics-in-nigeria/,CC-BY-NC-SA
"Isa Mustapha Agwai Polytechnic, Lafia",polytechnic,federal,Unknown,Lafia,,accredited,,,,https://myschoolgist.com/ng/list-of-accredited-polytechnics-in-nigeria/,CC-BY-NC-SA
"Isa Mustapha Agwai Polytechnic, Lafia",polytechnic,federal,Unknown,Lafia,,accredited,,,,https://myschoolgist.com/ng/list-of-accredited-polytechnics-in-nigeria/,CC-BY-NC-SA
"Iwo City Polytechnic, Iwo",polytechnic,federal,Unknown,Iwo,,accredited,,,,https://myschoolgist.com/ng/list-of-accredited-polytechnics-in-nigeria/,CC-BY-NC-SA
"Iwo City Polytechnic, Iwo",polytechnic,federal,Unknown,Iwo,,accredited,,,,https://myschoolgist.com/ng/list-of-accredited-polytechnics-in-nigeria/,CC-BY-NC-SA
"Iwo City Polytechnic, Iwo",polytechnic,federal,Unknown,Iwo,,accredited,,,,https://myschoolgist.com/ng/list-of-accredited-polytechnics-in-nigeria/,CC-BY-NC-SA
"Jigawa State Polytechnic, Dutse",polytechnic,federal,Jigawa,Dutse,,accredited,,,,https://myschoolgist.com/ng/list-of-accredited-polytechnics-in-nigeria/,CC-BY-NC-SA
Kaduna Polytechnic Admission Acceptance Notice for 2025/2026 Academic Session,polytechnic,federal,Kaduna,Unknown,,accredited,,,,https://myschoolgist.com/ng/list-of-accredited-polytechnics-in-nigeria/,CC-BY-NC-SA
"Kaduna Polytechnic, Kaduna",polytechnic,federal,Kaduna,Unknown,,accredited,,,,https://myschoolgist.com/ng/list-of-accredited-polytechnics-in-nigeria/,CC-BY-NC-SA
"Kalac Crystal Polytechnic, Lekki",polytechnic,federal,Unknown,Lekki,,accredited,,,,https://myschoolgist.com/ng/list-of-accredited-polytechnics-in-nigeria/,CC-BY-NC-SA
"Kalac Crystal Polytechnic, Lekki",polytechnic,federal,Unknown,Lekki,,accredited,,,,https://myschoolgist.com/ng/list-of-accredited-polytechnics-in-nigeria/,CC-BY-NC-SA
"Kalac Crystal Polytechnic, Lekki",polytechnic,federal,Unknown,Lekki,,accredited,,,,https://myschoolgist.com/ng/list-of-accredited-polytechnics-in-nigeria/,CC-BY-NC-SA
"Kano State Polytechnic, Kano",polytechnic,federal,Kano,Unknown,,accredited,,,,https://myschoolgist.com/ng/list-of-accredited-polytechnics-in-nigeria/,CC-BY-NC-SA
"Katsina Institute of Technology And Management, Katsina",polytechnic,federal,Katsina,Unknown,,accredited,,,,https://myschoolgist.com/ng/list-of-accredited-polytechnics-in-nigeria/,CC-BY-NC-SA
"Kenule Beeson Saro-Wiwa Polytechnic, Bori",polytechnic,federal,Unknown,Bori,,accredited,,,,https://myschoolgist.com/ng/list-of-accredited-polytechnics-in-nigeria/,CC-BY-NC-SA
"Kenule Beeson Saro-Wiwa Polytechnic, Bori",polytechnic,federal,Unknown,Bori,,accredited,,,,https://myschoolgist.com/ng/list-of-accredited-polytechnics-in-nigeria/,CC-BY-NC-SA
"Kenule Beeson Saro-Wiwa Polytechnic, Bori",polytechnic,federal,Unknown,Bori,,accredited,,,,https://myschoolgist.com/ng/list-of-accredited-polytechnics-in-nigeria/,CC-BY-NC-SA
"Kings Polytechnic, Ubiaja",polytechnic,federal,Unknown,Ubiaja,,accredited,,,,https://myschoolgist.com/ng/list-of-accredited-polytechnics-in-nigeria/,CC-BY-NC-SA
"Kings Polytechnic, Ubiaja",polytechnic,federal,Unknown,Ubiaja,,accredited,,,,https://myschoolgist.com/ng/list-of-accredited-polytechnics-in-nigeria/,CC-BY-NC-SA
"Kings Polytechnic, Ubiaja",polytechnic,federal,Unknown,Ubiaja,,accredited,,,,https://myschoolgist.com/ng/list-of-accredited-polytechnics-in-nigeria/,CC-BY-NC-SA
Kogi State Polytechnic Gets Accreditation for New Programmes,polytechnic,federal,Kogi,Unknown,,accredited,,,,https://myschoolgist.com/ng/list-of-accredited-polytechnics-in-nigeria/,CC-BY-NC-SA
"Kogi State Polytechnic, Lokoja",polytechnic,federal,Kogi,Lokoja,,accredited,,,,https://myschoolgist.com/ng/list-of-accredited-polytechnics-in-nigeria/,CC-BY-NC-SA
"Kwara State Polytechnic, Ilorin",polytechnic,federal,Kwara,Ilorin,,accredited,,,,https://myschoolgist.com/ng/list-of-accredited-polytechnics-in-nigeria/,CC-BY-NC-SA
"Lagos City Polytechnic, Ikeja",polytechnic,federal,Lagos,Ikeja,,accredited,,,,https://myschoolgist.com/ng/list-of-accredited-polytechnics-in-nigeria/,CC-BY-NC-SA
Lagos State Polytechnic,polytechnic,state,Lagos,Lagos,https://mylaspotech.edu.ng,Accredited,info@mylaspotech.edu.ng,,,https://nuc.edu.ng,
"Lagos State Polytechnic, Ikorodu (Now Lagos State University of Science and Technology)",polytechnic,federal,Lagos,Ikorodu,,accredited,,,,https://myschoolgist.com/ng/list-of-accredited-polytechnics-in-nigeria/,CC-BY-NC-SA
"Landmark Polytechnic, Ayetoro",polytechnic,federal,Unknown,Ayetoro,,accredited,,,,https://myschoolgist.com/ng/list-of-accredited-polytechnics-in-nigeria/,CC-BY-NC-SA
"Landmark Polytechnic, Ayetoro",polytechnic,federal,Unknown,Ayetoro,,accredited,,,,https://myschoolgist.com/ng/list-of-accredited-polytechnics-in-nigeria/,CC-BY-NC-SA
"Landmark Polytechnic, Ayetoro",polytechnic,federal,Unknown,Ayetoro,,accredited,,,,https://myschoolgist.com/ng/list-of-accredited-polytechnics-in-nigeria/,CC-BY-NC-SA
"Lens Polytechnic, Offa",polytechnic,federal,Unknown,Offa,,accredited,,,,https://myschoolgist.com/ng/list-of-accredited-polytechnics-in-nigeria/,CC-BY-NC-SA
"Lens Polytechnic, Offa",polytechnic,federal,Unknown,Offa,,accredited,,,,https://myschoolgist.com/ng/list-of-accredited-polytechnics-in-nigeria/,CC-BY-NC-SA
"Lens Polytechnic, Offa",polytechnic,federal,Unknown,Offa,,accredited,,,,https://myschoolgist.com/ng/list-of-accredited-polytechnics-in-nigeria/,CC-BY-NC-SA
"Lighthouse Polytechnic, Evbuobanosa",polytechnic,federal,Unknown,Evbuobanosa,,accredited,,,,https://myschoolgist.com/ng/list-of-accredited-polytechnics-in-nigeria/,CC-BY-NC-SA
"Lighthouse Polytechnic, Evbuobanosa",polytechnic,federal,Unknown,Evbuobanosa,,accredited,,,,https://myschoolgist.com/ng/list-of-accredited-polytechnics-in-nigeria/,CC-BY-NC-SA
"Lighthouse Polytechnic, Evbuobanosa",polytechnic,federal,Unknown,Evbuobanosa,,accredited,,,,https://myschoolgist.com/ng/list-of-accredited-polytechnics-in-nigeria/,CC-BY-NC-SA
List of Accredited Colleges of Education in Nigeria,polytechnic,federal,Niger,Nigeria,,accredited,,,,https://myschoolgist.com/ng/list-of-accredited-polytechnics-in-nigeria/,CC-BY-NC-SA
List of Federal Polytechnics In Nigeria,polytechnic,federal,Niger,Nigeria,,accredited,,,,https://myschoolgist.com/ng/list-of-accredited-polytechnics-in-nigeria/,CC-BY-NC-SA
List of Private Polytechnics In Nigeria,polytechnic,federal,Niger,Nigeria,,accredited,,,,https://myschoolgist.com/ng/list-of-accredited-polytechnics-in-nigeria/,CC-BY-NC-SA
List of State Polytechnics In Nigeria,polytechnic,federal,Niger,Nigeria,,accredited,,,,https://myschoolgist.com/ng/list-of-accredited-polytechnics-in-nigeria/,CC-BY-NC-SA
"Loam Polytechnic, Ikono",polytechnic,federal,Unknown,Ikono,,accredited,,,,https://myschoolgist.com/ng/list-of-accredited-polytechnics-in-nigeria/,CC-BY-NC-SA
"Loam Polytechnic, Ikono",polytechnic,federal,Unknown,Ikono,,accredited,,,,https://myschoolgist.com/ng/list-of-accredited-polytechnics-in-nigeria/,CC-BY-NC-SA
"Loam Polytechnic, Ikono",polytechnic,federal,Unknown,Ikono,,accredited,,,,https://myschoolgist.com/ng/list-of-accredited-polytechnics-in-nigeria/,CC-BY-NC-SA
"Mai-Idris Alooma Polytechnic, Geidam",polytechnic,federal,Unknown,Geidam,,accredited,,,,https://myschoolgist.com/ng/list-of-accredited-polytechnics-in-nigeria/,CC-BY-NC-SA
"Mai-Idris Alooma Polytechnic, Geidam",polytechnic,federal,Unknown,Geidam,,accredited,,,,https://myschoolgist.com/ng/list-of-accredited-polytechnics-in-nigeria/,CC-BY-NC-SA
"Mai-Idris Alooma Polytechnic, Geidam",polytechnic,federal,Unknown,Geidam,,accredited,,,,https://myschoolgist.com/ng/list-of-accredited-polytechnics-in-nigeria/,CC-BY-NC-SA
"Marist Polytechnic, Emene",polytechnic,federal,Unknown,Emene,,accredited,,,,https://myschoolgist.com/ng/list-of-accredited-polytechnics-in-nigeria/,CC-BY-NC-SA
"Marist Polytechnic, Emene",polytechnic,federal,Unknown,Emene,,accredited,,,,https://myschoolgist.com/ng/list-of-accredited-polytechnics-in-nigeria/,CC-BY-NC-SA
"Marist Polytechnic, Emene",polytechnic,federal,Unknown,Emene,,accredited,,,,https://myschoolgist.com/ng/list-of-accredited-polytechnics-in-nigeria/,CC-BY-NC-SA
"Mater Dei Polytechnic, Egwuoba",polytechnic,federal,Unknown,Egwuoba,,accredited,,,,https://myschoolgist.com/ng/list-of-accredited-polytechnics-in-nigeria/,CC-BY-NC-SA
"Mater Dei Polytechnic, Egwuoba",polytechnic,federal,Unknown,Egwuoba,,accredited,,,,https://myschoolgist.com/ng/list-of-accredited-polytechnics-in-nigeria/,CC-BY-NC-SA
"Mater Dei Polytechnic, Egwuoba",polytechnic,federal,Unknown,Egwuoba,,accredited,,,,https://myschoolgist.com/ng/list-of-accredited-polytechnics-in-nigeria/,CC-BY-NC-SA
"Moshood Abiola Polytechnic, Abeokuta",polytechnic,federal,Unknown,Abeokuta,,accredited,,,,https://myschoolgist.com/ng/list-of-accredited-polytechnics-in-nigeria/,CC-BY-NC-SA
"Moshood Abiola Polytechnic, Abeokuta",polytechnic,federal,Unknown,Abeokuta,,accredited,,,,https://myschoolgist.com/ng/list-of-accredited-polytechnics-in-nigeria/,CC-BY-NC-SA
"Moshood Abiola Polytechnic, Abeokuta",polytechnic,federal,Unknown,Abeokuta,,accredited,,,,https://myschoolgist.com/ng/list-of-accredited-polytechnics-in-nigeria/,CC-BY-NC-SA
"NACABS Polytechnic, Akwanga",polytechnic,federal,Unknown,Akwanga,,accredited,,,,https://myschoolgist.com/ng/list-of-accredited-polytechnics-in-nigeria/,CC-BY-NC-SA
"NACABS Polytechnic, Akwanga",polytechnic,federal,Unknown,Akwanga,,accredited,,,,https://myschoolgist.com/ng/list-of-accredited-polytechnics-in-nigeria/,CC-BY-NC-SA
"NACABS Polytechnic, Akwanga",polytechnic,federal,Unknown,Akwanga,,accredited,,,,https://myschoolgist.com/ng/list-of-accredited-polytechnics-in-nigeria/,CC-BY-NC-SA
"National Institute of Construction Technology and Management, Uromi",polytechnic,federal,Unknown,Uromi,,accredited,,,,https://myschoolgist.com/ng/list-of-accredited-polytechnics-in-nigeria/,CC-BY-NC-SA
"National Institute of Construction Technology and Management, Uromi",polytechnic,federal,Unknown,Uromi,,accredited,,,,https://myschoolgist.com/ng/list-of-accredited-polytechnics-in-nigeria/,CC-BY-NC-SA
"National Institute of Construction Technology and Management, Uromi",polytechnic,federal,Unknown,Uromi,,accredited,,,,https://myschoolgist.com/ng/list-of-accredited-polytechnics-in-nigeria/,CC-BY-NC-SA
NBTE Approves 6 New Programmes for Osun College of Management Science (OSCOMS),polytechnic,federal,Osun,Unknown,,accredited,,,,https://myschoolgist.com/ng/list-of-accredited-polytechnics-in-nigeria/,CC-BY-NC-SA
"Newland Polytechnic, Ilorin",polytechnic,federal,Unknown,Ilorin,,accredited,,,,https://myschoolgist.com/ng/list-of-accredited-polytechnics-in-nigeria/,CC-BY-NC-SA
"Newland Polytechnic, Ilorin",polytechnic,federal,Unknown,Ilorin,,accredited,,,,https://myschoolgist.com/ng/list-of-accredited-polytechnics-in-nigeria/,CC-BY-NC-SA
"Newland Polytechnic, Ilorin",polytechnic,federal,Unknown,Ilorin,,accredited,,,,https://myschoolgist.com/ng/list-of-accredited-polytechnics-in-nigeria/,CC-BY-NC-SA
"Nigerian Army College of Environmental Science and Technology, Makurdi",polytechnic,federal,Niger,Makurdi,,accredited,,,,https://myschoolgist.com/ng/list-of-accredited-polytechnics-in-nigeria/,CC-BY-NC-SA
"Nigerian College of Aviation Technology, Zaria, Kaduna State",polytechnic,federal,Kaduna,Zaria,,accredited,,,,https://myschoolgist.com/ng/list-of-accredited-polytechnics-in-nigeria/,CC-BY-NC-SA
"Niger State Polytechnic, Zungeru",polytechnic,federal,Niger,Zungeru,,accredited,,,,https://myschoolgist.com/ng/list-of-accredited-polytechnics-in-nigeria/,CC-BY-NC-SA
"NOGAK Polytechnic, Ikom",polytechnic,federal,Unknown,Ikom,,accredited,,,,https://myschoolgist.com/ng/list-of-accredited-polytechnics-in-nigeria/,CC-BY-NC-SA
"NOGAK Polytechnic, Ikom",polytechnic,federal,Unknown,Ikom,,accredited,,,,https://myschoolgist.com/ng/list-of-accredited-polytechnics-in-nigeria/,CC-BY-NC-SA
"NOGAK Polytechnic, Ikom",polytechnic,federal,Unknown,Ikom,,accredited,,,,https://myschoolgist.com/ng/list-of-accredited-polytechnics-in-nigeria/,CC-BY-NC-SA
"Novelty Polytechnic, Kishi",polytechnic,federal,Unknown,Kishi,,accredited,,,,https://myschoolgist.com/ng/list-of-accredited-polytechnics-in-nigeria/,CC-BY-NC-SA
"Novelty Polytechnic, Kishi",polytechnic,federal,Unknown,Kishi,,accredited,,,,https://myschoolgist.com/ng/list-of-accredited-polytechnics-in-nigeria/,CC-BY-NC-SA
"Novelty Polytechnic, Kishi",polytechnic,federal,Unknown,Kishi,,accredited,,,,https://myschoolgist.com/ng/list-of-accredited-polytechnics-in-nigeria/,CC-BY-NC-SA
"Nuhu Bamalli Polytechnic, Zaria",polytechnic,federal,Unknown,Zaria,,accredited,,,,https://myschoolgist.com/ng/list-of-accredited-polytechnics-in-nigeria/,CC-BY-NC-SA
"Nuhu Bamalli Polytechnic, Zaria",polytechnic,federal,Unknown,Zaria,,accredited,,,,https://myschoolgist.com/ng/list-of-accredited-polytechnics-in-nigeria/,CC-BY-NC-SA
"Nuhu Bamalli Polytechnic, Zaria",polytechnic,federal,Unknown,Zaria,,accredited,,,,https://myschoolgist.com/ng/list-of-accredited-polytechnics-in-nigeria/,CC-BY-NC-SA
"Oduduwa Polytechnic, Idimu",polytechnic,federal,Unknown,Idimu,,accredited,,,,https://myschoolgist.com/ng/list-of-accredited-polytechnics-in-nigeria/,CC-BY-NC-SA
"Oduduwa Polytechnic, Idimu",polytechnic,federal,Unknown,Idimu,,accredited,,,,https://myschoolgist.com/ng/list-of-accredited-polytechnics-in-nigeria/,CC-BY-NC-SA
"Oduduwa Polytechnic, Idimu",polytechnic,federal,Unknown,Idimu,,accredited,,,,https://myschoolgist.com/ng/list-of-accredited-polytechnics-in-nigeria/,CC-BY-NC-SA
"Ogun State Institute of Technology, Igbesa",polytechnic,federal,Ogun,Igbesa,,accredited,,,,https://myschoolgist.com/ng/list-of-accredited-polytechnics-in-nigeria/,CC-BY-NC-SA
"Ogun State Polytechnic, Ipokia",polytechnic,federal,Ogun,Ipokia,,accredited,,,,https://myschoolgist.com/ng/list-of-accredited-polytechnics-in-nigeria/,CC-BY-NC-SA
"Osun State College of Technology, Esa-Oke",polytechnic,federal,Osun,Esa,,accredited,,,,https://myschoolgist.com/ng/list-of-accredited-polytechnics-in-nigeria/,CC-BY-NC-SA
"Osun State Polytechnic, Iree",polytechnic,federal,Osun,Iree,,accredited,,,,https://myschoolgist.com/ng/list-of-accredited-polytechnics-in-nigeria/,CC-BY-NC-SA
Osun State Polytechnic (OSPOLY) Sets Deadline for Payment of Acceptance Fee for 2025/2026 Newly Admitted Students,polytechnic,federal,Osun,Unknown,,accredited,,,,https://myschoolgist.com/ng/list-of-accredited-polytechnics-in-nigeria/,CC-BY-NC-SA
Others+Past Questions+WAEC Past QuestionsNABTEB Past QuestionsJAMB Past QuestionsJUPEB Past QuestionsPost UTME Past QuestionsNNPC Past QuestionsNYSC+NYSC NewsNYSC Senate ListNYSC Call-Up LetterNYSC RegistrationNYSC CampsPre-DegreePost UTMEAdmission ListPostgraduateTuition / School FeesNOUNCoursesJobs in Nigeria,polytechnic,federal,Niger,Nigeria,,accredited,,,,https://myschoolgist.com/ng/list-of-accredited-polytechnics-in-nigeria/,CC-BY-NC-SA
"Our Saviour Institute of Science, Agriculture & Technology, Enugu",polytechnic,federal,Enugu,Agriculture,,accredited,,,,https://myschoolgist.com/ng/list-of-accredited-polytechnics-in-nigeria/,CC-BY-NC-SA
"Oyo State College of Agriculture And Technology, Igbo-Ora",polytechnic,federal,Oyo,Igbo,,accredited,,,,https://myschoolgist.com/ng/list-of-accredited-polytechnics-in-nigeria/,CC-BY-NC-SA
"Paramount Polytechnic, Ejigbo",polytechnic,federal,Unknown,Ejigbo,,accredited,,,,https://myschoolgist.com/ng/list-of-accredited-polytechnics-in-nigeria/,CC-BY-NC-SA
"Paramount Polytechnic, Ejigbo",polytechnic,federal,Unknown,Ejigbo,,accredited,,,,https://myschoolgist.com/ng/list-of-accredited-polytechnics-in-nigeria/,CC-BY-NC-SA
"Paramount Polytechnic, Ejigbo",polytechnic,federal,Unknown,Ejigbo,,accredited,,,,https://myschoolgist.com/ng/list-of-accredited-polytechnics-in-nigeria/,CC-BY-NC-SA
"Petroleum Training Institute, Effurun Delta State",polytechnic,federal,Delta,Effurun Delta State,,accredited,,,,https://myschoolgist.com/ng/list-of-accredited-polytechnics-in-nigeria/,CC-BY-NC-SA
"Plateau State Polytechnic, Barkin-Ladi",polytechnic,federal,Plateau,Barkin,,accredited,,,,https://myschoolgist.com/ng/list-of-accredited-polytechnics-in-nigeria/,CC-BY-NC-SA
Polytechnics,polytechnic,federal,Unknown,Unknown,,accredited,,,,https://myschoolgist.com/ng/list-of-accredited-polytechnics-in-nigeria/,CC-BY-NC-SA
Polytechnics/Monotechnics+MonotechnicsPolytechnics,polytechnic,federal,Unknown,Unknown,,accredited,,,,https://myschoolgist.com/ng/list-of-accredited-polytechnics-in-nigeria/,CC-BY-NC-SA
"Port-Harcourt Polytechnic, Port-Harcourt",polytechnic,federal,Unknown,Port,,accredited,,,,https://myschoolgist.com/ng/list-of-accredited-polytechnics-in-nigeria/,CC-BY-NC-SA
"Port-Harcourt Polytechnic, Port-Harcourt",polytechnic,federal,Unknown,Port,,accredited,,,,https://myschoolgist.com/ng/list-of-accredited-polytechnics-in-nigeria/,CC-BY-NC-SA
"Port-Harcourt Polytechnic, Port-Harcourt",polytechnic,federal,Unknown,Port,,accredited,,,,https://myschoolgist.com/ng/list-of-accredited-polytechnics-in-nigeria/,CC-BY-NC-SA
"Prime Polytechnic, Jida Bassa, Ajaokuta",polytechnic,federal,Unknown,Jida Bassa,,accredited,,,,https://myschoolgist.com/ng/list-of-accredited-polytechnics-in-nigeria/,CC-BY-NC-SA
"Prime Polytechnic, Jida Bassa, Ajaokuta",polytechnic,federal,Unknown,Jida Bassa,,accredited,,,,https://myschoolgist.com/ng/list-of-accredited-polytechnics-in-nigeria/,CC-BY-NC-SA
"Prime Polytechnic, Jida Bassa, Ajaokuta",polytechnic,federal,Unknown,Jida Bassa,,accredited,,,,https://myschoolgist.com/ng/list-of-accredited-polytechnics-in-nigeria/,CC-BY-NC-SA
"Ramat Polytechnic, Maiduguri",polytechnic,federal,Unknown,Maiduguri,,accredited,,,,https://myschoolgist.com/ng/list-of-accredited-polytechnics-in-nigeria/,CC-BY-NC-SA
"Ramat Polytechnic, Maiduguri",polytechnic,federal,Unknown,Maiduguri,,accredited,,,,https://myschoolgist.com/ng/list-of-accredited-polytechnics-in-nigeria/,CC-BY-NC-SA
"Ramat Polytechnic, Maiduguri",polytechnic,federal,Unknown,Maiduguri,,accredited,,,,https://myschoolgist.com/ng/list-of-accredited-polytechnics-in-nigeria/,CC-BY-NC-SA
"Redeemers College of Technology And Management, Mowe",polytechnic,federal,Unknown,Mowe,,accredited,,,,https://myschoolgist.com/ng/list-of-accredited-polytechnics-in-nigeria/,CC-BY-NC-SA
"Redeemers College of Technology And Management, Mowe",polytechnic,federal,Unknown,Mowe,,accredited,,,,https://myschoolgist.com/ng/list-of-accredited-polytechnics-in-nigeria/,CC-BY-NC-SA
"Redeemers College of Technology And Management, Mowe",polytechnic,federal,Unknown,Mowe,,accredited,,,,https://myschoolgist.com/ng/list-of-accredited-polytechnics-in-nigeria/,CC-BY-NC-SA
"Ronik Polytechnic, Ejigbo, Ikeja",polytechnic,federal,Unknown,Ejigbo,,accredited,,,,https://myschoolgist.com/ng/list-of-accredited-polytechnics-in-nigeria/,CC-BY-NC-SA
"Ronik Polytechnic, Ejigbo, Ikeja",polytechnic,federal,Unknown,Ejigbo,,accredited,,,,https://myschoolgist.com/ng/list-of-accredited-polytechnics-in-nigeria/,CC-BY-NC-SA
"Ronik Polytechnic, Ejigbo, Ikeja",polytechnic,federal,Unknown,Ejigbo,,accredited,,,,https://myschoolgist.com/ng/list-of-accredited-polytechnics-in-nigeria/,CC-BY-NC-SA
"Rufus Giwa Polytechnic, Owo",polytechnic,federal,Unknown,Owo,,accredited,,,,https://myschoolgist.com/ng/list-of-accredited-polytechnics-in-nigeria/,CC-BY-NC-SA
"Rufus Giwa Polytechnic, Owo",polytechnic,federal,Unknown,Owo,,accredited,,,,https://myschoolgist.com/ng/list-of-accredited-polytechnics-in-nigeria/,CC-BY-NC-SA
"Rufus Giwa Polytechnic, Owo",polytechnic,federal,Unknown,Owo,,accredited,,,,https://myschoolgist.com/ng/list-of-accredited-polytechnics-in-nigeria/,CC-BY-NC-SA
"Saf Polytechnic, Iseyin",polytechnic,federal,Unknown,Iseyin,,accredited,,,,https://myschoolgist.com/ng/list-of-accredited-polytechnics-in-nigeria/,CC-BY-NC-SA
"Saf Polytechnic, Iseyin",polytechnic,federal,Unknown,Iseyin,,accredited,,,,https://myschoolgist.com/ng/list-of-accredited-polytechnics-in-nigeria/,CC-BY-NC-SA
"Saf Polytechnic, Iseyin",polytechnic,federal,Unknown,Iseyin,,accredited,,,,https://myschoolgist.com/ng/list-of-accredited-polytechnics-in-nigeria/,CC-BY-NC-SA
School of Health,polytechnic,federal,Unknown,Unknown,,accredited,,,,https://myschoolgist.com/ng/list-of-accredited-polytechnics-in-nigeria/,CC-BY-NC-SA
School of Nursing,polytechnic,federal,Unknown,Unknown,,accredited,,,,https://myschoolgist.com/ng/list-of-accredited-polytechnics-in-nigeria/,CC-BY-NC-SA
Schools+Universities+Universities in NigeriaFederal UniversitiesState UniversitiesPrivate UniversitiesIllegal Universities in NigeriaTop Universities in NigeriaPolytechnics/Monotechnics+MonotechnicsPolytechnicsColleges of EducationSchool of HealthSchool of Nursing,polytechnic,federal,Niger,NigeriaFederal UniversitiesState UniversitiesPrivate UniversitiesIllegal Universities in NigeriaTop Universities in NigeriaPolytechnics,,accredited,,,,https://myschoolgist.com/ng/list-of-accredited-polytechnics-in-nigeria/,CC-BY-NC-SA
Search the MySchoolGist site,polytechnic,federal,Unknown,Unknown,,accredited,,,,https://myschoolgist.com/ng/list-of-accredited-polytechnics-in-nigeria/,CC-BY-NC-SA
"Shaka Polytechnic, Benin City",polytechnic,federal,Unknown,City,,accredited,,,,https://myschoolgist.com/ng/list-of-accredited-polytechnics-in-nigeria/,CC-BY-NC-SA
"Shaka Polytechnic, Benin City",polytechnic,federal,Unknown,City,,accredited,,,,https://myschoolgist.com/ng/list-of-accredited-polytechnics-in-nigeria/,CC-BY-NC-SA
"Shaka Polytechnic, Benin City",polytechnic,federal,Unknown,City,,accredited,,,,https://myschoolgist.com/ng/list-of-accredited-polytechnics-in-nigeria/,CC-BY-NC-SA
"Southern Atlantic Polytechnic, Uyo",polytechnic,federal,Unknown,Uyo,,accredited,,,,https://myschoolgist.com/ng/list-of-accredited-polytechnics-in-nigeria/,CC-BY-NC-SA
"Southern Atlantic Polytechnic, Uyo",polytechnic,federal,Unknown,Uyo,,accredited,,,,https://myschoolgist.com/ng/list-of-accredited-polytechnics-in-nigeria/,CC-BY-NC-SA
"Southern Atlantic Polytechnic, Uyo",polytechnic,federal,Unknown,Uyo,,accredited,,,,https://myschoolgist.com/ng/list-of-accredited-polytechnics-in-nigeria/,CC-BY-NC-SA
"Speedway Polytechnic, Osoba",polytechnic,federal,Unknown,Osoba,,accredited,,,,https://myschoolgist.com/ng/list-of-accredited-polytechnics-in-nigeria/,CC-BY-NC-SA
"Speedway Polytechnic, Osoba",polytechnic,federal,Unknown,Osoba,,accredited,,,,https://myschoolgist.com/ng/list-of-accredited-polytechnics-in-nigeria/,CC-BY-NC-SA
"Speedway Polytechnic, Osoba",polytechnic,federal,Unknown,Osoba,,accredited,,,,https://myschoolgist.com/ng/list-of-accredited-polytechnics-in-nigeria/,CC-BY-NC-SA
"Stars Polytechnic, Ota",polytechnic,federal,Unknown,Ota,,accredited,,,,https://myschoolgist.com/ng/list-of-accredited-polytechnics-in-nigeria/,CC-BY-NC-SA
"Stars Polytechnic, Ota",polytechnic,federal,Unknown,Ota,,accredited,,,,https://myschoolgist.com/ng/list-of-accredited-polytechnics-in-nigeria/,CC-BY-NC-SA
"Stars Polytechnic, Ota",polytechnic,federal,Unknown,Ota,,accredited,,,,https://myschoolgist.com/ng/list-of-accredited-polytechnics-in-nigeria/,CC-BY-NC-SA
"St. Mary Polytechnic, Kwamba, Suleja",polytechnic,federal,Unknown,Kwamba,,accredited,,,,https://myschoolgist.com/ng/list-of-accredited-polytechnics-in-nigeria/,CC-BY-NC-SA
"St. Mary Polytechnic, Kwamba, Suleja",polytechnic,federal,Unknown,Kwamba,,accredited,,,,https://myschoolgist.com/ng/list-of-accredited-polytechnics-in-nigeria/,CC-BY-NC-SA
"St. Mary Polytechnic, Kwamba, Suleja",polytechnic,federal,Unknown,Kwamba,,accredited,,,,https://myschoolgist.com/ng/list-of-accredited-polytechnics-in-nigeria/,CC-BY-NC-SA
"Sure Foundation Polytechnic, Ikot-Akai",polytechnic,federal,Unknown,Ikot,,accredited,,,,https://myschoolgist.com/ng/list-of-accredited-polytechnics-in-nigeria/,CC-BY-NC-SA
"Sure Foundation Polytechnic, Ikot-Akai",polytechnic,federal,Unknown,Ikot,,accredited,,,,https://myschoolgist.com/ng/list-of-accredited-polytechnics-in-nigeria/,CC-BY-NC-SA
"Sure Foundation Polytechnic, Ikot-Akai",polytechnic,federal,Unknown,Ikot,,accredited,,,,https://myschoolgist.com/ng/list-of-accredited-polytechnics-in-nigeria/,CC-BY-NC-SA
"Taraba State Polytechnic, Suntai",polytechnic,federal,Taraba,Suntai,,accredited,,,,https://myschoolgist.com/ng/list-of-accredited-polytechnics-in-nigeria/,CC-BY-NC-SA
"Teedek Polytechnic, Ilogbo-Ekiti",polytechnic,federal,Ekiti,Ilogbo,,accredited,,,,https://myschoolgist.com/ng/list-of-accredited-polytechnics-in-nigeria/,CC-BY-NC-SA
"Temple Gate Polytechnic, Aba",polytechnic,federal,Unknown,Aba,,accredited,,,,https://myschoolgist.com/ng/list-of-accredited-polytechnics-in-nigeria/,CC-BY-NC-SA
"Temple Gate Polytechnic, Aba",polytechnic,federal,Unknown,Aba,,accredited,,,,https://myschoolgist.com/ng/list-of-accredited-polytechnics-in-nigeria/,CC-BY-NC-SA
"Temple Gate Polytechnic, Aba",polytechnic,federal,Unknown,Aba,,accredited,,,,https://myschoolgist.com/ng/list-of-accredited-polytechnics-in-nigeria/,CC-BY-NC-SA
"The Oke-Ogun Polytechnic, Saki (TOPS)",polytechnic,federal,Ogun,Saki,,accredited,,,,https://myschoolgist.com/ng/list-of-accredited-polytechnics-in-nigeria/,CC-BY-NC-SA
"The Polytechnic, Adoka",polytechnic,federal,Unknown,Adoka,,accredited,,,,https://myschoolgist.com/ng/list-of-accredited-polytechnics-in-nigeria/,CC-BY-NC-SA
"The Polytechnic, Adoka",polytechnic,federal,Unknown,Adoka,,accredited,,,,https://myschoolgist.com/ng/list-of-accredited-polytechnics-in-nigeria/,CC-BY-NC-SA
"The Polytechnic, Adoka",polytechnic,federal,Unknown,Adoka,,accredited,,,,https://myschoolgist.com/ng/list-of-accredited-polytechnics-in-nigeria/,CC-BY-NC-SA
The Polytechnic Aran-Orin,polytechnic,federal,Unknown,Unknown,,accredited,,,,https://myschoolgist.com/ng/list-of-accredited-polytechnics-in-nigeria/,CC-BY-NC-SA
The Polytechnic Aran-Orin,polytechnic,federal,Unknown,Unknown,,accredited,,,,https://myschoolgist.com/ng/list-of-accredited-polytechnics-in-nigeria/,CC-BY-NC-SA
The Polytechnic Aran-Orin,polytechnic,federal,Unknown,Unknown,,accredited,,,,https://myschoolgist.com/ng/list-of-accredited-polytechnics-in-nigeria/,CC-BY-NC-SA
"The Polytechnic, Ibadan",polytechnic,federal,Unknown,Ibadan,,accredited,,,,https://myschoolgist.com/ng/list-of-accredited-polytechnics-in-nigeria/,CC-BY-NC-SA
"The Polytechnic, Ibadan",polytechnic,federal,Unknown,Ibadan,,accredited,,,,https://myschoolgist.com/ng/list-of-accredited-polytechnics-in-nigeria/,CC-BY-NC-SA
"The Polytechnic, Ibadan",polytechnic,federal,Unknown,Ibadan,,accredited,,,,https://myschoolgist.com/ng/list-of-accredited-polytechnics-in-nigeria/,CC-BY-NC-SA
"The Polytechnic, Igbo-Owu",polytechnic,federal,Unknown,Igbo,,accredited,,,,https://myschoolgist.com/ng/list-of-accredited-polytechnics-in-nigeria/,CC-BY-NC-SA
"The Polytechnic, Igbo-Owu",polytechnic,federal,Unknown,Igbo,,accredited,,,,https://myschoolgist.com/ng/list-of-accredited-polytechnics-in-nigeria/,CC-BY-NC-SA
"The Polytechnic, Igbo-Owu",polytechnic,federal,Unknown,Igbo,,accredited,,,,https://myschoolgist.com/ng/list-of-accredited-polytechnics-in-nigeria/,CC-BY-NC-SA
"The Polytechnic, Ile-Ife",polytechnic,federal,Unknown,Ile,,accredited,,,,https://myschoolgist.com/ng/list-of-accredited-polytechnics-in-nigeria/,CC-BY-NC-SA
"The Polytechnic, Ile-Ife",polytechnic,federal,Unknown,Ile,,accredited,,,,https://myschoolgist.com/ng/list-of-accredited-polytechnics-in-nigeria/,CC-BY-NC-SA
"The Polytechnic, Ile-Ife",polytechnic,federal,Unknown,Ile,,accredited,,,,https://myschoolgist.com/ng/list-of-accredited-polytechnics-in-nigeria/,CC-BY-NC-SA
"The Polytechnic, Iresi",polytechnic,federal,Unknown,Iresi,,accredited,,,,https://myschoolgist.com/ng/list-of-accredited-polytechnics-in-nigeria/,CC-BY-NC-SA
"The Polytechnic, Iresi",polytechnic,federal,Unknown,Iresi,,accredited,,,,https://myschoolgist.com/ng/list-of-accredited-polytechnics-in-nigeria/,CC-BY-NC-SA
"The Polytechnic, Iresi",polytechnic,federal,Unknown,Iresi,,accredited,,,,https://myschoolgist.com/ng/list-of-accredited-polytechnics-in-nigeria/,CC-BY-NC-SA
"The Polytechnic, Omuo-Ekiti",polytechnic,federal,Ekiti,Omuo,,accredited,,,,https://myschoolgist.com/ng/list-of-accredited-polytechnics-in-nigeria/,CC-BY-NC-SA
"Timeon Kairos Polytechnic, Lagos",polytechnic,federal,Lagos,Unknown,,accredited,,,,https://myschoolgist.com/ng/list-of-accredited-polytechnics-in-nigeria/,CC-BY-NC-SA
"Tower Polytechnic, Ibadan",polytechnic,federal,Unknown,Ibadan,,accredited,,,,https://myschoolgist.com/ng/list-of-accredited-polytechnics-in-nigeria/,CC-BY-NC-SA
"Tower Polytechnic, Ibadan",polytechnic,federal,Unknown,Ibadan,,accredited,,,,https://myschoolgist.com/ng/list-of-accredited-polytechnics-in-nigeria/,CC-BY-NC-SA
"Tower Polytechnic, Ibadan",polytechnic,federal,Unknown,Ibadan,,accredited,,,,https://myschoolgist.com/ng/list-of-accredited-polytechnics-in-nigeria/,CC-BY-NC-SA
"Trinity Polytechnic, Uyo",polytechnic,federal,Unknown,Uyo,,accredited,,,,https://myschoolgist.com/ng/list-of-accredited-polytechnics-in-nigeria/,CC-BY-NC-SA
"Trinity Polytechnic, Uyo",polytechnic,federal,Unknown,Uyo,,accredited,,,,https://myschoolgist.com/ng/list-of-accredited-polytechnics-in-nigeria/,CC-BY-NC-SA
"Trinity Polytechnic, Uyo",polytechnic,federal,Unknown,Uyo,,accredited,,,,https://myschoolgist.com/ng/list-of-accredited-polytechnics-in-nigeria/,CC-BY-NC-SA
Tuition / School Fees,polytechnic,federal,Unknown,Unknown,,accredited,,,,https://myschoolgist.com/ng/list-of-accredited-polytechnics-in-nigeria/,CC-BY-NC-SA
"Ultra Excellence Polytechnic, Uyo",polytechnic,federal,Unknown,Uyo,,accredited,,,,https://myschoolgist.com/ng/list-of-accredited-polytechnics-in-nigeria/,CC-BY-NC-SA
"Ultra Excellence Polytechnic, Uyo",polytechnic,federal,Unknown,Uyo,,accredited,,,,https://myschoolgist.com/ng/list-of-accredited-polytechnics-in-nigeria/,CC-BY-NC-SA
"Ultra Excellence Polytechnic, Uyo",polytechnic,federal,Unknown,Uyo,,accredited,,,,https://myschoolgist.com/ng/list-of-accredited-polytechnics-in-nigeria/,CC-BY-NC-SA
"Umaru Ali Shinkafi Polytechnic, Sokoto",polytechnic,federal,Sokoto,Unknown,,accredited,,,,https://myschoolgist.com/ng/list-of-accredited-polytechnics-in-nigeria/,CC-BY-NC-SA
"Uma Ukpai Polytechnic, Ohafia",polytechnic,federal,Unknown,Ohafia,,accredited,,,,https://myschoolgist.com/ng/list-of-accredited-polytechnics-in-nigeria/,CC-BY-NC-SA
"Uma Ukpai Polytechnic, Ohafia",polytechnic,federal,Unknown,Ohafia,,accredited,,,,https://myschoolgist.com/ng/list-of-accredited-polytechnics-in-nigeria/,CC-BY-NC-SA
"Uma Ukpai Polytechnic, Ohafia",polytechnic,federal,Unknown,Ohafia,,accredited,,,,https://myschoolgist.com/ng/list-of-accredited-polytechnics-in-nigeria/,CC-BY-NC-SA
"United Polytechnic, Jos",polytechnic,federal,Unknown,Jos,,accredited,,,,https://myschoolgist.com/ng/list-of-accredited-polytechnics-in-nigeria/,CC-BY-NC-SA
"United Polytechnic, Jos",polytechnic,federal,Unknown,Jos,,accredited,,,,https://myschoolgist.com/ng/list-of-accredited-polytechnics-in-nigeria/,CC-BY-NC-SA
"United Polytechnic, Jos",polytechnic,federal,Unknown,Jos,,accredited,,,,https://myschoolgist.com/ng/list-of-accredited-polytechnics-in-nigeria/,CC-BY-NC-SA
"Uyo City Polytechnic, Uyo",polytechnic,federal,Unknown,Uyo,,accredited,,,,https://myschoolgist.com/ng/list-of-accredited-polytechnics-in-nigeria/,CC-BY-NC-SA
"Uyo City Polytechnic, Uyo",polytechnic,federal,Unknown,Uyo,,accredited,,,,https://myschoolgist.com/ng/list-of-accredited-polytechnics-in-nigeria/,CC-BY-NC-SA
"Uyo City Polytechnic, Uyo",polytechnic,federal,Unknown,Uyo,,accredited,,,,https://myschoolgist.com/ng/list-of-accredited-polytechnics-in-nigeria/,CC-BY-NC-SA
"Valley View Polytechnic, Ohafia",polytechnic,federal,Unknown,Ohafia,,accredited,,,,https://myschoolgist.com/ng/list-of-accredited-polytechnics-in-nigeria/,CC-BY-NC-SA
"Valley View Polytechnic, Ohafia",polytechnic,federal,Unknown,Ohafia,,accredited,,,,https://myschoolgist.com/ng/list-of-accredited-polytechnics-in-nigeria/,CC-BY-NC-SA
"Valley View Polytechnic, Ohafia",polytechnic,federal,Unknown,Ohafia,,accredited,,,,https://myschoolgist.com/ng/list-of-accredited-polytechnics-in-nigeria/,CC-BY-NC-SA
"Villanova Polytechnic, Imesi-lle",polytechnic,federal,Unknown,Imesi,,accredited,,,,https://myschoolgist.com/ng/list-of-accredited-polytechnics-in-nigeria/,CC-BY-NC-SA
"Villanova Polytechnic, Imesi-lle",polytechnic,federal,Unknown,Imesi,,accredited,,,,https://myschoolgist.com/ng/list-of-accredited-polytechnics-in-nigeria/,CC-BY-NC-SA
"Villanova Polytechnic, Imesi-lle",polytechnic,federal,Unknown,Imesi,,accredited,,,,https://myschoolgist.com/ng/list-of-accredited-polytechnics-in-nigeria/,CC-BY-NC-SA
"Waziri Umaru Federal Polytechnic, Birnin-Kebbi",polytechnic,federal,Kebbi,Birnin,,accredited,,,,https://myschoolgist.com/ng/list-of-accredited-polytechnics-in-nigeria/,CC-BY-NC-SA
"Westland Polytechnic, Ilobu, Osun",polytechnic,federal,Osun,Ilobu,,accredited,,,,https://myschoolgist.com/ng/list-of-accredited-polytechnics-in-nigeria/,CC-BY-NC-SA
"Wolex Polytechnic, Iwo, Osun State",polytechnic,federal,Osun,Iwo,,accredited,,,,https://myschoolgist.com/ng/list-of-accredited-polytechnics-in-nigeria/,CC-BY-NC-SA
Yaba College of Technology,polytechnic,federal,Lagos,Lagos,https://yabatech.edu.ng,Accredited,info@yabatech.edu.ng,,,https://nuc.edu.ng,
"Yaba College of Technology, Yaba",polytechnic,federal,Unknown,Yaba,,accredited,,,,https://myschoolgist.com/ng/list-of-accredited-polytechnics-in-nigeria/,CC-BY-NC-SA
"Yaba College of Technology, Yaba",polytechnic,federal,Unknown,Yaba,,accredited,,,,https://myschoolgist.com/ng/list-of-accredited-polytechnics-in-nigeria/,CC-BY-NC-SA
"Yaba College of Technology, Yaba",polytechnic,federal,Unknown,Yaba,,accredited,,,,https://myschoolgist.com/ng/list-of-accredited-polytechnics-in-nigeria/,CC-BY-NC-SA
"Abdullahi Maikano College of Education, Wase",college,private,Plateau,Wase,,accredited,,,,https://ncce.gov.ng/AccreditedColleges,NCCE Official Data
"Abubakar Garba Zagada- Zagada College of Education, Bajoga",college,private,Gombe,Bajoga,,accredited,,,,https://ncce.gov.ng/AccreditedColleges,NCCE Official Data
Abubakar Tatari Polytechnic,college,state,Bauchi,Unknown,,accredited,rector@atapolybauci.com,,Provost: Dr. Suleiman Mohammed Lame,https://ncce.gov.ng/AccreditedColleges,NCCE Official Data
"Adamu Augie College of Education, Argungu",college,state,Kebbi,Argungu,,accredited,,,Provost: Aliyu Mohammed B/Kebbi,https://ncce.gov.ng/AccreditedColleges,NCCE Official Data
"Adamu Garkuwa COE, Toro",college,private,Bauchi,Toro,,accredited,,,,https://ncce.gov.ng/AccreditedColleges,NCCE Official Data
"Adamu Tafawa Balewa COE, Kangere",college,state,Bauchi,Kangere,https://none.edu.ng,accredited,,,Provost: Adamu Magaji Yanbuga,https://ncce.gov.ng/AccreditedColleges,NCCE Official Data
"Adekunle Ajasin University, Akungba",college,federal,Unknown,University,,accredited,,,,https://myschoolgist.com/ng/list-of-accredited-colleges-of-education-in-nigeria/,CC-BY-NC-SA
"Adesina College of Education, Share, Kwara State",college,private,Kwara,Kwara State,,accredited,,,Provost: Aremu Mufutau Olawale,https://ncce.gov.ng/AccreditedColleges,NCCE Official Data
"Adigrace COE, Byepyi",college,private,Taraba,Byepyi,,accredited,,,,https://ncce.gov.ng/AccreditedColleges,NCCE Official Data
A.D. Rufa’i College for Islamic and Legal Studies,college,state,Bauchi,Unknown,,accredited,,,,https://ncce.gov.ng/AccreditedColleges,NCCE Official Data
"African Church College of Education, Ifako Ijaye",college,private,Lagos,Ifako Ijaye,https://SomethingEdu.ng,accredited,,,Provost: Dr. Provost,https://ncce.gov.ng/AccreditedColleges,NCCE Official Data
"African Thinkers Community of Inquiry COE, Enugu",college,private,Enugu,Enugu,https://www.atcoicoe.edu.ng,accredited,,,Provost: Obozuhuike Ofoelue,https://ncce.gov.ng/AccreditedColleges,NCCE Official Data
"Ahlus-Suffah COE, Ira",college,private,Kaduna,Ira,,accredited,,,,https://ncce.gov.ng/AccreditedColleges,NCCE Official Data
"Ajetumobi COE, Ira",college,private,Kwara,Ira,,accredited,,,,https://ncce.gov.ng/AccreditedColleges,NCCE Official Data
"Akwa Ibom State College of Education, Afahansit",college,state,Akwa Ibom,Afahansit,,accredited,,,Provost: Prof. Mathew A. Ekpo,https://ncce.gov.ng/AccreditedColleges,NCCE Official Data
"Al-fajr College of Education, Kano",college,private,Kano,Kano,,accredited,,,Provost: Muhammad Miftau Umar,https://ncce.gov.ng/AccreditedColleges,NCCE Official Data
"AL HIKMA COLLEGE OF EDUCATION, ANKPA",college,private,Kogi,ANKPA,,accredited,,,Provost: Dr. Mohammed Abdulkarim,https://ncce.gov.ng/AccreditedColleges,NCCE Official Data
Al-Ibadan COE,college,private,Ibadan,Unknown,,accredited,,,,https://ncce.gov.ng/AccreditedColleges,NCCE Official Data
"Aliko Dangote university of Science & Technology, Wudil",college,federal,Unknown,Wudil,,accredited,,,,https://myschoolgist.com/ng/list-of-accredited-colleges-of-education-in-nigeria/,CC-BY-NC-SA
Al-Iman College of Education,college,private,Plateau,Unknown,,accredited,,,,https://ncce.gov.ng/AccreditedColleges,NCCE Official Data
Al-Madinah COE Oshogbo,college,private,Osun,Unknown,,accredited,,,,https://ncce.gov.ng/AccreditedColleges,NCCE Official Data
"Al-Mustafa College of Education, Kano",college,private,Kano,Kano,https://mcekano.edu.ng,accredited,,,Provost: NOT AVAILABLE,https://ncce.gov.ng/AccreditedColleges,NCCE Official Data
Al-Ummah COE (UMCOED),college,private,Osun,Unknown,,accredited,,,,https://ncce.gov.ng/AccreditedColleges,NCCE Official Data
"Ambrose Alli University, Ekpoma",college,federal,Unknown,Ekpoma,https://www.aaue.com,accredited,,,,https://myschoolgist.com/ng/list-of-accredited-colleges-of-education-in-nigeria/,CC-BY-NC-SA
Ameenuddeen College of Education,college,private,Kano,Unknown,https://SomethingEdu.ng,accredited,,,Provost: Dr. Provost,https://ncce.gov.ng/AccreditedColleges,NCCE Official Data
"Ameer Shehu Idris College of Advanced Studies, Zaria",college,private,Kaduna,Zaria,,accredited,,,,https://ncce.gov.ng/AccreditedColleges,NCCE Official Data
Aminu Kano College of Education,college,private,Kano,Unknown,,accredited,,,,https://ncce.gov.ng/AccreditedColleges,NCCE Official Data
Aminu Kano College of Islamic and Legal Studies,college,state,Kano,Unknown,,accredited,,,,https://ncce.gov.ng/AccreditedColleges,NCCE Official Data
"Aminu Sale College of Education, Azare",college,state,Bauchi,Azare,,accredited,,,Provost: Dr. Abdullahi Mohammed Isyaku,https://ncce.gov.ng/AccreditedColleges,NCCE Official Data
Angel Crown COE,college,private,FCT Abuja,Unknown,,accredited,,,Provost: Barr. Samuel Osahon,https://ncce.gov.ng/AccreditedColleges,NCCE Official Data
Annur College of Education Kano,college,private,Kano,Unknown,,accredited,,,,https://ncce.gov.ng/AccreditedColleges,NCCE Official Data
"Ansar-Ud-Deen College of Education, Isolo",college,private,Lagos,Isolo,,accredited,,,"Provost: Alh. M.S. Idris (Diploma, B.A., M.A., PGDE)",https://ncce.gov.ng/AccreditedColleges,NCCE Official Data
"Apa COE, Aido",college,private,Benue,Aido,,accredited,,,Provost: Dr.,https://ncce.gov.ng/AccreditedColleges,NCCE Official Data
"Archbishop Alexander Ibezim COE, Anambra",college,private,Anambra,Anambra,https://none.edu.ng,accredited,,,Provost: not available,https://ncce.gov.ng/AccreditedColleges,NCCE Official Data
"Assanusiya COE, Odeomu, Osun",college,private,Osun,Osun,,accredited,,,Provost: Mr. Akinloye I. K.,https://ncce.gov.ng/AccreditedColleges,NCCE Official Data
Awori District COE,college,private,Ogun,Unknown,,accredited,,,Provost: Pst. Idowu Isaac Aboiye,https://ncce.gov.ng/AccreditedColleges,NCCE Official Data
Bauchi Institute for Arabic and Islamic Studies,college,state,Bauchi,Unknown,,accredited,,,,https://ncce.gov.ng/AccreditedColleges,NCCE Official Data
"Bayo Tijani COE, Lagos",college,private,Lagos,Lagos,,accredited,,,Provost: Mrs Amaechi Matilda,https://ncce.gov.ng/AccreditedColleges,NCCE Official Data
"Benjamin Uwajumogu (State) College of Education, Ihitte Uboma",college,state,Imo,Ihitte Uboma,https://imsced.edu.ng,accredited,,,Provost: Nwachukwu Chinyere Maryrose,https://ncce.gov.ng/AccreditedColleges,NCCE Official Data
Best Legacy COE Ogbomoso,college,private,Oyo,Unknown,,accredited,,,Provost: Dr.,https://ncce.gov.ng/AccreditedColleges,NCCE Official Data
"BETHEL COE IJARE, ONDO",college,private,Ondo,ONDO,,accredited,,,Provost: professor,https://ncce.gov.ng/AccreditedColleges,NCCE Official Data
Biga College of Education,college,private,Sokoto,Unknown,,accredited,,,Provost: Dr.,https://ncce.gov.ng/AccreditedColleges,NCCE Official Data
Bogoro College of Education,college,private,Bauchi,Unknown,,accredited,,,,https://ncce.gov.ng/AccreditedColleges,NCCE Official Data
"Bornu State University, Maiduguri",college,federal,Unknown,Maiduguri,,accredited,,,,https://myschoolgist.com/ng/list-of-accredited-colleges-of-education-in-nigeria/,CC-BY-NC-SA
Calvin Foundation COE,college,private,Benue,Unknown,,accredited,,,Provost: Mr. Ekani Otikwu Elias,https://ncce.gov.ng/AccreditedColleges,NCCE Official Data
Christian Chukwuma Onoh COE,college,private,Enugu,Unknown,,accredited,,,,https://ncce.gov.ng/AccreditedColleges,NCCE Official Data
"Christian College of Education, Gombe",college,private,Gombe,Gombe,,accredited,,,,https://ncce.gov.ng/AccreditedColleges,NCCE Official Data
"Chukwuemeka Odumegwu Ojukwu University, Uli",college,federal,Unknown,Uli,,accredited,,,,https://myschoolgist.com/ng/list-of-accredited-colleges-of-education-in-nigeria/,CC-BY-NC-SA
"City College of Education, Mararaba",college,private,FCT Abuja,Mararaba,,accredited,,,Provost: Dr Ogiera A.E,https://ncce.gov.ng/AccreditedColleges,NCCE Official Data
"Climax College of Education, Bauchi",college,private,Bauchi,Bauchi,,accredited,,,Provost: Dr. Yunusa Abubakarr,https://ncce.gov.ng/AccreditedColleges,NCCE Official Data
COASTLINE COLLEGE OF EDUCATION,college,private,Ondo,Unknown,https://coastlinecollege.edu.ng,accredited,,,Provost: Dr. Provost,https://ncce.gov.ng/AccreditedColleges,NCCE Official Data
"COE, Ero, Akure",college,private,Ondo,Akure,,accredited,,,Provost: Dr. J. O. Adamolekun,https://ncce.gov.ng/AccreditedColleges,NCCE Official Data
"COE, Moro, Ife-North",college,private,Osun,Ife-North,,accredited,,,Provost: Prof. A. Adediji,https://ncce.gov.ng/AccreditedColleges,NCCE Official Data
College of Education Akwanga,college,state,Nasarawa,Unknown,https://coeakwanga.edu.ng,accredited,,,Provost: Dr. Danladi Ibrahim,https://ncce.gov.ng/AccreditedColleges,NCCE Official Data
"College of Education and Legal, Nguru",college,state,Yobe,Nguru,https://none.edu.ng,accredited,,,Provost: Dr. Abba Idris Adam,https://ncce.gov.ng/AccreditedColleges,NCCE Official Data
"College of Education, Arochukwu, Abia",college,state,Abia,Abia,,accredited,,,Provost: Dr. Philips O. Nto,https://ncce.gov.ng/AccreditedColleges,NCCE Official Data
"College of Education, Billiri",college,state,Gombe,Billiri,,accredited,,,Provost: Dr Esrom Toro Jokthan,https://ncce.gov.ng/AccreditedColleges,NCCE Official Data
"College of Education, Darazo",college,private,Bauchi,Darazo,,accredited,,,,https://ncce.gov.ng/AccreditedColleges,NCCE Official Data
"College of Education, Dutsen Tanshi",college,private,Bauchi,Dutsen Tanshi,https://SomethingEdu.ng,accredited,,,Provost: Dr. Provost,https://ncce.gov.ng/AccreditedColleges,NCCE Official Data
"College of Education, Gindiri",college,state,Plateau,Gindiri,https://coeg.edu.ng,accredited,,,Provost: Prof. Lazarus Maigoro,https://ncce.gov.ng/AccreditedColleges,NCCE Official Data
"College of Education, Hong",college,state,Yola,Hong,,accredited,,,Provost: Prof. Johnson H. Pongri,https://ncce.gov.ng/AccreditedColleges,NCCE Official Data
"College of Education, Ikere-Ekiti",college,state,Ekiti,Ikere-Ekiti,https://www.coeikere.edu.ng,accredited,,,Provost: Dr. (Mrs.) Mojisola Adenike Oyarekua,https://ncce.gov.ng/AccreditedColleges,NCCE Official Data
"College of Education, Ila-Orangun, Osun State",college,state,Osun,Osun State,https://oscoedilesa.edu.ng,accredited,,,Provost: Dr. Lasisi Ayanda Jimoh,https://ncce.gov.ng/AccreditedColleges,NCCE Official Data
College of Education Ilemona,college,state,Kwara,Unknown,,accredited,,,,https://ncce.gov.ng/AccreditedColleges,NCCE Official Data
"College of Education, katsina-Ala",college,state,Benue,katsina-Ala,,accredited,,,Provost: J.O Kor,https://ncce.gov.ng/AccreditedColleges,NCCE Official Data
College of Education Kura,college,private,Kano,Unknown,,accredited,,,,https://ncce.gov.ng/AccreditedColleges,NCCE Official Data
College of Education llorin,college,state,Kwara,Unknown,https://none.edu.ng,accredited,,,Provost: Not Available,https://ncce.gov.ng/AccreditedColleges,NCCE Official Data
College of Education Oju,college,state,Benue,Unknown,,accredited,,,Provost: Chief (Amb) Godwin Egene Oga,https://ncce.gov.ng/AccreditedColleges,NCCE Official Data
College of Education Oro,college,state,Kwara,Unknown,,accredited,,,Provost: Dr. O. A. Olowonirejuaro,https://ncce.gov.ng/AccreditedColleges,NCCE Official Data
"College of Education (Technical), Dass",college,state,Bauchi,Dass,https://none.edu.ng,accredited,,,Provost: Dr. Mohammed Alkali.,https://ncce.gov.ng/AccreditedColleges,NCCE Official Data
"College of Education, Waka BIU",college,state,Borno,Waka BIU,,accredited,,,Provost: Usman Mustapha Biu,https://ncce.gov.ng/AccreditedColleges,NCCE Official Data
"College of Education, Warri",college,state,Delta,Warri,https://www.coewarri.edu.ng,accredited,,,Provost: Prof. (Mrs.) Mary Olire Edema,https://ncce.gov.ng/AccreditedColleges,NCCE Official Data
"College of Education, Zing",college,state,Taraba,Zing,,accredited,,,Provost: Dr. Mike Dio Jen,https://ncce.gov.ng/AccreditedColleges,NCCE Official Data
"Community COE, Kano",college,private,Kano,Kano,https://fcekano.edu.ng,accredited,,,Provost: Dr. Sadi Mohammed Sirajo,https://ncce.gov.ng/AccreditedColleges,NCCE Official Data
"Corner Stone College of Education, Ikeja",college,private,Lagos,Ikeja,,accredited,,,,https://ncce.gov.ng/AccreditedColleges,NCCE Official Data
Corona COE Lekki,college,private,Lagos,Unknown,,accredited,,,Provost: Dr. Olajumoke Mekiliuwa,https://ncce.gov.ng/AccreditedColleges,NCCE Official Data
Covenant College of Education (CCOE),college,private,Abia,Unknown,,accredited,,,Provost: Not Available,https://ncce.gov.ng/AccreditedColleges,NCCE Official Data
"Crescent Pearls Technical College of Education, Abuja",college,private,FCT Abuja,Abuja,https://nodomain.edu.ng,accredited,,,Provost: Dr. Abiola Owodunni,https://ncce.gov.ng/AccreditedColleges,NCCE Official Data
CRESTFIELD COLLEGE OF EDUCATION,college,private,Osun,Unknown,,accredited,,,Provost: Not Available,https://ncce.gov.ng/AccreditedColleges,NCCE Official Data
"Cross River State Coll. of Education, Akampa",college,state,Cross River,Akampa,,accredited,,,Provost: Dr. James Etimn Archibong,https://ncce.gov.ng/AccreditedColleges,NCCE Official Data
"Dala College of Education, Kano",college,private,Kano,Kano,,accredited,,,,https://ncce.gov.ng/AccreditedColleges,NCCE Official Data
"Danyaya College of Education, Ningi",college,private,Bauchi,Ningi,,accredited,,,,https://ncce.gov.ng/AccreditedColleges,NCCE Official Data
Delar College of Education,college,private,Oyo,Unknown,,accredited,,,Provost: Professor M.A.P. Fakoride,https://ncce.gov.ng/AccreditedColleges,NCCE Official Data
"Delta State College of Education, Mosogar",college,state,Delta,Mosogar,https://nodomain.edu.ng,accredited,,,Provost: Dr. Samuel Ogheneovo Ugboduma,https://ncce.gov.ng/AccreditedColleges,NCCE Official Data
"Dennis Osadebe University, Asaba",college,federal,Unknown,Asaba,,accredited,,,,https://myschoolgist.com/ng/list-of-accredited-colleges-of-education-in-nigeria/,CC-BY-NC-SA
"DIAMOND COLLEGE OF EDUCATION, ABA",college,private,Abia,ABA,https://www.dce.edu.ng,accredited,,,"Provost: Sir Peter Osuagwu, PHD",https://ncce.gov.ng/AccreditedColleges,NCCE Official Data
"Doviana COE, Gboko",college,private,Benue,Gboko,,accredited,,,,https://ncce.gov.ng/AccreditedColleges,NCCE Official Data
Ebenezer College of Education Amangwu,college,private,Ebonyi,Unknown,,accredited,,,,https://ncce.gov.ng/AccreditedColleges,NCCE Official Data
"Ebonyi State College of Education, (T) Ikwo",college,state,Ebonyi,(T) Ikwo,,accredited,,,Provost: Prof. S.O. Omebe,https://ncce.gov.ng/AccreditedColleges,NCCE Official Data
"ECWA COE, Bayara",college,private,Bauchi,Bayara,,accredited,,,,https://ncce.gov.ng/AccreditedColleges,NCCE Official Data
ECWA COE Igbaja,college,private,Kwara,Unknown,,accredited,,,Provost: Ass. Prof S.O.T Baba,https://ncce.gov.ng/AccreditedColleges,NCCE Official Data
"ECWA College of Education, Jos (ECOEJ)",college,private,Plateau,Jos (ECOEJ),https://www.jets.edu.ng,accredited,,,Provost: Prof. Randee O. Ijatuyi-Morphe,https://ncce.gov.ng/AccreditedColleges,NCCE Official Data
Edexcel College of Education,college,private,Benue,Unknown,https://SomethingEdu.ng,accredited,,,Provost: Dr. Provost,https://ncce.gov.ng/AccreditedColleges,NCCE Official Data
"Edo State College of Education, Igueben",college,state,Edo,Igueben,,accredited,,,Provost: Professor (Mrs) Roseline O. Osagie,https://ncce.gov.ng/AccreditedColleges,NCCE Official Data
"Elder Oyama Memorial COE, Ofat",college,private,Cross River,Ofat,,accredited,,,Provost: Dr.,https://ncce.gov.ng/AccreditedColleges,NCCE Official Data
Elibest College of Education,college,private,Ondo,Unknown,,accredited,,,Provost: Dr. Oloruntuyi Ayodeji,https://ncce.gov.ng/AccreditedColleges,NCCE Official Data
Elizabeth Memorial College of Education Nsukka,college,private,Enugu,Unknown,,accredited,,,,https://ncce.gov.ng/AccreditedColleges,NCCE Official Data
Emamor College of Education,college,private,Rivers,Unknown,,accredited,,,Provost: Dr. Godspower Igenewari,https://ncce.gov.ng/AccreditedColleges,NCCE Official Data
Emirate College of Education,college,private,Bauchi,Unknown,https://SomethingEdu.ng,accredited,,,Provost: Dr. Provost,https://ncce.gov.ng/AccreditedColleges,NCCE Official Data
Emmanuel Ebije Ikwue College Of Education,college,private,Benue,Unknown,https://SomethingEdu.ng,accredited,,,Provost: Dr. Provost,https://ncce.gov.ng/AccreditedColleges,NCCE Official Data
"Enugu State Coll. of Education (T), Enugu",college,state,Enugu,Enugu,,accredited,,,Provost: Dr. Mrs. Stella C. Ekwueme,https://ncce.gov.ng/AccreditedColleges,NCCE Official Data
"FCT College of Education, Zuba",college,state,FCT Abuja,Zuba,,accredited,,,Provost: Dr. Muhammad Gambo Hamza,https://ncce.gov.ng/AccreditedColleges,NCCE Official Data
"Federal College of Education, Abeokuta",college,federal,Ogun,Abeokuta,https://www.fce.abeokuta.edu.ng,accredited,,,Provost: Dr. Ayodele A. Ajayi,https://ncce.gov.ng/AccreditedColleges,NCCE Official Data
Federal College of Education Bauchi,college,state,Bauchi,Unknown,,accredited,,,Provost: Prof. A.I Mohammed,https://ncce.gov.ng/AccreditedColleges,NCCE Official Data
Federal College of Education Edo,college,federal,Edo,Unknown,,accredited,,,Provost: Dr. Emmanuel Asagha,https://ncce.gov.ng/AccreditedColleges,NCCE Official Data
"Federal College of Education, Eha-Amufu",college,federal,Enugu,Eha-Amufu,,accredited,,,Provost: Dr. Pauline N. Ikuegbu,https://ncce.gov.ng/AccreditedColleges,NCCE Official Data
Federal College of Education (FCE) Gwoza,college,federal,Borno,Unknown,https://nodomain.edu.ng,accredited,,,Provost: Dr. Ibrahim Mohammed Mbitsa,https://ncce.gov.ng/AccreditedColleges,NCCE Official Data
"Federal College of Education, Ididep",college,federal,Akwa Ibom,Ididep,https://www.none.com,accredited,,,Provost: Dr. Edem Archibong Ntuk,https://ncce.gov.ng/AccreditedColleges,NCCE Official Data
Federal College of Education Ilawe-Ekiti,college,federal,Ekiti,Unknown,https://none.edu.ng,accredited,,,Provost: Dr. Ajigbade Ikuejube,https://ncce.gov.ng/AccreditedColleges,NCCE Official Data
"Federal College of Education, Katsina",college,federal,Katsina,Katsina,,accredited,,,Provost: Dr. Aliyu Idris Futua,https://ncce.gov.ng/AccreditedColleges,NCCE Official Data
"Federal College of Education, Obudu",college,state,Cross River,Obudu,https://www.fceobudu.edu.ng,accredited,,,Provost: Dr. James Bassey Ejue,https://ncce.gov.ng/AccreditedColleges,NCCE Official Data
"Federal College of Education, Odugbo, Benue State",college,state,Benue,Benue State,,accredited,,,Provost: Prof. Joel Obo Eriba,https://ncce.gov.ng/AccreditedColleges,NCCE Official Data
Federal College of Education Ofeme-Ohuhu,college,federal,Abia,Unknown,https://nodomain.edu.ng,accredited,,,Provost: Dr Titus Ezeme,https://ncce.gov.ng/AccreditedColleges,NCCE Official Data
"Federal College of Education, Okene",college,state,Kogi,Okene,https://www.fceokene.edu.ng,accredited,,,Provost: Dr. Umar Hassan,https://ncce.gov.ng/AccreditedColleges,NCCE Official Data
Federal College of Education Osun,college,federal,Osun,Unknown,https://www.fceiwo.edu.ng,accredited,,,Provost: Prof. Rafiu I. Adebayo,https://ncce.gov.ng/AccreditedColleges,NCCE Official Data
Federal College of Education Sokoto,college,federal,Sokoto,Unknown,,accredited,,,Provost: Prof. Faruk Umar Zaki,https://ncce.gov.ng/AccreditedColleges,NCCE Official Data
"Federal College of Education (Special), Oyo",college,state,Oyo,Oyo,https://www.fceoyo.edu.ng,accredited,,,"Provost: Prof. Usman, Kamoru Olayiwola",https://ncce.gov.ng/AccreditedColleges,NCCE Official Data
"Federal College of Education (Technical), Akoka",college,state,Lagos,Akoka,,accredited,,,Provost: Dr. Sijibomi O. Olusanya,https://ncce.gov.ng/AccreditedColleges,NCCE Official Data
"Federal College of Education (Technical), Asaba",college,federal,Delta,Asaba,,accredited,,,Provost: Dr. Mrs. Anene Akeakwa,https://ncce.gov.ng/AccreditedColleges,NCCE Official Data
"Federal College of Education (Technical), Bichi",college,federal,Kano,Bichi,https://www.fcetbichi.edu.ng,accredited,,,Provost: Dr Bashir Sabo Abubakar,https://ncce.gov.ng/AccreditedColleges,NCCE Official Data
"Federal College of Education (Technical), Gombe",college,federal,Gombe,Gombe,,accredited,,,Provost: Dr. Ali Adamu,https://ncce.gov.ng/AccreditedColleges,NCCE Official Data
"Federal College of Education (Technical), Gusau",college,federal,Zamfara,Gusau,,accredited,,,Provost: Ag. Provost,https://ncce.gov.ng/AccreditedColleges,NCCE Official Data
Federal College of Education (Technical) in Yauri,college,federal,Kebbi,Unknown,https://nodomain.edu.ng,accredited,,,Provost: Prof. Sa'adu Umar,https://ncce.gov.ng/AccreditedColleges,NCCE Official Data
"Federal College Of Education(Technical), Keana",college,federal,Nasarawa,Keana,https://nodomain.edu.ng,accredited,,,Provost: Dr. Yusuf Abdullahi Ogwuzebe,https://ncce.gov.ng/AccreditedColleges,NCCE Official Data
"Federal College of Education (Technical), Omoku",college,federal,Rivers,Omoku,,accredited,www.infor@fcetomoku.edu.com,,Provost: Emmanuel Ikenyiri,https://ncce.gov.ng/AccreditedColleges,NCCE Official Data
"Federal College of Education (Tech), Potiskum",college,federal,Yobe,Potiskum,https://fcetpotiskum.edu.ng,accredited,,,Provost: Dr. Mohammed Madu Yunusa,https://ncce.gov.ng/AccreditedColleges,NCCE Official Data
"Federal College of Education (T), ISU Ebonyi State",college,federal,Ebonyi,ISU Ebonyi State,,accredited,,,Provost: Dr. Okey Reuben Okechukwu,https://ncce.gov.ng/AccreditedColleges,NCCE Official Data
"Federal College of Education (T), Umunze",college,state,Anambra,Umunze,https://www.fcetumunze.edu.ng,accredited,,,Provost: Dr. (Mrs.) Theresa O. Okoli,https://ncce.gov.ng/AccreditedColleges,NCCE Official Data
"Federal College of Education, Yola",college,federal,Adamawa,Yola,https://www.fceyolanigeria.org,accredited,,,Provost: Professor A.M. SA'AD,https://ncce.gov.ng/AccreditedColleges,NCCE Official Data
"Federal College of Education, Zaria",college,federal,Kaduna,Zaria,,accredited,,,Provost: Dr. Ango Abdullahi Ladan,https://ncce.gov.ng/AccreditedColleges,NCCE Official Data
"FESTMED COLLEGE OF EDUCATION, ONDO STATE",college,private,Ondo,ONDO STATE,https://www.coea-edu.com,accredited,,,Provost: Shogbesan Yusuf Olayinka (Mr.),https://ncce.gov.ng/AccreditedColleges,NCCE Official Data
First Technical University Ibadan,college,federal,Unknown,Unknown,,accredited,,,,https://myschoolgist.com/ng/list-of-accredited-colleges-of-education-in-nigeria/,CC-BY-NC-SA
Folrac Fortified College of Education,college,private,Ondo,Unknown,https://ffcoe.edu.ng,accredited,,,Provost: Pastor Foluso Ilemobayo Awoniyi,https://ncce.gov.ng/AccreditedColleges,NCCE Official Data
Gand-Plus College of Education,college,private,Kwara,Unknown,,accredited,,,,https://ncce.gov.ng/AccreditedColleges,NCCE Official Data
Gboko College of Education Benue State,college,private,Benue,Unknown,,accredited,,,Provost: Mr. Benedict Terka Iornyagh,https://ncce.gov.ng/AccreditedColleges,NCCE Official Data
"Global COE, Bukuru",college,private,Plateau,Bukuru,,accredited,,,Provost: Prof,https://ncce.gov.ng/AccreditedColleges,NCCE Official Data
"Gombe State COE, NAFADA",college,state,Gombe,NAFADA,,accredited,,,,https://ncce.gov.ng/AccreditedColleges,NCCE Official Data
Good Shepperd COE,college,private,Ogun,Unknown,,accredited,,,,https://ncce.gov.ng/AccreditedColleges,NCCE Official Data
GRACE COLLEGE OF EDUCATION,college,private,Osun,Unknown,,accredited,,,Provost: Not Available,https://ncce.gov.ng/AccreditedColleges,NCCE Official Data
"Hamzainab College of Education, Oshogbo",college,private,Osun,Oshogbo,,accredited,,,,https://ncce.gov.ng/AccreditedColleges,NCCE Official Data
Hassan Usman Katsina Polytechnic,college,state,Katsina,Unknown,,accredited,,,Provost: Dr. Ibrahim Mudi Kurfi,https://ncce.gov.ng/AccreditedColleges,NCCE Official Data
"Havard Wilson College of Education, Aba",college,private,Abia,Aba,,accredited,,,Provost: Uko Adaugo Akwaugu Q.,https://ncce.gov.ng/AccreditedColleges,NCCE Official Data
"Hill COE, Gwanje, Akwanga",college,private,Nasarawa,Akwanga,,accredited,,,Provost: Chief G. F Oyeleye,https://ncce.gov.ng/AccreditedColleges,NCCE Official Data
"His Grace College of Education, Ilorin",college,private,Kwara,Ilorin,,accredited,,,Provost: Dr. Ayeni J. K.,https://ncce.gov.ng/AccreditedColleges,NCCE Official Data
Hope and Anchor College of Education,college,private,Niger,Unknown,,accredited,,,,https://ncce.gov.ng/AccreditedColleges,NCCE Official Data
"Ibrahim Badamasi Babangida University, Lapai",college,federal,Unknown,Lapai,,accredited,,,,https://myschoolgist.com/ng/list-of-accredited-colleges-of-education-in-nigeria/,CC-BY-NC-SA
Ife College of Education Omala,college,private,kogi,Unknown,,accredited,,,Provost: Jibrin Joseph,https://ncce.gov.ng/AccreditedColleges,NCCE Official Data
"Ignatius Ajuru University of Education,Rumuolumeni",college,federal,Unknown,Rumuolumeni,,accredited,,,,https://myschoolgist.com/ng/list-of-accredited-colleges-of-education-in-nigeria/,CC-BY-NC-SA
Ikeduru College of Education,college,private,Imo,Unknown,https://none.edu.ng,accredited,,,Provost: not available,https://ncce.gov.ng/AccreditedColleges,NCCE Official Data
"Imam Hamzat COE, Ilorin",college,private,Kwara,Ilorin,,accredited,,,,https://ncce.gov.ng/AccreditedColleges,NCCE Official Data
"Imam Saidu COE, Funtua",college,private,Katsina,Funtua,,accredited,,,Provost: Dr.,https://ncce.gov.ng/AccreditedColleges,NCCE Official Data
"Innovative College of Education, Karu",college,state,Nasarawa,Karu,,accredited,,,"Provost: Dr. Maro,Joshua Embugu",https://ncce.gov.ng/AccreditedColleges,NCCE Official Data
Institute of Ecumenical Education (Thinkers Corner),college,state,Enugu,Unknown,,accredited,,,,https://ncce.gov.ng/AccreditedColleges,NCCE Official Data
"International College of Education, Langtang",college,private,Plateau,Langtang,https://SomethingEdu.ng,accredited,,,Provost: Dr. Provost,https://ncce.gov.ng/AccreditedColleges,NCCE Official Data
"Ipere COE, Agyaragu",college,private,Nasarawa,Agyaragu,,accredited,,,Provost: Dr. Oguche M. Damian,https://ncce.gov.ng/AccreditedColleges,NCCE Official Data
"Isaac Jasper Boro COE, Sagbama",college,state,Bayelsa,Sagbama,,accredited,,,Provost: Prof. Saviour Nathan A. Agoro,https://ncce.gov.ng/AccreditedColleges,NCCE Official Data
"Isa Kaita College of Education, Dutsin-Ma",college,state,Katsina,Dutsin-Ma,,accredited,,,Provost: Dr. M Abdu,https://ncce.gov.ng/AccreditedColleges,NCCE Official Data
"Islamic COE, Potiskum",college,private,Yobe,Potiskum,,accredited,,,Provost: Not Available,https://ncce.gov.ng/AccreditedColleges,NCCE Official Data
"JIBWIS COE, Jama’are",college,private,Bauchi,Jama’are,,accredited,,,,https://ncce.gov.ng/AccreditedColleges,NCCE Official Data
"JIBWIS COE, Jega, Kebbi",college,private,Kebbi,Kebbi,https://none.edu.ng,accredited,,,Provost: Haruna Saidu Sauwa,https://ncce.gov.ng/AccreditedColleges,NCCE Official Data
"Jibwis COE, Zuru, Kebbi State",college,private,Kebbi,Kebbi State,,accredited,,,,https://ncce.gov.ng/AccreditedColleges,NCCE Official Data
JIBWIS College of Education,college,private,Nasarawa,Unknown,,accredited,,,,https://ncce.gov.ng/AccreditedColleges,NCCE Official Data
JIBWIS College of Education Gombe,college,private,Gombe,Unknown,,accredited,,,,https://ncce.gov.ng/AccreditedColleges,NCCE Official Data
"Jibwis College of Education, Gumau",college,private,Bauchi,Gumau,,accredited,,,,https://ncce.gov.ng/AccreditedColleges,NCCE Official Data
JIBWIS College of Education Jos,college,private,Plateau,Unknown,,accredited,,,Provost: Ahmad Garba,https://ncce.gov.ng/AccreditedColleges,NCCE Official Data
Jigawa State COE,college,state,Jigawa,Unknown,https://none.edu.ng,accredited,,,Provost: Dr. Jummai Ali Kazaure,https://ncce.gov.ng/AccreditedColleges,NCCE Official Data
"JIGAWA STATE COLLEGE OF EDUCATION AND LEGAL STUDIES, RINGIM",college,state,Jigawa,RINGIM,https://www.jscilsringim.edu.ng,accredited,,,Provost: Not Available,https://ncce.gov.ng/AccreditedColleges,NCCE Official Data
"Jigawa State College of Education, Gumel",college,state,Jigawa,Gumel,https://jscoeg.edu.ng,accredited,,,Provost: Dr. Nura Muhammed Ringim,https://ncce.gov.ng/AccreditedColleges,NCCE Official Data
Jigawa State Polytechnic,college,state,Jigwa,Unknown,,accredited,,,,https://ncce.gov.ng/AccreditedColleges,NCCE Official Data
Jornato College of Education,college,private,Benue,Unknown,,accredited,,,Provost: Patric Elem,https://ncce.gov.ng/AccreditedColleges,NCCE Official Data
Kaduna Polytechnics,college,state,Kaduna,Unknown,,accredited,,,Provost: Prof. Idris M. Bugaje,https://ncce.gov.ng/AccreditedColleges,NCCE Official Data
"Kaduna State College of Education, Gidan-Waya, Kafanchan",college,state,Kaduna,Kafanchan,,accredited,,,Provost: Prof. Alexander Kure,https://ncce.gov.ng/AccreditedColleges,NCCE Official Data
Kano State College of Education and Preliminary  Studies (KASCEPTS),college,state,Kano,Unknown,https://none.edu.ng,accredited,,,Provost: Dr Sunusi Yakubu Ahmad,https://ncce.gov.ng/AccreditedColleges,NCCE Official Data
Kano State Polytechnic,college,state,Kano,Unknown,,accredited,,,Provost: Prof. Muktar Atiku Kurawa,https://ncce.gov.ng/AccreditedColleges,NCCE Official Data
Kashim Ibrahim College of Education,college,state,Borno,Unknown,https://none.edu.ng,accredited,,,Provost: Alh. Muhammad Alkali,https://ncce.gov.ng/AccreditedColleges,NCCE Official Data
Kazaure College of Education,college,private,Jigawa,Unknown,,accredited,,,,https://ncce.gov.ng/AccreditedColleges,NCCE Official Data
Kebbi State Polytechnic,college,state,Kebbi,Unknown,https://none.edu.ng,accredited,,,Provost: Haruna Saidu-Sauwa,https://ncce.gov.ng/AccreditedColleges,NCCE Official Data
Kinsey College Of Education,college,private,Kwara,Unknown,https://SomethingEdu.ng,accredited,,,Provost: Dr. Provost,https://ncce.gov.ng/AccreditedColleges,NCCE Official Data
Kogi East College of Education,college,private,Kogi,Unknown,,accredited,,,,https://ncce.gov.ng/AccreditedColleges,NCCE Official Data
"Kogi State College of Education, Ankpa",college,state,Kogi,Ankpa,https://www.kscoeankpa.edu.ng,accredited,,,Provost: Dr. Mohammed Kebiru Ibrahim,https://ncce.gov.ng/AccreditedColleges,NCCE Official Data
"Kogi State College of Education, Kabba",college,state,Kogi,Kabba,,accredited,,,Provost: --Mrs Jagboro Victoria Olusola,https://ncce.gov.ng/AccreditedColleges,NCCE Official Data
"Kwaine COE, Gombe",college,private,Gombe,Gombe,https://non.edu.ng,accredited,,,Provost: Dr. Ali Adamu Boderi,https://ncce.gov.ng/AccreditedColleges,NCCE Official Data
"Kwararafa COE, Otukpo",college,private,Benue,Otukpo,,accredited,,,Provost: Micheal Ogbeche,https://ncce.gov.ng/AccreditedColleges,NCCE Official Data
"Kwara State College of Education (Technical), Lafiagi",college,state,Kwara,Lafiagi,https://www.kwacoet.edu.ng,accredited,,,Provost: Dr. Barakat Bose Ibrahim,https://ncce.gov.ng/AccreditedColleges,NCCE Official Data
"Ladoke Akintola University of Technology, Ogbomoso",college,federal,Unknown,Ogbomoso,,accredited,,,,https://myschoolgist.com/ng/list-of-accredited-colleges-of-education-in-nigeria/,CC-BY-NC-SA
Lessel COE Gboko,college,private,Benue,Unknown,,accredited,,,Provost: Dr.,https://ncce.gov.ng/AccreditedColleges,NCCE Official Data
"Lifegate College of Education, Asa",college,state,Kwara,Asa,,accredited,,,,https://ncce.gov.ng/AccreditedColleges,NCCE Official Data
MARYAM IDRIS UMAR COLLEGE OF EDUCATION LIMITED,college,private,Kano,Unknown,https://SomethingEdu.ng,accredited,,,Provost: Dr. Provost,https://ncce.gov.ng/AccreditedColleges,NCCE Official Data
"MCF COE Agbarha-Otor, Delta",college,private,Delta,Delta,,accredited,,,Provost: Dr. Daniel D.Whawo,https://ncce.gov.ng/AccreditedColleges,NCCE Official Data
Meadow Hall COE,college,private,Lagos,Unknown,,accredited,,,,https://ncce.gov.ng/AccreditedColleges,NCCE Official Data
"Metro COE, Adogi-Lafia",college,private,Nasarawa,Adogi-Lafia,,accredited,,,,https://ncce.gov.ng/AccreditedColleges,NCCE Official Data
"Moje College of Education, Erin-Ile",college,private,Kwara,Erin-Ile,,accredited,,,,https://ncce.gov.ng/AccreditedColleges,NCCE Official Data
Moshood Abiola University of Science and Technology Abeokuta,college,federal,Unknown,Unknown,,accredited,,,,https://myschoolgist.com/ng/list-of-accredited-colleges-of-education-in-nigeria/,CC-BY-NC-SA
"Muftau Olanihun College of Education, Ibadan",college,private,Oyo,Ibadan,,accredited,,,Provost: Mr. Lawan Musliu,https://ncce.gov.ng/AccreditedColleges,NCCE Official Data
Muhammad Goni College of Legal and Islamic Studies (MOGOLIS),college,state,Borno,Unknown,,accredited,,,,https://ncce.gov.ng/AccreditedColleges,NCCE Official Data
"Muhyideen College of Education, Ilorin",college,private,Kwara,Ilorin,,accredited,,,Provost: Alh. Nurudeen Amzat Balio,https://ncce.gov.ng/AccreditedColleges,NCCE Official Data
"Murtadha COE, Olodo",college,private,Oyo,Olodo,,accredited,,,Provost: Not Available,https://ncce.gov.ng/AccreditedColleges,NCCE Official Data
Mus'ab Bn Umair College of Education Bajoga,college,private,Gombe,Unknown,,accredited,,,Provost: Engr. Tukur M. Lawal,https://ncce.gov.ng/AccreditedColleges,NCCE Official Data
Nana Aishat Memorial COE,college,private,Kwara,Unknown,,accredited,,,Provost: Dr. Abdurrafu,https://ncce.gov.ng/AccreditedColleges,NCCE Official Data
"Nasarrawa State College of Education, Akwanga",college,state,Nassarawa,Akwanga,,accredited,,,Provost: Mrs. Esther Abua Ammu-nnadi,https://ncce.gov.ng/AccreditedColleges,NCCE Official Data
National Institute for Nigerian Languages,college,state,Abia,Unknown,https://none.edu.ng,accredited,,,Provost: Prof. Ogbonna Onuoha,https://ncce.gov.ng/AccreditedColleges,NCCE Official Data
National Teachers Institute(NTI),college,state,Kaduna,Unknown,,accredited,,,,https://ncce.gov.ng/AccreditedColleges,NCCE Official Data
"Nigerian Army College of Education (NACOE), Ilorin",college,federal,Kwara,Ilorin,,accredited,,,Provost: Brig. Gen. Nuhu F Umaru,https://ncce.gov.ng/AccreditedColleges,NCCE Official Data
"Niger State College of Education, Minna",college,state,Niger,Minna,,accredited,,,Provost: Professor. Mohammad Yakubu Auna,https://ncce.gov.ng/AccreditedColleges,NCCE Official Data
"Nosakhare COE, Benin City",college,private,Edo,Benin City,,accredited,,,,https://ncce.gov.ng/AccreditedColleges,NCCE Official Data
Nuhu Bamalli Polytechnic,college,state,Kaduna,Unknown,https://nubapoly.edu.ng,accredited,,,Provost: Provost,https://ncce.gov.ng/AccreditedColleges,NCCE Official Data
"Nwafor Orizu College of Education, Nsugbe",college,state,Anambra,Nsugbe,https://nocen.edu.ng,accredited,,,Provost: Dr. Justina C. Anyadiegwu,https://ncce.gov.ng/AccreditedColleges,NCCE Official Data
"Olabisi Onabanjo University, Ago Iwoye",college,federal,Unknown,Ago Iwoye,,accredited,,,,https://myschoolgist.com/ng/list-of-accredited-colleges-of-education-in-nigeria/,CC-BY-NC-SA
Olekamba College of Education,college,private,Ondo,Unknown,,accredited,,,,https://ncce.gov.ng/AccreditedColleges,NCCE Official Data
Omaga aejigbo College of education Ajiolo-Ojiaji,college,state,Kogi,Unknown,,accredited,,,Provost: Kakubu Shuaibu,https://ncce.gov.ng/AccreditedColleges,NCCE Official Data
"ONIT COE, Abagana",college,private,Anambra,Abagana,,accredited,,,Provost: Mrs. Nwose Adaobi,https://ncce.gov.ng/AccreditedColleges,NCCE Official Data
"Osan Ekiti COE, Ekiti State",college,private,Ekiti,Ekiti State,https://osanekiticoe.com,accredited,,,Provost: Professor J.M. Ajibade Oyinloye,https://ncce.gov.ng/AccreditedColleges,NCCE Official Data
"Osisa Tech. College of Education, Enugu",college,private,Enugu,Enugu,,accredited,,,Provost: Dr. Mike Ike Okwudili,https://ncce.gov.ng/AccreditedColleges,NCCE Official Data
Oswald Waller COE Shendam,college,private,Plateau,Unknown,,accredited,,,Provost: Prof. Mathew N. Sule,https://ncce.gov.ng/AccreditedColleges,NCCE Official Data
Owu College of Education,college,private,Ogu,Unknown,,accredited,,,,https://ncce.gov.ng/AccreditedColleges,NCCE Official Data
"Oyo State College of Education, Lanlate",college,state,Oyo,Lanlate,https://oyscoel.edu.ng,accredited,,,Provost: Mr. A. Johnson Oladipupo,https://ncce.gov.ng/AccreditedColleges,NCCE Official Data
Pan Africa Entrepreneurship and Vocational College of Education,college,private,Lagos,Unknown,,accredited,,,Provost: Dr. Imide Israel,https://ncce.gov.ng/AccreditedColleges,NCCE Official Data
PAN African COE Offa,college,private,Kwara,Unknown,,accredited,,,Provost: professor,https://ncce.gov.ng/AccreditedColleges,NCCE Official Data
Peace College Of Education Ankpa,college,private,Kogi,Unknown,,accredited,,,Provost: Mohd Ibrahim,https://ncce.gov.ng/AccreditedColleges,NCCE Official Data
"Peaceland College of Education, Enugu",college,private,Enugu,Enugu,"https://www.peaceland.edu,ng",accredited,,,Provost: Rev. Fr. Dr. Leo IIechukwu,https://ncce.gov.ng/AccreditedColleges,NCCE Official Data
Peacock College of Education Jalingo,college,private,Taraba,Unknown,,accredited,,,,https://ncce.gov.ng/AccreditedColleges,NCCE Official Data
Piaget College of Education,college,state,Ogun,Unknown,,accredited,,,Provost: O. A. wiltz,https://ncce.gov.ng/AccreditedColleges,NCCE Official Data
Plateau State Polytechnic,college,state,Plataeu,Unknown,,accredited,,,Provost: Jmaes Mashor Julson,https://ncce.gov.ng/AccreditedColleges,NCCE Official Data
"Premier COE, Osun",college,private,Osun,Osun,,accredited,,,,https://ncce.gov.ng/AccreditedColleges,NCCE Official Data
Prince Abubakar Audu University Anyigba,college,federal,Unknown,Unknown,,accredited,,,,https://myschoolgist.com/ng/list-of-accredited-colleges-of-education-in-nigeria/,CC-BY-NC-SA
Ramat Polytechnic,college,state,Borno,Unknown,,accredited,,,Provost: B.G. Ibrahim,https://ncce.gov.ng/AccreditedColleges,NCCE Official Data
Raphat COE,college,private,Osun,Unknown,,accredited,,,,https://ncce.gov.ng/AccreditedColleges,NCCE Official Data
"Royal City COE, Iyesi-Ota",college,private,Ogun,Iyesi-Ota,,accredited,,,Provost: Mrs. Da-Silva Augustina,https://ncce.gov.ng/AccreditedColleges,NCCE Official Data
"Royal COE, Ikeja, Lagos State",college,private,Lagos,Lagos State,,accredited,,,Provost: Dr,https://ncce.gov.ng/AccreditedColleges,NCCE Official Data
"Royal College of Education, Ogun State",college,private,Ogun,Ogun State,,accredited,,,Provost: Adesanya Mercy Olubisi,https://ncce.gov.ng/AccreditedColleges,NCCE Official Data
"Sa'adatu Rimi College of Education, Kumbotso, Kano",college,state,Kano,Kano,,accredited,,,Provost: Dr. Yahaya Isa Bunkure,https://ncce.gov.ng/AccreditedColleges,NCCE Official Data
Sam Ale College of Education,college,private,FCT Abuja,Unknown,,accredited,,,,https://ncce.gov.ng/AccreditedColleges,NCCE Official Data
Sarkin Yama Community College of Education,college,private,Bauchi,Unknown,,accredited,,,,https://ncce.gov.ng/AccreditedColleges,NCCE Official Data
Sharifat College of Education and Islamic Legal Studies,college,private,Kwara,Unknown,https://kwaracails.edu.ng,accredited,,,Provost: Sharifat Musa,https://ncce.gov.ng/AccreditedColleges,NCCE Official Data
"Shehu Shagari College of Education, Sokoto",college,state,Sokoto,Sokoto,,accredited,,,Provost: Dr. Muhammad Wadata Hakimi,https://ncce.gov.ng/AccreditedColleges,NCCE Official Data
"Sinai COE & Ent. Studies Gboko, Benue",college,private,Benue,Benue,,accredited,,,Provost: Akange I.S,https://ncce.gov.ng/AccreditedColleges,NCCE Official Data
"S. Light College of Education, Kano",college,private,Kano,Kano,https://nodomain.edu.ng,accredited,,,Provost: Saifullahi Garba Umar,https://ncce.gov.ng/AccreditedColleges,NCCE Official Data
"St. Augustine College of Education Akoka, Lagos",college,private,Lagos,Lagos,,accredited,,,Provost: Professor (Mrs.) J O. Omokhodion,https://ncce.gov.ng/AccreditedColleges,NCCE Official Data
"STEADY FLOW COE, IKOM",college,private,Cross River,IKOM,,accredited,,,Provost: Dr.,https://ncce.gov.ng/AccreditedColleges,NCCE Official Data
"St. Frances Asissi College of Education, Zaria",college,private,Kaduna,Zaria,,accredited,,,Provost: Rev. Fr. Ven Isaac Akut,https://ncce.gov.ng/AccreditedColleges,NCCE Official Data
St. Paul's College of Education NNewi,college,private,Anambra,Unknown,,accredited,,,Provost: Rev. Fr. Jude O. Umeh,https://ncce.gov.ng/AccreditedColleges,NCCE Official Data
Sunnah College of Education,college,private,Bauchi,Unknown,,accredited,,,Provost: Dr.,https://ncce.gov.ng/AccreditedColleges,NCCE Official Data
"Tai Solarin College of Education, Science and Technology, Omu-Ajose",college,state,Ogun,Omu-Ajose,https://www.tasce.edu.ng,accredited,,,Provost: Dr. Adeola-Kiadese Lukman,https://ncce.gov.ng/AccreditedColleges,NCCE Official Data
"Talent Finders College of Education, Ilala, Kwara State",college,private,Kwara,Kwara State,https://SomethingEdu.ng,accredited,,,Provost: Dr. Provost,https://ncce.gov.ng/AccreditedColleges,NCCE Official Data
"Tamic COE, Lagos",college,private,Lagos,Lagos,https://NON.EDU.NG,accredited,,,Provost: NOT AVAILABLE,https://ncce.gov.ng/AccreditedColleges,NCCE Official Data
"TCNN College of Education, Bukuru",college,private,Plateau,Bukuru,,accredited,,,Provost: Prof. Samuel P. Ango,https://ncce.gov.ng/AccreditedColleges,NCCE Official Data
The College of Education Iseyin,college,private,Oyo,Unknown,https://coediseyin.edukate.ng,accredited,,,Provost: Dr. Rasak Adetunji Adefabi,https://ncce.gov.ng/AccreditedColleges,NCCE Official Data
"The College of Education, Nsukka",college,private,Enugu,Nsukka,,accredited,,,Provost: Dr. Nwosu O.O,https://ncce.gov.ng/AccreditedColleges,NCCE Official Data
The Heritage College of Education,college,private,Ondo,Unknown,https://SomethingEdu.ng,accredited,,,Provost: Dr. Provost,https://ncce.gov.ng/AccreditedColleges,NCCE Official Data
"The Polytechnic Iree, Osun State",college,state,Osun,Osun State,,accredited,,,Provost: Dr,https://ncce.gov.ng/AccreditedColleges,NCCE Official Data
Tijjani Ibrahim College of Education,college,private,Kano,Unknown,,accredited,,,Provost: Ahmad AminuHausawa,https://ncce.gov.ng/AccreditedColleges,NCCE Official Data
Tony G Erewa College of Education,college,private,Delta,Unknown,https://tonygerewacoe.com.ng,accredited,,,Provost: Dr. Othuke Valentine Oroka,https://ncce.gov.ng/AccreditedColleges,NCCE Official Data
"Top-Most COE, Ipaja-Agbado",college,private,Lagos,Ipaja-Agbado,,accredited,,,Provost: Dr.,https://ncce.gov.ng/AccreditedColleges,NCCE Official Data
"Top Sprout Coe, Ilorin",college,private,Kwara,Ilorin,https://none.edu.ng,accredited,,,Provost: Dr. Ayinde Shehu Jawondo,https://ncce.gov.ng/AccreditedColleges,NCCE Official Data
"Turath COE, Kano",college,private,Kano,Kano,,accredited,,,,https://ncce.gov.ng/AccreditedColleges,NCCE Official Data
"Uli College of Education, Uli",college,private,Anambra,Uli,,accredited,,,,https://ncce.gov.ng/AccreditedColleges,NCCE Official Data
"Umar Bun Khatab College of Education, Tudun Nupawa, Kaduna",college,private,Kaduna,Kaduna,,accredited,,,,https://ncce.gov.ng/AccreditedColleges,NCCE Official Data
"Umar Ibn Ibrahim El-Kanemi College of Education, Science and Technology, Bama",college,state,Borno,Bama,,accredited,,,Provost: Usman Aja Makinta,https://ncce.gov.ng/AccreditedColleges,NCCE Official Data
Umar Suleiman College of Education Gashua,college,state,Yobe,Unknown,https://none.edu.ng,accredited,,,Provost: Dr. Abdurahman Danladi,https://ncce.gov.ng/AccreditedColleges,NCCE Official Data
"Unity College of Education, Aukpa Adoka, Benue",college,private,Benue,Benue,,accredited,,,Provost: Ajene Otache,https://ncce.gov.ng/AccreditedColleges,NCCE Official Data
"Upland College of Education, Science and Technology",college,state,Ondo,Science and Technology,https://upland.edu.ng,accredited,,,Provost: Dr.,https://ncce.gov.ng/AccreditedColleges,NCCE Official Data
"Victory Belt College of Education,Iyale",college,private,Kogi,Iyale,https://victorybeltintlminitries.com/college-of-education/,accredited,,,Provost: Dr. Provost,https://ncce.gov.ng/AccreditedColleges,NCCE Official Data
WATERSIDE COLLEGE OF EDUCATION,college,private,Ogun,Unknown,https://nodomain.edu.ng,accredited,,,Provost: Adeniran Adewale Sunday,https://ncce.gov.ng/AccreditedColleges,NCCE Official Data
Waziri Umaru Federal Polytechnic,college,state,Kebbi,Unknown,,accredited,,,Provost: Arc. Muhammad Sani Aliyu,https://ncce.gov.ng/AccreditedColleges,NCCE Official Data
"Yewa Central College of Education, Ayetoro, Abeokuta",college,private,Ogun,Abeokuta,,accredited,,,Provost: Mrs. M.O Bamgbose,https://ncce.gov.ng/AccreditedColleges,NCCE Official Data
"Yusuf Bala Usman CoE and Legal Studies, Daura",college,state,Katsina,Daura,https://none.edu.ng,accredited,,,Provost: Dr. AbdulMudallib Ahmad Muhammad,https://ncce.gov.ng/AccreditedColleges,NCCE Official Data
"Zamfara State College of Education, Maru",college,state,Zamfara,Maru,,accredited,,,Provost: Nasiru S Pawa,https://ncce.gov.ng/AccreditedColleges,NCCE Official Data
Zaria Institute of Information Technology,college,state,Kaduna,Unknown,,accredited,,,Provost: Ibrahim Ahmad Ango,https://ncce.gov.ng/AccreditedColleges,NCCE Official Data
"AbdulKadir Kure University, Minna Niger State",nursing,federal,Niger,Minna Niger State,,accredited,,,,https://myschoolgist.com/ng/list-of-teaching-hospitals-in-nigeria/,CC-BY-NC-SA
"Abdulsalam Abubakar University of Agriculture and Climate Action, Mokwa, Niger State",nursing,federal,Niger,Mokwa,,accredited,,,,https://myschoolgist.com/ng/list-of-teaching-hospitals-in-nigeria/,CC-BY-NC-SA
"Abia State University, Uturu",nursing,federal,Abia,Uturu,https://myschoolgist.com/ng/absu-courses/,accredited,,,,https://myschoolgist.com/ng/list-of-teaching-hospitals-in-nigeria/,CC-BY-NC-SA
Adamawa State University Mubi,nursing,federal,Adamawa,Unknown,https://myschoolgist.com/ng/adsu-courses/,accredited,,,,https://myschoolgist.com/ng/list-of-teaching-hospitals-in-nigeria/,CC-BY-NC-SA
"Adekunle Ajasin University, Akungba",nursing,federal,Unknown,University,,accredited,,,,https://myschoolgist.com/ng/list-of-teaching-hospitals-in-nigeria/,CC-BY-NC-SA
"Adekunle Ajasin University, Akungba",nursing,federal,Unknown,University,,accredited,,,,https://myschoolgist.com/ng/list-of-schools-of-nursing-in-nigeria/,CC-BY-NC-SA
"Akwa Ibom State University, Ikot Akpaden",nursing,federal,Akwa Ibom,Ikot Akpaden,,accredited,,,,https://myschoolgist.com/ng/list-of-teaching-hospitals-in-nigeria/,CC-BY-NC-SA
"Aliko Dangote university of Science & Technology, Wudil",nursing,federal,Unknown,Wudil,,accredited,,,,https://myschoolgist.com/ng/list-of-teaching-hospitals-in-nigeria/,CC-BY-NC-SA
"Aliko Dangote university of Science & Technology, Wudil",nursing,federal,Unknown,Wudil,,accredited,,,,https://myschoolgist.com/ng/list-of-schools-of-nursing-in-nigeria/,CC-BY-NC-SA
"Ambrose Alli University, Ekpoma",nursing,federal,Unknown,Ekpoma,https://www.aaue.com,accredited,,,,https://myschoolgist.com/ng/list-of-schools-of-nursing-in-nigeria/,CC-BY-NC-SA
"Ambrose Alli University, Ekpoma",nursing,federal,Unknown,Ekpoma,https://www.aaue.com,accredited,,,,https://myschoolgist.com/ng/list-of-teaching-hospitals-in-nigeria/,CC-BY-NC-SA
"Bamidele Olumilua University of Science and Technology Ikere, Ekiti State",nursing,federal,Ekiti,Ekiti State,https://myschoolgist.com/ng/bouesti-courses/,accredited,,,,https://myschoolgist.com/ng/list-of-teaching-hospitals-in-nigeria/,CC-BY-NC-SA
"Bauchi State University, Gadau",nursing,federal,Bauchi,Gadau,https://myschoolgist.com/ng/basug-courses/,accredited,,,,https://myschoolgist.com/ng/list-of-teaching-hospitals-in-nigeria/,CC-BY-NC-SA
Bayelsa Medical University,nursing,federal,Bayelsa,Unknown,,accredited,,,,https://myschoolgist.com/ng/list-of-teaching-hospitals-in-nigeria/,CC-BY-NC-SA
"Benue State University, Makurdi",nursing,federal,Benue,Makurdi,https://myschoolgist.com/ng/bsu-courses/,accredited,,,,https://myschoolgist.com/ng/list-of-teaching-hospitals-in-nigeria/,CC-BY-NC-SA
"Benue State University of Agriculture Science and Technology, Ihugh.",nursing,federal,Benue,Ihugh,,accredited,,,,https://myschoolgist.com/ng/list-of-teaching-hospitals-in-nigeria/,CC-BY-NC-SA
"Bornu State University, Maiduguri",nursing,federal,Unknown,Maiduguri,,accredited,,,,https://myschoolgist.com/ng/list-of-teaching-hospitals-in-nigeria/,CC-BY-NC-SA
"Bornu State University, Maiduguri",nursing,federal,Unknown,Maiduguri,,accredited,,,,https://myschoolgist.com/ng/list-of-schools-of-nursing-in-nigeria/,CC-BY-NC-SA
"Chukwuemeka Odumegwu Ojukwu University, Uli",nursing,federal,Unknown,Uli,,accredited,,,,https://myschoolgist.com/ng/list-of-schools-of-nursing-in-nigeria/,CC-BY-NC-SA
"Chukwuemeka Odumegwu Ojukwu University, Uli",nursing,federal,Unknown,Uli,,accredited,,,,https://myschoolgist.com/ng/list-of-teaching-hospitals-in-nigeria/,CC-BY-NC-SA
"Confluence University of Science and Technology Osara, Kogi",nursing,federal,Kogi,Unknown,,accredited,,,,https://myschoolgist.com/ng/list-of-teaching-hospitals-in-nigeria/,CC-BY-NC-SA
"Cross River University of Education and Entrepeneurship, Akampa, Cross River State",nursing,federal,Cross River,Akampa,,accredited,,,,https://myschoolgist.com/ng/list-of-teaching-hospitals-in-nigeria/,CC-BY-NC-SA
Delta State University Abraka,nursing,federal,Delta,Unknown,https://myschoolgist.com/ng/delsu-courses/,accredited,,,,https://myschoolgist.com/ng/list-of-teaching-hospitals-in-nigeria/,CC-BY-NC-SA
"Delta University of Science and Technology, Ozoro",nursing,federal,Delta,Ozoro,https://myschoolgist.com/ng/delta-state-university-of-science-and-technology-courses/,accredited,,,,https://myschoolgist.com/ng/list-of-teaching-hospitals-in-nigeria/,CC-BY-NC-SA
"Dennis Osadebe University, Asaba",nursing,federal,Unknown,Asaba,,accredited,,,,https://myschoolgist.com/ng/list-of-teaching-hospitals-in-nigeria/,CC-BY-NC-SA
"Dennis Osadebe University, Asaba",nursing,federal,Unknown,Asaba,,accredited,,,,https://myschoolgist.com/ng/list-of-schools-of-nursing-in-nigeria/,CC-BY-NC-SA
"Ebonyi State University, Abakaliki",nursing,federal,Ebonyi,Abakaliki,https://myschoolgist.com/ng/ebsu-courses/,accredited,,,,https://myschoolgist.com/ng/list-of-teaching-hospitals-in-nigeria/,CC-BY-NC-SA
"Ebonyi State University of ICT, Science and Technology, Oferekpe, Ebonyi State",nursing,federal,Ebonyi,Science and Technology,,accredited,,,,https://myschoolgist.com/ng/list-of-teaching-hospitals-in-nigeria/,CC-BY-NC-SA
Edo State University Uzairue,nursing,federal,Edo,Unknown,,accredited,,,,https://myschoolgist.com/ng/list-of-teaching-hospitals-in-nigeria/,CC-BY-NC-SA
Ekiti State University,nursing,federal,Ekiti,Unknown,https://myschoolgist.com/ng/eksu-courses/,accredited,,,,https://myschoolgist.com/ng/list-of-teaching-hospitals-in-nigeria/,CC-BY-NC-SA
Emanuel Alayande University of Education Oyo,nursing,federal,Oyo,Unknown,,accredited,,,,https://myschoolgist.com/ng/list-of-teaching-hospitals-in-nigeria/,CC-BY-NC-SA
"Enugu State University of Science and Technology, Enugu",nursing,federal,Enugu,Unknown,https://myschoolgist.com/ng/esut-courses/,accredited,,,,https://myschoolgist.com/ng/list-of-teaching-hospitals-in-nigeria/,CC-BY-NC-SA
First Technical University Ibadan,nursing,federal,Unknown,Unknown,,accredited,,,,https://myschoolgist.com/ng/list-of-schools-of-nursing-in-nigeria/,CC-BY-NC-SA
First Technical University Ibadan,nursing,federal,Unknown,Unknown,,accredited,,,,https://myschoolgist.com/ng/list-of-teaching-hospitals-in-nigeria/,CC-BY-NC-SA
"Gombe State Univeristy, Gombe",nursing,federal,Gombe,Unknown,https://myschoolgist.com/ng/gsu-courses/,accredited,,,,https://myschoolgist.com/ng/list-of-teaching-hospitals-in-nigeria/,CC-BY-NC-SA
Gombe State University of Science and Technology,nursing,federal,Gombe,Unknown,,accredited,,,,https://myschoolgist.com/ng/list-of-teaching-hospitals-in-nigeria/,CC-BY-NC-SA
"Ibrahim Badamasi Babangida University, Lapai",nursing,federal,Unknown,Lapai,,accredited,,,,https://myschoolgist.com/ng/list-of-schools-of-nursing-in-nigeria/,CC-BY-NC-SA
"Ibrahim Badamasi Babangida University, Lapai",nursing,federal,Unknown,Lapai,,accredited,,,,https://myschoolgist.com/ng/list-of-teaching-hospitals-in-nigeria/,CC-BY-NC-SA
"Ignatius Ajuru University of Education,Rumuolumeni",nursing,federal,Unknown,Rumuolumeni,,accredited,,,,https://myschoolgist.com/ng/list-of-teaching-hospitals-in-nigeria/,CC-BY-NC-SA
"Ignatius Ajuru University of Education,Rumuolumeni",nursing,federal,Unknown,Rumuolumeni,,accredited,,,,https://myschoolgist.com/ng/list-of-schools-of-nursing-in-nigeria/,CC-BY-NC-SA
"Imo State University, Owerri",nursing,federal,Imo,Owerri,https://myschoolgist.com/ng/imsu-courses/,accredited,,,,https://myschoolgist.com/ng/list-of-teaching-hospitals-in-nigeria/,CC-BY-NC-SA
"Kaduna State University, Kaduna",nursing,federal,Kaduna,Unknown,https://myschoolgist.com/ng/kasu-courses/,accredited,,,,https://myschoolgist.com/ng/list-of-teaching-hospitals-in-nigeria/,CC-BY-NC-SA
"Kebbi State University of Science and Technology, Aliero",nursing,federal,Kebbi,Aliero,,accredited,,,,https://myschoolgist.com/ng/list-of-teaching-hospitals-in-nigeria/,CC-BY-NC-SA
"Kingsley Ozumba Mbadiwe University Ogboko, Imo State",nursing,federal,Imo,Imo State,https://myschoolgist.com/ng/epu-courses/,accredited,,,,https://myschoolgist.com/ng/list-of-teaching-hospitals-in-nigeria/,CC-BY-NC-SA
"Kogi State University, Kabba",nursing,federal,Kogi,Kabba,,accredited,,,,https://myschoolgist.com/ng/list-of-teaching-hospitals-in-nigeria/,CC-BY-NC-SA
"Kwara State University, Ilorin",nursing,federal,Kwara,Ilorin,https://myschoolgist.com/ng/kwasu-courses/,accredited,,,,https://myschoolgist.com/ng/list-of-teaching-hospitals-in-nigeria/,CC-BY-NC-SA
"Kwara State University of Education, Ilorin, Kwara State",nursing,federal,Kwara,Ilorin,,accredited,,,,https://myschoolgist.com/ng/list-of-teaching-hospitals-in-nigeria/,CC-BY-NC-SA
"Ladoke Akintola University of Technology, Ogbomoso",nursing,federal,Unknown,Ogbomoso,,accredited,,,,https://myschoolgist.com/ng/list-of-schools-of-nursing-in-nigeria/,CC-BY-NC-SA
"Ladoke Akintola University of Technology, Ogbomoso",nursing,federal,Unknown,Ogbomoso,,accredited,,,,https://myschoolgist.com/ng/list-of-teaching-hospitals-in-nigeria/,CC-BY-NC-SA
"Lagos State University of Education, Ijanikin",nursing,federal,Lagos,Ijanikin,,accredited,,,,https://myschoolgist.com/ng/list-of-teaching-hospitals-in-nigeria/,CC-BY-NC-SA
Lagos State University of Science and Technology Ikorodu,nursing,federal,Lagos,Unknown,,accredited,,,,https://myschoolgist.com/ng/list-of-teaching-hospitals-in-nigeria/,CC-BY-NC-SA
"Lagos State University, Ojo",nursing,federal,Lagos,Ojo,https://myschoolgist.com/ng/lasu-courses/,accredited,,,,https://myschoolgist.com/ng/list-of-teaching-hospitals-in-nigeria/,CC-BY-NC-SA
Moshood Abiola University of Science and Technology Abeokuta,nursing,federal,Unknown,Unknown,,accredited,,,,https://myschoolgist.com/ng/list-of-schools-of-nursing-in-nigeria/,CC-BY-NC-SA
Moshood Abiola University of Science and Technology Abeokuta,nursing,federal,Unknown,Unknown,,accredited,,,,https://myschoolgist.com/ng/list-of-teaching-hospitals-in-nigeria/,CC-BY-NC-SA
Nasarawa State University Keffi,nursing,federal,Nasarawa,Unknown,https://myschoolgist.com/ng/nsuk-courses/,accredited,,,,https://myschoolgist.com/ng/list-of-teaching-hospitals-in-nigeria/,CC-BY-NC-SA
Niger Delta University Yenagoa,nursing,federal,Delta,Unknown,https://myschoolgist.com/ng/ndu-courses/,accredited,,,,https://myschoolgist.com/ng/list-of-teaching-hospitals-in-nigeria/,CC-BY-NC-SA
"Olabisi Onabanjo University, Ago Iwoye",nursing,federal,Unknown,Ago Iwoye,,accredited,,,,https://myschoolgist.com/ng/list-of-teaching-hospitals-in-nigeria/,CC-BY-NC-SA
"Olabisi Onabanjo University, Ago Iwoye",nursing,federal,Unknown,Ago Iwoye,,accredited,,,,https://myschoolgist.com/ng/list-of-schools-of-nursing-in-nigeria/,CC-BY-NC-SA
"Olusegun Agagu University of Sc. & Tech., Okitipupa, Ondo",nursing,federal,Ondo,Okitipupa,,accredited,,,,https://myschoolgist.com/ng/list-of-teaching-hospitals-in-nigeria/,CC-BY-NC-SA
Osun State University Osogbo,nursing,federal,Osun,Unknown,https://myschoolgist.com/ng/uniosun-courses/,accredited,,,,https://myschoolgist.com/ng/list-of-teaching-hospitals-in-nigeria/,CC-BY-NC-SA
Plateau State University Bokkos,nursing,federal,Plateau,Unknown,https://myschoolgist.com/ng/plasu-courses/,accredited,,,,https://myschoolgist.com/ng/list-of-teaching-hospitals-in-nigeria/,CC-BY-NC-SA
Prince Abubakar Audu University Anyigba,nursing,federal,Unknown,Unknown,,accredited,,,,https://myschoolgist.com/ng/list-of-teaching-hospitals-in-nigeria/,CC-BY-NC-SA
Prince Abubakar Audu University Anyigba,nursing,federal,Unknown,Unknown,,accredited,,,,https://myschoolgist.com/ng/list-of-schools-of-nursing-in-nigeria/,CC-BY-NC-SA
Rivers State University,nursing,federal,Rivers,Unknown,,accredited,,,,https://myschoolgist.com/ng/list-of-teaching-hospitals-in-nigeria/,CC-BY-NC-SA
"Shehu Shagari University of Education, Sokoto",nursing,federal,Sokoto,Unknown,,accredited,,,,https://myschoolgist.com/ng/list-of-teaching-hospitals-in-nigeria/,CC-BY-NC-SA
Sokoto State University,nursing,federal,Sokoto,Unknown,https://myschoolgist.com/ng/ssu-courses/,accredited,,,,https://myschoolgist.com/ng/list-of-teaching-hospitals-in-nigeria/,CC-BY-NC-SA
"State University of Medical and Applied Sciences, Igbo-Eno, Enugu",nursing,federal,Enugu,Igbo,,accredited,,,,https://myschoolgist.com/ng/list-of-teaching-hospitals-in-nigeria/,CC-BY-NC-SA
"Sule Lamido University, Kafin Hausa, Jigawa",nursing,federal,Jigawa,Hausa,https://myschoolgist.com/ng/slu-courses/,accredited,,,,https://myschoolgist.com/ng/list-of-teaching-hospitals-in-nigeria/,CC-BY-NC-SA
"Taraba State University, Jalingo",nursing,federal,Taraba,Jalingo,https://myschoolgist.com/ng/tasu-courses/,accredited,,,,https://myschoolgist.com/ng/list-of-teaching-hospitals-in-nigeria/,CC-BY-NC-SA
Umar Musa Yar’ Adua University Katsina,nursing,federal,Katsina,Unknown,https://myschoolgist.com/ng/umyu-courses/,accredited,,,,https://myschoolgist.com/ng/list-of-teaching-hospitals-in-nigeria/,CC-BY-NC-SA
"University of Aeronautics and Aerospace Engineering Ezza, Ebonyi State",nursing,federal,Ebonyi,Ebonyi State,,accredited,,,,https://myschoolgist.com/ng/list-of-teaching-hospitals-in-nigeria/,CC-BY-NC-SA
"University of Africa Toru Orua, Bayelsa State",nursing,federal,Bayelsa,Bayelsa State,https://myschoolgist.com/ng/uat-courses/,accredited,,,,https://myschoolgist.com/ng/list-of-teaching-hospitals-in-nigeria/,CC-BY-NC-SA
"University of Agriculture and Environmental Sciences Umuagwo, Imo State",nursing,federal,Imo,Imo State,,accredited,,,,https://myschoolgist.com/ng/list-of-teaching-hospitals-in-nigeria/,CC-BY-NC-SA
"University of Cross River State, Calabar",nursing,federal,Cross River,Calabar,,accredited,,,,https://myschoolgist.com/ng/list-of-teaching-hospitals-in-nigeria/,CC-BY-NC-SA
"University of Delta, Agbor",nursing,federal,Delta,Agbor,https://myschoolgist.com/ng/unidel-courses/,accredited,,,,https://myschoolgist.com/ng/list-of-teaching-hospitals-in-nigeria/,CC-BY-NC-SA
"University of Ilesa, Osun State",nursing,federal,Osun,Osun State,https://myschoolgist.com/ng/ilesa-university-courses/,accredited,,,,https://myschoolgist.com/ng/list-of-teaching-hospitals-in-nigeria/,CC-BY-NC-SA
"University of Medical Sciences, Ondo City, Ondo State",nursing,federal,Ondo,Ondo City,,accredited,,,,https://myschoolgist.com/ng/list-of-teaching-hospitals-in-nigeria/,CC-BY-NC-SA
"Yobe State University, Damaturu",nursing,federal,Yobe,Damaturu,https://myschoolgist.com/ng/ysu-courses/,accredited,,,,https://myschoolgist.com/ng/list-of-teaching-hospitals-in-nigeria/,CC-BY-NC-SA
Yusuf Maitama Sule University Kano,nursing,federal,Kano,Unknown,,accredited,,,,https://myschoolgist.com/ng/list-of-teaching-hospitals-in-nigeria/,CC-BY-NC-SA
Zamfara State University,nursing,federal,Zamfara,Unknown,,accredited,,,,https://myschoolgist.com/ng/list-of-teaching-hospitals-in-nigeria/,CC-BY-NC-SA